,name,country_code,city,latitude,longitude
0,Wetpaint,USA,Seattle,47.603122,-122.333253
1,Wetpaint,USA,New York,40.7237306,-73.9964312
2,Digg,USA,San Francisco,37.764726,-122.394523
3,Facebook,USA,Menlo Park,37.41605,-122.151801
4,Facebook,IRL,Dublin,53.344104,-6.267494
5,Facebook,USA,New York,40.7557162,-73.9792469
6,Geni,USA,West Hollywood,34.090368,-118.393064
7,Twitter,USA,San Francisco,37.7768052,-122.4169244
8,StumbleUpon,USA,San Francisco,37.775196,-122.419204
9,Gizmoz,USA,Menlo Park,37.48413,-122.169472
10,Scribd,USA,San Francisco,37.789634,-122.404052
11,Slacker,USA,San Diego,33.022176,-117.081406
12,Lala,USA,Palo Alto,37.451151,-122.154369
13,eBay,USA,San Jose,37.295005,-121.930035
14,MeetMoi,USA,New York City,40.757929,-73.985506
15,Joost,USA,New York,40.7464969,-74.0094471
16,Babelgum,GBR,London,53.344104,-6.267494
17,Plaxo,USA,Sunnyvale,37.387845,-122.055197
18,Cisco,USA,San Jose,37.408802,-121.95377
19,Yahoo!,USA,Sunnyvale,37.418531,-122.025485
20,Powerset,USA,San Francisco,37.778613,-122.395289
21,Technorati,USA,San Francisco,37.779558,-122.393041
22,AddThis,USA,Vienna,38.926172,-77.245195
23,AddThis,USA,New York,40.724604,-73.996876
24,AddThis,USA,Culver City,34.0263021,-118.380954
25,AddThis,USA,Troy,42.557958,-83.167884
26,OpenX,USA,Pasadena,34.1494713,-118.1327468
27,Mahalo,USA,Culver City,34.017606,-118.487267
28,Kyte,USA,San Francisco,37.788482,-122.409173
29,Veoh,USA,San Diego,32.902266,-117.20834
30,Jingle Networks,USA,New York,37.480999,-122.173887
31,Info,USA,Chicago,41.885619,-87.622309
32,JotSpot,USA,Palo Alto,37.437328,-122.159928
33,Meetup,USA,New York,40.72604,-73.995722
34,Mercora,USA,Sunnyvale,37.384239,-122.012475
35,LifeLock,USA,Tempe,33.429859,-111.938739
36,Wesabe,USA,San Francisco,37.793148,-122.402567
37,Jangl SMS,USA,Pleasanton,37.697805,-121.907768
38,Prosper,USA,San Francisco,37.78976,-122.402524
39,Google,USA,Mountain View,37.421972,-122.084143
40,Google,USA,Ann Arbor,42.280988,-83.748882
41,Google,USA,Atlanta,33.781466,-84.387519
42,Google,USA,Austin,30.351416,-97.751382
43,Google,USA,Boulder,40.021416,-105.260931
44,Google,USA,Cambridge,42.36305,-71.087478
45,Google,USA,Chicago,41.889474,-87.628912
46,Google,USA,Coppell,32.981465,-97.018196
47,Google,USA,Dallas,32.809161,-96.807693
48,Google,USA,Denver,39.62919,-104.898419
49,Google,USA,Birmingham,42.547807,-83.215498
50,Google,USA,Irvine,33.658331,-117.861817
51,Google,USA,New York,40.74222,-74.004489
52,Google,USA,Tempe,33.411898,-111.926263
53,Google,USA,Pittsburgh,40.444528,-79.946269
54,Google,USA,San Francisco,37.789803,-122.389757
55,Google,USA,Santa Monica,34.019282,-118.494288
56,Google,USA,Seattle,47.675326,-122.351397
57,Google,USA,Seattle,47.649701,-122.350592
58,Google,USA,Washington,38.901113,-77.027101
59,Google,AUS,Melbourne,-37.879234,145.073608
60,Google,AUS,Sydney,-34.822723,138.612396
61,Google,IND,New Delhi,28.86999,77.122261
62,Google,DNK,,56.171882,10.187799
63,Google,FRA,Paris,48.869606,2.332749
64,Google,DEU,Hamburg,53.554052,9.985266
65,Google,IRL,Dublin,53.339914,-6.234424
66,Google,ITA,Milan,45.46381,9.195978
67,Google,NLD,Amsterdam,52.337495,4.871464
68,Google,NOR,Oslo,59.915848,10.741047
69,Google,NOR,Trondheim,63.435324,10.412428
70,Google,POL,KrakÃ³w,50.063281,19.929806
71,Google,POL,Wroclaw,51.116574,17.041942
72,Google,SWE,LuleÃ¥,65.617491,22.126255
73,Google,SWE,Stockholm,59.332344,18.060162
74,Google,CHE,ZÃ¼rich,47.36554,8.524864
75,Google,GBR,Manchester,53.473606,-2.250166
76,Google,CAN,Montreal,45.498588,-73.567044
77,Google,CAN,Waterloo,43.474704,-80.546381
78,Google,BRA,Sao Paulo,-23.590463,-46.681494
79,Google,MEX,Mexico,19.507519,-99.030156
80,Jajah,USA,Mountain View,37.4233896,-122.0899512
81,Skype,LUX,Luxembourg City,51.518132,-0.131916
82,YouTube,USA,San Bruno,37.627971,-122.426804
83,blogTV,ISR,Ramat Gan,31.046051,34.851612
84,Livestream,USA,New York,40.726155,-73.995625
85,Ustream,USA,San Francisco,37.392936,-122.07948
86,AdaptiveBlue,USA,NYC,40.801358,-74.3372
87,Pando Networks,USA,New York,40.722655,-73.99873
88,GrandCentral,USA,Fremont,37.465645,-121.932202
89,Topix,USA,Palo Alto,37.44296,-122.151198
90,Jobster,USA,Seattle,47.617682,-122.357242
91,Revision3,USA,San Francisco,37.757758,-122.388243
92,Spock,USA,SCHUYLER LAKE,37.488336,-122.217964
93,Wize,USA,Burlingame,37.559287,-122.302262
94,SodaHead,USA,Encino,37.269175,-119.306607
95,CastTV,USA,San Francisco,37.780716,-122.393913
96,iSkoot,USA,Cambridge,42.375392,-71.118487
97,iSkoot,USA,San Francisco,37.780134,-122.396744
98,EQO,CAN,Vancouver,49.263588,-123.138565
99,SellABand,DEU,46395 Bocholt,51.808933,6.553452
100,Funny Or Die,USA,San Mateo,37.421621,-122.137444
101,MeeVee,USA,Burlingame,37.590339,-122.341715
102,Mashery,USA,San Francisco,37.7870842,-122.4038047
103,Zlio,FRA,Paris,48.862825,2.381836
104,Yelp,USA,San Francisco,37.786183,-122.402195
105,Yapta,USA,Seattle,47.599925,-122.334264
106,Coghead,USA,Redwood City,37.476479,-122.221717
107,SideStep,USA,Santa Clara,37.374998,-121.977853
108,Farecast,USA,Seattle,47.620982,-122.359397
109,KickApps,USA,New York,40.7516611,-73.9843328
110,KickApps,USA,Venice,33.991101,-118.468707
111,KickApps,USA,San Francisco,37.7891086,-122.4016144
112,KickApps,GBR,London,51.5094731,-0.1356235
113,RockYou,USA,Redwood City,37.484619,-122.206893
114,Pageflakes,USA,San Francisco,37.758113,-122.414689
115,Netvibes,FRA,Paris,48.870806,2.34668
116,Swivel,USA,San Francisco,37.789268,-122.395184
117,Slide,USA,San Francisco,37.781427,-122.392144
118,Bebo,USA,San Francisco,37.782103,-122.401116
119,PlaceBlogger,USA,,37.09024,-95.712891
120,WeFi,USA,Fairfax,37.09024,-95.712891
121,FeedBurner,USA,Chicago,41.889474,-87.628912
122,TheFind,USA,Mountain View,37.391502,-122.073463
123,TVtrip,FRA,Paris,48.856667,2.350987
124,Zazzle,USA,Redwood City,37.5108541,-122.2013557
125,Sway,USA,Middleton,43.090756,-89.522805
126,adBrite,USA,San Francisco,37.779026,-122.40184
127,Loomia,USA,San Francisco,37.796396,-122.404869
128,Meebo,USA,Mountain View,37.393679,-122.079017
129,Eventbrite,USA,San Francisco,37.779507,-122.39071
130,Newsvine,USA,Seattle,47.618599,-122.358484
131,LinkedIn,USA,Mountain View,37.423258,-122.073635
132,FlickIM,USA,Berkeley,37.870744,-122.269259
133,Terabitz,USA,Palo Alto,37.437328,-122.159928
134,Box,USA,Los Altos,37.425801,-122.143701
135,iLike,USA,Seattle,47.615313,-122.323408
136,Carbonite,USA,Boston,42.350571,-71.076869
137,Conduit,USA,Foster City,37.561877,-122.325248
138,Edgeio,USA,Palo Alto,37.443058,-122.161674
139,Kaboodle,USA,Sunnyvale,37.382162,-122.036301
140,GigaOM,USA,San Francisco,37.775196,-122.419204
141,GigaOM,USA,New York,40.7143528,-74.0059731
142,Redfin,USA,Seattle,47.603122,-122.333253
143,Wink,USA,Mountain View,37.40047,-122.072981
144,coComment,CHE,Geneva,46.20381,6.139959
145,Seesmic,USA,San Francisco,37.775196,-122.419204
146,Hotelicopter,USA,Charlottesville,38.030823,-78.48158
147,Zvents,USA,San Mateo,37.553121,-122.301534
148,Eventful,USA,San Diego,32.872081,-117.206292
149,Oodle,USA,San Mateo,37.563585,-122.324621
150,oDesk,USA,Redwood City,37.479952,-122.178557
151,Simply Hired,USA,Sunnyvale,37.4219165,-122.0780632
152,ooma,USA,Palo Alto,37.451958,-122.116026
153,Scripps Networks Interactive,USA,Knoxville,37.09024,-95.712891
154,GoingOn,USA,San Francisco,37.782263,-122.392142
155,Flixster,USA,San Francisco,37.766909,-122.406676
156,Piczo,USA,San Francisco,37.793703,-122.398479
157,Spreadshirt,USA,Pittsburgh,40.437985,-80.004195
158,Socialtext,USA,Palo Alto,37.442949,-122.1615
159,Bazaarvoice,USA,Austin,30.407545,-97.717667
160,spigit,USA,Pleasanton,37.6637279,-121.8731805
161,spigit,USA,Reston,38.9590083,-77.3592746
162,spigit,GBR,London,51.5170385,-0.1394759
163,PowerReviews,USA,San Francisco,37.779558,-122.393041
164,PowerReviews,GBR,London,51.527099,-0.104408
165,hi5,USA,San Francisco,37.788668,-122.400558
166,Tagged,USA,San Francisco,37.7753,-122.4186
167,ScanScout,USA,Boston,42.340889,-71.051931
168,ScanScout,USA,New York,40.739833,-73.993158
169,ScanScout,USA,Los Angeles,34.050887,-118.459995
170,Indeed,USA,Stamford,41.038155,-73.558082
171,Jaxtr,USA,Menlo Park,37.451026,-122.18676
172,NetSuite,USA,San Mateo,37.536172,-122.327323
173,introNetworks,USA,Montecito,34.42071,-119.641821
174,Going,USA,Boston,42.355672,-71.060864
175,Respectance,USA,San Mateo,37.55909,-122.321836
176,Curse,USA,San Francisco,37.787092,-122.399972
177,eBuddy,NLD,Amsterdam,52.3640933,4.8919457
178,eBuddy,USA,San Francisco,37.787683,-122.410943
179,eBuddy,SGP,Singapore,51.500152,-0.126236
180,Grockit,USA,San Francisco,37.775196,-122.419204
181,PeerMe,USA,Mountain View,37.419819,-122.090188
182,Kiptronic,USA,San Francisco,37.792394,-122.402349
183,Vuze,USA,San Mateo,37.4858654,-122.2262606
184,Phonezoo,USA,Sunnyvale,37.386376,-121.991471
185,Wishpot,USA,Seattle,47.620716,-122.347533
186,PodTech,USA,Palo Alto,37.408256,-122.154176
187,NowPublic,CAN,Vancouver,49.283376,-123.103986
188,PayScale,USA,Seattle,47.5999337,-122.3276962
189,Crackle,USA,Culver City,34.017506,-118.401579
190,Lotame,USA,Columbia,39.205649,-76.77514
191,Lotame,USA,New York,40.753631,-73.995487
192,Lotame,USA,Cambridge,42.359146,-71.056604
193,Rebtel,SWE,Nacka Strand,59.3167843,18.1582777
194,Amazon,USA,Seattle,47.5923,-122.317295
195,BuddyTV,USA,Seattle,47.61968,-122.356756
196,Retrevo,USA,Sunnyvale,37.368594,-122.034021
197,SplashCast,USA,,37.09024,-95.712891
198,Brightcove,USA,Cambridge,42.362993,-71.086596
199,Hightail,USA,Campbell,37.288974,-121.935688
200,Nimbuzz,NLD,Capelle a/d IJssel,51.9122575,4.5464658
201,Tangler,USA,Mountain View,37.386665,-122.084171
202,obopay,USA,Redwood City,37.524729,-122.258037
203,PayPal,USA,San Jose,37.294465,-121.927696
204,TalkPlus,USA,San Mateo,37.553743,-122.300246
205,PermissionTV,USA,Waltham,42.417268,-71.258466
206,Rocketboom,USA,New York,40.797364,-73.97785
207,AOL,USA,New York,40.7311317,-73.9919311
208,Snapfish,USA,San Francisco,37.78554,-122.396689
209,IMVU,USA,Mountain View,37.3927975,-122.0727749
210,Techstars,USA,Boulder,40.010492,-105.276843
211,Nirvanix,USA,San Diego,32.877656,-117.210595
212,Scrybe,USA,San Francisco,40.270666,-74.761403
213,Viagogo,USA,San Francisco,51.500152,-0.126236
214,KnockaTV,ISR,,31.046051,34.851612
215,Echo,USA,San francisco,38.0729365,-122.1879633
216,GreatCall,USA,San Diego,32.964294,-117.265191
217,SelectMinds,USA,New York,40.740251,-73.990004
218,Revver,USA,Los Angeles,34.052187,-118.243425
219,Metacafe,USA,San Francisco,37.437328,-122.159928
220,ChaCha,USA,Carmel,39.998641,-86.130347
221,Flock,USA,Menlo Park,37.491356,-122.228843
222,Kontera,USA,San Francisco,37.767575,-122.411157
223,Dropbox,USA,San Francisco,37.7909427,-122.4084994
224,TokBox,USA,San Francisco,37.779507,-122.39071
225,Sampa,USA,Redmond,47.682233,-122.135521
226,Six Apart,JPN,Tokyo,35.6725213,139.7326754
227,Yola,USA,San Francisco,37.7911148,-122.3954751
228,BitTorrent,USA,San Francisco,37.790998,-122.394668
229,Kongregate,USA,San Francisco,37.786942,-122.401245
230,DanceJam,USA,San Francisco,37.781557,-122.407959
231,Inneractive,USA,San Mateo,37.5646055,-122.3229235
232,Filtrbox,USA,Palo Alto,40.010492,-105.276843
233,Brightkite,USA,Burlingame,39.762314,-104.982256
234,Cloudant,USA,Boston,42.35892,-71.05781
235,Veotag,USA,New York,40.752957,-73.98546
236,KIT digital,USA,New York,40.751816,-73.971655
237,KIT digital,SWE,Stockholm,59.3369746,18.0580765
238,KIT digital,CAN,"Mississauga, Ontario",43.6587599,-79.5983626
239,Kiva,USA,San Francisco,37.762125,-122.4147
240,Zopa,GBR,London,51.517904,-0.139947
241,Fathom Online,USA,San Francisco,37.775196,-122.419204
242,Hitwise,AUS,Melbourne,-37.814251,144.963169
243,Zivity,USA,San Francisco,37.789488,-122.397593
244,BlueLithium,USA,San Jose,37.32052,-121.948399
245,ContextWeb,USA,New York,40.71014,-74.010808
246,eXpresso,USA,Palo Alto,37.451637,-122.121932
247,Doostang,USA,Palo Alto,37.427235,-122.145783
248,Helium,USA,Andover,42.675189,-71.1469
249,ZoomInfo,USA,Waltham,42.38532,-71.207055
250,Zappos,USA,Henderson,36.032976,-115.064859
251,Zango,USA,Bellevue,47.579208,-122.155668
252,Docstoc,USA,Santa Monica,34.018275,-118.495025
253,Vlingo,USA,Cambridge,42.372912,-71.118999
254,ZYB,DNK,Copenhagen,55.699123,12.541484
255,DotBlu,USA,San Francisco,37.09024,-95.712891
256,Covestor,GBR,London,51.5194201,-0.1433689
257,Mevio,USA,San Francisco,37.782263,-122.392142
258,Shock Treatment Management,USA,Seattle,47.610332,-122.339859
259,NewsGator,USA,Denver,39.755092,-104.988123
260,Pluck,USA,Austin,30.268735,-97.745209
261,FilmLoop,USA,Menlo Park,37.48413,-122.169472
262,BitPass,USA,Mountain View,37.40047,-122.072981
263,Kelkoo,USA,London,37.09024,-95.712891
264,sezmi,USA,Belmont,37.524422,-122.265869
265,sezmi,USA,Santa Monica,34.017373,-118.453218
266,sezmi,USA,Fort Lauderdale,26.207024,-80.157296
267,Atom Entertainment,USA,San Francisco,37.790964,-122.401128
268,CinemaNow,USA,Marina Del Rey,33.983543,-118.432526
269,eHarmony,USA,Santa Monica,34.145946,-118.132351
270,Friendster,MYS,Kuala Lumpur,3.139003,101.686855
271,Heavy,USA,New York,40.753385,-73.98962
272,ReachLocal,GBR,London,41.53155,-72.188584
273,ReachLocal,CAN,Toronto,43.7192415,-79.338246
274,Greystripe,USA,San Francisco,37.710677,-122.39323
275,Trulia,USA,San Francisco,37.766909,-122.406676
276,WeatherBug,USA,Germantown,39.2009241,-77.2630048
277,TubeMogul,USA,Emeryville,37.836957,-122.286493
278,SpiralFrog,USA,New York,37.09024,-95.712891
279,Multiply,IDN,"Kebayoran Lama, Jakarta Selatan",26.400499,-80.097742
280,Vtap,USA,Andover,42.656621,-71.140538
281,Seedcamp,GBR,London,51.5108803,-0.1418973
282,LimeLife,USA,Menlo Park,37.48413,-122.169472
283,OpenTable,USA,San Francisco,37.785647,-122.405265
284,MocoSpace,USA,Boston,42.350274,-71.058768
285,Adknowledge,USA,Kansas City,39.044694,-94.597896
286,Adknowledge,USA,New York,40.748901,-73.992463
287,Adknowledge,USA,San Francisco,37.78866,-122.401406
288,Adknowledge,USA,Fort Myers,26.580095,-81.879069
289,Adknowledge,CAN,Toronto,43.6474554,-79.3953743
290,Adknowledge,GBR,"Covent Garden, London",51.5114403,-0.1229212
291,Adknowledge,DEU,Munich,48.1635092,11.5582609
292,Adknowledge,FRA,Paris,48.8506065,2.3797825
293,Adknowledge,CHN,Shanghai,31.222622,121.4770384
294,LocaModa,USA,Cambridge,42.358822,-71.104329
295,ChannelAdvisor,USA,Morrisville,35.854483,-78.815635
296,Yap,USA,Fort Mill,35.22806,-80.856178
297,Minglebox,IND,Bangalore,12.971606,77.594376
298,TestFreaks,SWE,Stockholm,59.3339908,18.0571198
299,Quattro Wireless,USA,Waltham,42.3729,-71.248472
300,Ripl,USA,Seattle,47.620716,-122.347533
301,BBE,USA,New York,40.7445343,-73.9874008
302,Tacoda,USA,New York,40.757929,-73.985506
303,Thumbplay,USA,New York,40.725435,-73.997395
304,Fotolog,USA,New York,40.757929,-73.985506
305,Xfire,USA,Santa Monica,34.0184659,-118.49863
306,Alloy,USA,,37.09024,-95.712891
307,Mixercast,USA,San Mateo,37.553743,-122.300246
308,Wonga,GBR,London,51.5192042,-0.1626103
309,SnapTell,USA,Palo Alto,37.433414,-122.128772
310,Tutor,USA,New York,40.707921,-74.004792
311,EyeJot,USA,Seattle,47.5999337,-122.3276962
312,Spiceworks,USA,Austin,30.386601,-97.753739
313,MyHeritage,ISR,Or Yehuda,32.029748,34.856173
314,OnForce,USA,Lexington,42.47218,-71.262508
315,OMGPOP,USA,New York,40.723384,-74.001704
316,Ooyala,USA,Mountain View,37.386665,-122.084171
317,Daylife,USA,New York,40.643438,-73.886452
318,SayNow,USA,Palo Alto,37.42746,-122.143915
319,Crunchyroll,USA,San Francisco,37.781265,-122.393229
320,PixSense,USA,Santa Clara,37.387114,-121.973228
321,Behance,USA,New York,40.74406,-74.004592
322,hulu,USA,Los Angeles,34.031276,-118.456806
323,OurStory,USA,Mountain View,37.40047,-122.072981
324,imeem,USA,San Francisco,37.779624,-122.391236
325,AdMob,USA,Mountain View,37.563585,-122.324621
326,MySQL,USA,Cupertino,37.322806,-122.030201
327,Attributor,USA,San Mateo,37.453687,-122.228595
328,OrganizedWisdom,USA,New York,40.775537,-73.981709
329,BeFunky,USA,San Francisco,37.7749295,-122.4194155
330,PeekYou,USA,New York,40.757929,-73.985506
331,Mozy,USA,Pleasant Grove,40.357978,-111.777531
332,Mixx,USA,McLean,38.003376,-79.420926
333,TripIt,USA,San Francisco,37.764169,-122.402021
334,PubMatic,USA,Redwood City,37.446668,-122.156579
335,GENWI,USA,Los Altos,33.8171,-111.9035
336,FlowPlay,USA,Seattle,47.6015315,-122.335943
337,Social Project,USA,Santa Monica,34.01052,-118.495981
338,RotoHog,USA,Los Angeles,33.959799,-118.343938
339,Balihoo,USA,Boise,43.61295,-116.205637
340,Viewpoints,USA,Chicago,41.890376,-87.63406
341,RatePoint,USA,Needham,42.296111,-71.238524
342,Smartsheet,USA,Bellevue,47.617842,-122.20052
343,OneRiot,USA,Boulder,40.01621,-105.28131
344,ThisNext,USA,Santa Monica,34.01533,-118.493592
345,Avvo,USA,Seattle,47.6104101,-122.3396627
346,MuseStorm,USA,Sunnyvale,37.368594,-122.034021
347,UpDown,USA,Cambridge,42.375392,-71.118487
348,Clickable,USA,New York,40.7413559,-73.9912208
349,Eons,USA,Boston,42.375219,-71.056101
350,Airborne Mobile,CAN,Montreal,45.513684,-73.572133
351,Cuil,USA,Menlo Park,37.451124,-122.166264
352,Webjam,GBR,London,51.519819,-0.136174
353,Boomi,USA,Berwyn,40.063476,-75.457492
354,mig33,SGP,Singapore,37.580304,-122.343679
355,Animoto,USA,New York,40.72948,-74.000195
356,GamerDNA,USA,Cambridge,42.375392,-71.118487
357,SpeedDate,USA,San Mateo,37.557637,-122.285714
358,Jawbone,USA,San Francisco,37.768708,-122.402866
359,mEgo,USA,Los Angeles,34.064491,-118.42749
360,Metaplace,USA,Solana Beach,33.020832,-117.077311
361,Xobni,USA,San Francisco,37.789634,-122.404052
362,Spoke,USA,San Mateo,37.559287,-122.302262
363,BroadClip,USA,Livermore,37.661237,-121.803572
364,Fixya,USA,San Mateo,37.566879,-122.323895
365,Mozilla,USA,Mountain View,37.418491,-122.08744
366,BuzzDash,USA,Marina del Rey,33.977854,-118.445271
367,Sermo,USA,Cambridge,42.364367,-71.078978
368,Worklight,USA,New York,40.756799,-73.976348
369,RingCentral,USA,San Mateo,37.560155,-122.285588
370,Zillow,USA,Seattle,47.6011125,-122.3293984
371,Moz,USA,Seattle,47.620716,-122.347533
372,MatchMine,USA,Needham,42.304545,-71.220187
373,Mimeo,USA,New York,40.745216,-73.982807
374,Mobivox,CAN,Montreal,45.500277,-73.560084
375,3Jam,USA,San Francisco,37.765125,-122.4044034
376,PlaySpan,USA,Santa Clara,37.396312,-121.961396
377,DocuSign,USA,Seattle,47.603015,-122.335668
378,Grouply,USA,Redwood City,37.502742,-122.211281
379,Graspr,USA,Mountain View,37.384919,-122.053175
380,Zannel,USA,San Francisco,37.775196,-122.419204
381,Zimbra,USA,Palo Alto,37.557637,-122.285714
382,FriendFeed,USA,Mountain View,37.39248,-122.072612
383,Wikinvest,USA,San Francisco,37.775196,-122.419204
384,Rupture,USA,San Francisco,37.783898,-122.395234
385,Gazelle,USA,Boston,42.354022,-71.140762
386,Fon,ESP,Madrid,40.530724,-3.632687
387,JibJab,USA,Venice,34.011335,-118.468458
388,Whiskey Media,USA,San Francisco,37.856331,-122.495222
389,RayV,USA,New York,40.781159,-73.978332
390,Uptake,USA,Palo Alto,37.443058,-122.161674
391,Polyvore,USA,Mountain View,37.386175,-122.083487
392,23andMe,USA,Mountain View,37.09024,-95.712891
393,YuMe,USA,Redwood City,37.476479,-122.221717
394,AdReady,USA,Seattle,47.649027,-122.346299
395,Treemo Labs,USA,Seattle,47.620716,-122.347533
396,Eloqua,USA,Vienna,38.9132821,-77.2279465
397,Eloqua,CAN,Toronto,43.6467716,-79.4021146
398,Blurb,USA,San Francisco,37.792968,-122.40414
399,The Climate Corporation,USA,San Francisco,37.782809,-122.394354
400,The Climate Corporation,USA,Seattle,47.5984767,-122.3331466
401,Automattic,USA,San Francisco,37.744274,-122.421344
402,Platial,USA,Portland,45.523104,-122.670132
403,Tabblo,USA,Boston,42.35888,-71.05682
404,Tumblr,USA,New York,40.743808,-73.983626
405,Radar Networks,USA,San Francisco,37.7753,-122.398058
406,Dash,USA,Sunnyvale,37.401495,-122.031855
407,Veodia,USA,San Mateo,37.553743,-122.300246
408,uTest,USA,Framingham,42.288291,-71.52679
409,Payoneer,USA,New York,40.621591,-73.960717
410,Songkick,GBR,London,51.54202,-0.0558343
411,Shopatron,USA,San Luis Obispo,37.09024,-95.712891
412,JackBe,USA,Chevy Chase,38.963492,-77.091025
413,EchoSign,USA,Palo Alto,37.445326,-122.160671
414,Buzzwire,USA,Denver,39.755092,-104.988123
415,Predictify,USA,Redwood City,37.486571,-122.229161
416,TrialPay,USA,Mountain View,37.388095,-122.08276
417,CollegeHumor,USA,,37.09024,-95.712891
418,Firetide,USA,Campbell,37.285133,-121.932962
419,eXelate,USA,New York,40.741266,-73.990753
420,eXelate,USA,San Francisco,37.787249,-122.3990501
421,eXelate,USA,Chicago,41.8831959,-87.6517774
422,eXelate,ISR,Kfar-Saba,32.1618634,34.9341664
423,eXelate,FRA,Paris,48.8743443,2.3226888
424,eXelate,GBR,London,51.5150129,-0.1326786
425,BitGravity,USA,Burlingame,37.590056,-122.347654
426,blueKiwi,FRA,Paris,48.8599791,2.3608064
427,Socializr,USA,San Francisco,37.77759,-122.395602
428,Eurekster,USA,,37.790992,-122.40188
429,OnLive,USA,Palo Alto,37.09024,-95.712891
430,Skinkers,GBR,London,51.604922,0.239866
431,PicksPal,USA,Mountain View,37.40047,-122.072981
432,Gigya,USA,Mountain View,37.43938,-122.158804
433,Zattoo,USA,Ann Arbor,42.292649,-83.734673
434,Baynote,USA,San Jose,37.332271,-122.006539
435,Songbird,USA,San Francisco,37.787126,-122.39783
436,GridNetworks,USA,Seattle,47.602873,-122.336132
437,Quigo,USA,New York,40.907974,-73.84179
438,Disqus,USA,San Francisco,37.786906,-122.397672
439,Peer39,USA,New York,40.755446,-73.980246
440,Vitrue,USA,Atlanta,33.756806,-84.392198
441,Vitrue,USA,New York,40.718888,-74.001169
442,Pelago,USA,Seattle,47.607065,-122.335373
443,Akimbo,USA,San Mateo,37.548482,-122.320534
444,Vringo,USA,New York,40.7550005,-73.9717364
445,Plazes,DEU,Berlin,52.523402,13.398694
446,Faves,USA,Seattle,47.603327,-122.334983
447,mDialog,CAN,Toronto,43.65455,-79.364013
448,HiveLive,USA,Boulder,40.015733,-105.275027
449,Evi,GBR,Cambridge,52.195668,0.130647
450,Yedda,ISR,Tel Aviv,32.0554,34.7595
451,BrightRoll,USA,San Francisco,37.794643,-122.401144
452,Casero,CAN,"Toronto, Ontario",43.650168,-79.37621
453,Minekey,USA,Sunnyvale,37.384239,-122.012475
454,Compete,USA,Boston,42.346743,-71.076632
455,RepairPal,USA,Emeryville,37.838225,-122.296411
456,Doppelganger,USA,San Francisco,37.762162,-122.413912
457,Zmags,DNK,Copenhagen,55.6839208,12.571492
458,Zmags,GBR,London,51.5111369,-0.1247662
459,StreetFire,USA,Los Angeles,33.982431,-118.426707
460,Turn,USA,Redwood City,37.512253,-122.201099
461,TrackVia,USA,Denver,39.738499,-105.158645
462,Loopt,USA,Mountain View,37.384717,-122.081625
463,Fix8,USA,Sherman Oaks,34.152826,-118.465582
464,MyBuys,USA,San Mateo,37.530893,-122.245087
465,MyBuys,USA,Ann Arbor,42.277416,-83.733276
466,Adteractive,USA,San Francisco,37.78554,-122.396689
467,BlackArrow,USA,San Jose,37.549475,-122.316982
468,Yieldex,USA,New York,37.636288,-122.42689
469,Peerflix,USA,Palo Alto,37.446407,-122.159712
470,TheStreet,USA,New York,40.707645,-74.010816
471,Omniture,USA,Orem,40.323902,-111.68192
472,Vobile,USA,Santa Clara,37.399208,-121.97895
473,Vivox,USA,Natick,37.09024,-95.712891
474,Verimatrix,USA,San Diego,32.903248,-117.175733
475,Billeo,USA,Santa Clara,37.385216,-121.972128
476,Billeo,USA,Santa Clara,37.4069445,-121.9797628
477,HowStuffWorks,USA,Atlanta,37.09024,-95.712891
478,RealSelf,USA,Seattle,47.620716,-122.347533
479,ZeniMax,USA,Rockville,39.105555,-77.179772
480,GeoSentric,NLD,Amsterdam,37.09024,-95.712891
481,Blowtorch,USA,Sausalito,37.862592,-122.493561
482,Blyk,FIN,Helsinki,52.146853,-1.721287
483,OurStage,USA,Chelmsford,42.591704,-71.319348
484,GameLayers,USA,San Francisco,37.803847,-122.402468
485,Mogreet,USA,Venice,33.999004,-118.472297
486,Zoji,USA,Seattle,47.620716,-122.347533
487,Worktopia,USA,White Plains,40.987453,-73.741649
488,WEbook,USA,New York,38.984172,-77.095965
489,beRecruited,USA,San Francisco,33.754487,-84.389663
490,Splunk,USA,San Francisco,37.78274,-122.390945
491,LucidEra,USA,San Mateo,37.5583159,-122.2862187
492,xkoto,USA,Waltham,42.405685,-71.255857
493,TrustedID,USA,Palo Alto,37.520592,-122.255907
494,Youku,CHN,Shanghai,31.2006566,121.4384701
495,Phanfare,USA,Princeton,40.349854,-74.660287
496,RedLasso,USA,King of Prussia,40.099703,-75.39599
497,Seeqpod,USA,Emeryville,37.8454819,-122.296342
498,Songza,USA,Long Island City,40.7473113,-73.9549182
499,CollegeFanz,USA,Mt. Laurel,39.935819,-74.909185
500,Yodle,USA,New York,40.742459,-73.9918126
501,Yodle,USA,Austin,30.378658,-97.731249
502,Yodle,USA,Charlotte,35.139441,-80.916109
503,Yodle,USA,Scottsdale,33.464377,-111.924855
504,Yodle,USA,Buford,34.105226,-84.03398
505,Qwaq,USA,Palo Alto,37.425591,-122.145416
506,Motionbox,USA,New York,40.606061,-73.822331
507,Snapvine,USA,Seattle,47.598968,-122.332904
508,Deezer,FRA,Paris,48.8780596,2.3283853
509,betNOW,GBR,London,51.511599,-0.126389
510,Jott,USA,Seattle,47.6139472,-122.327807
511,divorce360,USA,North Palm Beach,26.820375,-80.058401
512,HubSpot,USA,Cambridge,42.375392,-71.118487
513,Kewego,FRA,Paris,46.227638,2.213749
514,Utterz,USA,Maynard,42.431555,-71.483077
515,Vidyo,USA,Hackensack,40.909378,-74.033707
516,WeGame,USA,,37.09024,-95.712891
517,Fraud Sciences,USA,Palo Alto,37.09024,-95.712891
518,Intronis,USA,Boston,42.351105,-71.049124
519,CrossLoop,USA,Monterey,36.611645,-121.898539
520,iMemories,USA,Scottsdale,33.639318,-111.883237
521,Dapper,USA,San Francisco,37.7766184,-122.3938931
522,ClickTale,ISR,Ramat Gan,31.046051,34.851612
523,ClickTale,ISR,Ramat Gan,32.068424,34.824785
524,Twenga,FRA,Paris,48.856667,2.350987
525,TradeKing,USA,Fort Lauderdale,26.119102,-80.1343038
526,Viadeo,FRA,Paris,48.8747064,2.3304161
527,Masala,USA,San Francisco,37.09024,-95.712891
528,CafeMom,USA,New York,37.09024,-95.712891
529,Shipwire,USA,Palo Alto,37.4418834,-122.1430195
530,FastBooking,FRA,Paris,37.09024,-95.712891
531,GrubHub,USA,Chicago,41.907647,-87.649878
532,Uversity,USA,San Francisco,37.7749295,-122.4194155
533,WildTangent,USA,Redmond,37.09024,-95.712891
534,Gilt Groupe,USA,New York,40.74727,-73.9800645
535,BeliefNet,USA,New York,40.740231,-73.985433
536,Smilebox,USA,Redmond,47.676378,-122.122155
537,Kosmix,USA,Mountain View,37.3867729,-122.0752224
538,Goodreads,USA,Santa Monica,34.01052,-118.495981
539,Ribbit,USA,Mountain View,37.386665,-122.084171
540,Jobvite,USA,Burlingame,37.789034,-122.398503
541,HubPages,USA,San Francisco,37.7876952,-122.3991505
542,ideeli,USA,New York,40.755978,-73.990396
543,Streamezzo,FRA,Paris,48.872159,2.291225
544,Shoeboxed,USA,Durham,35.996157,-78.902115
545,Shoeboxed,USA,Durham,35.9939,-78.8986
546,WeShow,USA,New York,40.752516,-73.973072
547,Qik,USA,Redwood City,37.486368,-122.230116
548,Flixwagon,ISR,Tel-Aviv,32.0554,34.7595
549,PlayFirst,USA,San Francisco,37.790346,-122.40185
550,Libersy,NLD,Almere,52.373812,4.890951
551,RipCode,USA,Richardson,32.959908,-96.70737
552,RipCode,USA,Austin,30.402252,-97.748795
553,Deem,USA,San Francisco,37.559836,-122.271532
554,CDNetworks,USA,San Jose,37.4050988,-121.9477639
555,KAYAK,USA,Norwalk,41.1010914,-73.4168779
556,Acquia,USA,Burlington,42.524527,-71.137784
557,Chumby,USA,San Diego,32.939673,-117.240799
558,GridPoint,USA,Arlington,38.888107,-77.091562
559,UGOBE,USA,Eagle,43.692002,-116.339049
560,HelioVolt,USA,Austin,30.216908,-97.685078
561,Etsy,USA,Brooklyn,40.694731,-73.983268
562,Ausra,USA,Mountain View,37.446526,-122.117933
563,Kior,USA,Pasadena,37.09024,-95.712891
564,Causes,USA,San Francisco,37.870258,-122.272513
565,Nanosolar,USA,San Jose,37.264749,-121.789862
566,Challenge Games,USA,Austin,30.268236,-97.740651
567,Shozu,USA,San Francisco,37.771706,-122.402683
568,EditGrid,HKG,,22.396428,114.109497
569,Tesla Motors,USA,Palo Alto,37.496737,-122.245323
570,Bunchball,USA,Redwood City,37.3208403,-121.9479223
571,SimulScribe,USA,New York,40.762673,-73.969296
572,Delve Networks,USA,Seattle,47.600818,-122.334117
573,Hooja,USA,Palo Alto,37.437328,-122.159928
574,TravelMuse,USA,New York,37.402802,-122.117418
575,LifeOnKey,USA,New York,37.09024,-95.712891
576,Scrapblog,USA,San Francisco,25.752358,-80.25468
577,Blekko,USA,Redwood Shores,37.09024,-95.712891
578,Onaro,USA,Boston,42.341899,-71.065924
579,Meraki,USA,San Francisco,37.392443,-122.072517
580,ice,USA,,37.09024,-95.712891
581,SugarCRM,USA,Cupertino,37.323739,-122.014147
582,DeepRockDrive,USA,Las Vegas,36.1062,-115.1374
583,4Home,USA,Sunnyvale,37.385225,-121.991912
584,bluepulse,USA,San Mateo,37.563905,-122.324688
585,Jobfox,USA,McLean,38.92719,-77.216969
586,Outspark,USA,San Francisco,37.775196,-122.419204
587,ARPU,USA,Washington,37.09024,-95.712891
588,Livemocha,USA,Seattle,47.6399006,-122.1914274
589,Joyent,USA,San Francisco,37.856743,-122.480153
590,PLYmedia,USA,Palo Alto,37.400821,-122.131383
591,NuConomy,USA,San Francisco,37.795191,-122.430411
592,SuccessFactors,USA,San Mateo,37.557637,-122.285714
593,fabrik,USA,San Mateo,37.553743,-122.300246
594,Widgetbox,USA,San Francisco,37.798853,-122.398599
595,TicketsNow,USA,Rolling Meadows,42.050903,-88.027569
596,RazorGator,USA,Los Angeles,34.047312,-118.445243
597,yoonew,USA,New York,40.75362,-73.986557
598,Oversee,USA,Los Angeles,34.051368,-118.256305
599,Zynga,USA,San Francisco,37.765158,-122.404234
600,WAYN,GBR,London,51.500152,-0.126236
601,Mumboe,USA,Austin,30.390071,-97.711652
602,Wellsphere,USA,San Mateo,37.55153,-122.314072
603,blinkbox music,GBR,Oxford,51.7319786,-1.2063327
604,XING,DEU,Hamburg,53.555554,9.98793
605,Proximic,USA,Palo Alto,37.766909,-122.406676
606,Amobee,USA,Redwood City,37.52845,-122.263721
607,Visible Measures,USA,Boston,42.3536303,-71.0590483
608,CleverSet,USA,Seattle,47.605711,-122.33872
609,Roost,USA,San Francisco,37.7891288,-122.4020276
610,HealthCentral,USA,Arlington,38.894403,-77.068267
611,XAware,USA,Colorado Springs,38.912262,-104.827041
612,Endeca,USA,Cambridge,42.36233,-71.081527
613,Lijit Networks,USA,Boulder,40.01621,-105.28131
614,clipsync,USA,San Francisco,37.2906027,-121.9317853
615,General Electric,USA,Fairfield,41.216225,-73.2525873
616,Heroku,USA,San Francisco,37.775196,-122.419204
617,Lookery,USA,San Francisco,37.788266,-122.403865
618,Lookery,USA,Cambridge,42.398424,-71.130297
619,comScore,USA,Reston,38.9579071,-77.3577568
620,Sharetivity,USA,Palo Alto,37.550954,-122.315396
621,First30Days,USA,Louisville,38.257035,-85.717393
622,Seatwave,GBR,London,51.500152,-0.126236
623,BreakingPoint Systems,USA,Austin,30.384453,-97.709809
624,VisualCV,USA,Reston,38.9530391,-77.3479238
625,EnterpriseDB,USA,Bedford,40.562967,-74.332355
626,Craigslist,USA,San Francisco,37.762512,-122.46649
627,TalentSpring,USA,Seattle,47.680496,-122.120938
628,Collarity,USA,Palo Alto,37.407752,-122.154565
629,RocketOn,USA,South San Francisco,37.65466,-122.40788
630,SpotXchange,USA,Westminster,39.89674,-105.07359
631,Maven Networks,USA,Cambridge,42.375392,-71.118487
632,The Point,USA,Chicago,41.896499,-87.643622
633,Limeade,USA,Bellevue,47.6097449,-122.196699
634,Mixbook,USA,Palo Alto,37.383844,-121.918319
635,GameDuell,DEU,Berlin,52.5131826,13.3941489
636,Bungee Labs,USA,Orem,40.32462,-111.679755
637,stickK,USA,New York,40.744837,-73.983843
638,Bragster,GBR,London,51.5220072,-0.0766034
639,Oddcast,USA,New York,40.752325,-73.988477
640,Qype,DEU,Hamburg,53.54598,9.987181
641,Escapia,USA,Seattle,47.613896,-122.3413
642,GumGum,USA,Santa Monica,34.052187,-118.243425
643,Snap Technologies,USA,Pasadena,34.146436,-118.153136
644,TwoFish,USA,Redwood City,37.522281,-122.258139
645,Three Rings,USA,San Francisco,37.775196,-122.419204
646,ChoiceStream,USA,Boston,42.36638,-71.093601
647,Smalltown,USA,San Mateo,37.566123,-122.323045
648,Flypaper,USA,Cincinnati,39.098753,-84.5163108
649,Sparkplay Media,USA,Mill Valley,37.905544,-122.547445
650,TheLadders,USA,New York,40.725883,-74.006196
651,Cellfire,USA,San Jose,37.395923,-121.92902
652,Netflix,USA,Los Gatos,37.25142,-121.968687
653,MOG,USA,Berkeley,37.872222,-122.268403
654,Social Gaming Network,USA,Los Angeles,37.446823,-122.161523
655,Social Gaming Network,USA,Beverly Hills,34.0698494,-118.4054182
656,Danger,USA,Palo Alto,37.425168,-122.136248
657,Coverity,USA,San Francisco,37.7759675,-122.3931128
658,Fortify Software,USA,San Mateo,37.560781,-122.284114
659,Sitemasher,USA,Coral Gables,25.705057,-80.271378
660,fotopedia,FRA,Paris,48.856667,2.350987
661,Foneshow,USA,Portland,43.657058,-70.253959
662,CoAdna Photonics,USA,Sunnyvale,37.394723,-122.034634
663,doubleTwist,USA,San Francisco,37.775196,-122.419204
664,Exalead,FRA,Paris,48.86931,2.324782
665,MediaTrust,USA,New York,40.743662,-73.984268
666,JackPot Rewards,USA,Newton,42.337037,-71.251748
667,GenieTown,USA,Palo Alto,37.425773,-122.144271
668,AdoTube,USA,New York,40.752672,-73.97593
669,RiffTrax,USA,San Diego,32.936973,-117.240431
670,P2P-Next,NLD,,52.132633,5.291266
671,FameCast,USA,Austin,30.268735,-97.745209
672,Grooveshark,USA,Gainesville,29.6502461,-82.3230981
673,Direct Hit,USA,Melbourne,28.0854206,-80.6475007
674,Redux,USA,Berkeley,37.87168,-122.269494
675,Evernote,USA,Redwood City,37.386774,-121.987661
676,Y Combinator,USA,Mountain View,37.38687,-122.067979
677,Raptr,USA,Mountain View,37.40384,-122.07808
678,HipLogic,USA,Fremont,37.5541073,-121.9756765
679,Intuit,USA,Mountain View,37.428373,-122.097604
680,Intuit,USA,San Diego,32.957695,-117.158245
681,GoldSpot Media,USA,Sunnyvale,37.384206,-121.992805
682,Ad Infuse,USA,San Francisco,37.793375,-122.404571
683,Inform Technologies,USA,New York,40.744639,-73.983963
684,iOpener,DEU,Aachen,50.791481,6.066681
685,EVO Media Group,USA,Seattle,47.613896,-122.3413
686,Covario,USA,San Diego,32.912063,-117.114827
687,SendMe,USA,San Francisco,37.787126,-122.39783
688,Blog Talk Radio,USA,New York,40.757929,-73.985506
689,Opera Software,NOR,Oslo,59.928267,10.754932
690,Tiny Pictures,USA,San Francisco,37.781002,-122.406912
691,MessageOne,USA,Austin,30.405197,-97.745673
692,Flurry,USA,San Francisco,37.783046,-122.394067
693,Issuu,USA,Palo Alto,37.4784804,-122.1514101
694,Howcast,USA,New York City,40.646166,-73.889492
695,SugarSync,USA,San Mateo,37.54763,-122.307887
696,ePals,USA,Herndon,38.95424,-77.416331
697,BillShrink,USA,Redwood City,37.503147,-122.211435
698,Teneros,USA,Mountain View,37.389022,-122.062778
699,Outbrain,USA,New York City,40.757929,-73.985506
700,DivX,USA,San Diego,32.880882,-117.203309
701,Evri,USA,Seattle,47.620716,-122.347533
702,Kazeon,USA,Mountain View,37.431769,-122.099577
703,Mochila,USA,New York,40.711982,-74.008622
704,Yodlee,USA,Redwood City,37.538603,-122.251539
705,MoFuse,USA,Providence,41.826956,-71.408718
706,OLX,USA,New York,40.8587524,-73.7258199
707,Collactive,USA,Wilmington,39.748985,-75.546329
708,XO Group,USA,New York,40.720824,-74.00007
709,ModiFace,CAN,Toronto,43.666953,-79.388279
710,Bleacher Report,USA,San Francisco,37.776467,-122.395792
711,Right Media,USA,New York,40.74632,-73.982607
712,Central Desktop,USA,Pasadena,34.148374,-118.121822
713,SafeNet,USA,Belcamp,39.467752,-76.23537
714,Ingrian Networks,USA,Redwood City,37.494171,-122.22812
715,Mzinga,USA,Burlington,42.489827,-71.223359
716,Phreesia,USA,New York,40.739794,-73.985878
717,Boonty,USA,New York,40.717248,-74.002662
718,Sportgenic,USA,San Francisco,37.790485,-122.40094
719,crowdSPRING,USA,Chicago,41.88583,-87.657354
720,99designs,USA,San Francisco,37.7955307,-122.4005983
721,99designs,AUS,Collingwood,-37.8026587,144.9868546
722,99designs,DEU,Berlin,52.4986199,13.4469031
723,Innofidei,CHN,Beijing,39.905556,116.395833
724,Ifbyphone,USA,Chicago,42.040851,-87.750643
725,Elance,USA,Mountain View,37.398022,-122.049143
726,LiveRail,USA,San Francisco,37.787183,-122.397759
727,Adzilla,USA,Brisbane,37.674378,-122.387699
728,Generate,USA,Santa Monica,34.031328,-118.471463
729,Generate,USA,New York,40.7570972,-73.969821
730,OpenDNS,USA,San Francisco,37.789268,-122.395184
731,Paxfire,USA,Sterling,38.988367,-77.421054
732,Kareo,USA,Irvine,33.676444,-117.8587
733,Innovid,USA,New York,40.722655,-73.99873
734,Footnote,USA,Lindon,40.3310529,-111.7276347
735,Coveo,USA,Vernon Hills,37.446078,-122.167506
736,Radialpoint,CAN,Montreal,45.5075577,-73.5696547
737,Akoha,CAN,Montreal,45.516545,-73.578477
738,Vovici,USA,Dulles,38.983393,-77.434128
739,Vovici,GBR,Kingston Upon Thames,51.4140631,-0.3016459
740,PacketFront,SWE,Stockholm,59.332788,18.064488
741,Tripology,USA,New York,40.746883,-73.983969
742,Skimlinks,GBR,London,51.522727,-0.084462
743,PI Corporation,USA,Seattle,47.602416,-122.332614
744,The FeedRoom,USA,New York,40.723614,-74.007948
745,The FeedRoom,USA,Larkspur,37.946779,-122.511888
746,The FeedRoom,USA,Westborough,42.2875076,-71.5856082
747,Giant Realm,USA,New York,40.7566658,-73.9827553
748,AirTight Networks,USA,Mountain View,37.387226,-122.049945
749,Visto,USA,Sunnyvale,37.518539,-122.254275
750,LiveOps,USA,Santa Clara,37.323668,-122.004204
751,Janrain,USA,Portland,45.484413,-122.675838
752,SearchMe,USA,Mountain View,37.386665,-122.084171
753,SearchMe,USA,San Francisco,37.793473,-122.402667
754,Global Roaming,USA,Miami,25.9690885,-80.1417742
755,Polaris Wireless,USA,Mountain View,37.397528,-122.05892
756,AccountNow,USA,San Ramon,37.769922,-122.001446
757,TalkShoe,USA,Wexford,40.616311,-80.059548
758,Workday,USA,Pleasanton,37.694202,-121.921532
759,CompanyLoop,USA,Mountain View,37.394456,-122.078531
760,DailyStrength,USA,Los Angeles,34.043948,-118.468204
761,PopularMedia,USA,San Francisco,37.767575,-122.411157
762,Clarizen,USA,San Mateo,37.536044,-122.328401
763,Next New Networks,USA,New York,40.743808,-73.983626
764,RiverWired,USA,New York,40.757929,-73.985506
765,FriendFinder Networks,MYS,Boca Raton,26.4074809,-80.1169895
766,Zhanzuo,CHN,Beijing,35.86166,104.195397
767,LiveDeal,USA,Las Vegas,37.370056,-121.973157
768,Invoke Solutions,USA,Waltham,42.397435,-71.252147
769,Sprout,USA,Honolulu,21.30829,-157.8086025
770,Sprout,USA,San Francisco,37.755012,-122.418137
771,Skydeck,USA,Palo Alto,37.5645375,-122.3254705
772,NeoEdge Networks,USA,Mountain View,37.393679,-122.079017
773,Zuora,USA,Foster City,37.5596277,-122.2709868
774,Kidaro,USA,Redmond,47.6435828,-122.1285846
775,Jivox,USA,Redwood City,37.555962,-122.288006
776,ShareThis,USA,Palo Alto,37.4203945,-122.0872274
777,Elastra,USA,San Francisco,37.791137,-122.391843
778,Voltage Security,USA,Cupertino,37.399481,-122.1345417
779,Krillion,USA,Mountain View,37.391727,-122.077597
780,Star Analytics,USA,San Mateo,37.556152,-122.281484
781,Cenzic,USA,Campbell,37.2816136,-121.9410679
782,Infopia,USA,Salt Lake City,40.762412,-111.889137
783,Replay Solutions,USA,Redwood City,37.512318,-122.200914
784,SupplyFrame,USA,Pasadena,34.143885,-118.151542
785,Scalent Systems,USA,Palo Alto,37.429676,-122.1085482
786,InMage Systems,USA,San Jose,37.381034,-121.971487
787,CITTIO,USA,San Francisco,37.7867612,-122.4014585
788,Communicado,USA,Santa Ana,33.7020241,-117.8666475
789,Authenticlick,USA,Los Angeles,34.062504,-118.354605
790,Gnip,USA,Boulder,40.019299,-105.274628
791,Wrike,USA,San Jose,37.3973787,-122.0879281
792,Playfish,GBR,London,51.4991094,-0.1984802
793,Playfish,NOR,TromsÃ¸,69.636216,18.931062
794,Rapt,USA,San Francisco,37.781689,-122.391061
795,Interneer,USA,Culver City,34.145312,-118.793136
796,Tapioca Mobile,USA,San Diego,32.88945,-117.166929
797,Monitor110,USA,New York,40.732748,-73.992607
798,Slicethepie,GBR,,55.378051,-3.435973
799,ShowClix,USA,Pittsburgh,40.517948,-79.842487
800,CloudMade,USA,Menlo Park,37.477944,-122.151234
801,BladeLogic,USA,Houston,29.7805488,-95.3457921
802,ScanCafe,USA,Burlingame,37.592584,-122.369676
803,liveBooks,USA,Sausalito,37.8712444,-122.5036866
804,KidZui,USA,San Diego,37.09024,-95.712891
805,Moblica,ISR,Tel Aviv,32.0554,34.7595
806,Glaxstar,GBR,Birmingham,52.479554,-1.903186
807,Act-On Software,USA,Beaverton,45.484177,-122.79635
808,Cvent,USA,McLean,38.923453,-77.227525
809,BroadSoft,USA,Gaithersburg,39.141511,-77.209394
810,Dimdim,USA,Lowell,42.6161515,-71.3258687
811,Liftopia,USA,San Francisco,37.796164,-122.420903
812,PopJax,USA,San Francisco,37.796216,-122.403755
813,AnchorFree,USA,Mountain View,37.378884,-122.010692
814,Zend Technologies,USA,Cupertino,37.322385,-122.008549
815,Location Labs,USA,Emeryville,37.83466,-122.291944
816,OrangeSoda,USA,American Fork,40.358294,-111.780243
817,Aternity,USA,Westborough,42.279967,-71.5827673
818,Networked Insights,USA,Madison,41.278528,-72.5254318
819,Networked Insights,USA,New York,40.745559,-73.986243
820,Networked Insights,USA,Chicago,41.879979,-87.634173
821,Mytopia,USA,Palo Alto,34.007967,-118.489681
822,Magento,USA,Los Angeles,34.052187,-118.243425
823,Netbooks,USA,San Francisco,37.79471,-122.40195
824,GotVoice,USA,Kirkland,47.666791,-122.199525
825,SlideShare,USA,San Francisco,37.776878,-122.400934
826,Constant Contact,USA,Waltham,42.357054,-71.264459
827,Pikum,GBR,London,51.539778,-0.152998
828,CLEAR,USA,New York,29.4748,-81.1274
829,babbel,DEU,Berlin,52.4897,13.38861
830,Parature,USA,Herndon,38.912791,-77.220048
831,Etelos,USA,San Mateo,37.548415,-122.315636
832,7digital,GBR,London,51.5254,-0.083726
833,Kannuu,USA,Dallas,32.9249424,-96.7679229
834,Wikimedia Foundation,USA,San Francisco,37.76785,-122.392839
835,Clearwell Systems,USA,Mountain View,37.398022,-122.049143
836,Digital Railroad,USA,New York,40.735327,-73.988469
837,Become,USA,Sunnyvale,37.424801,-122.07259
838,BlueCat Networks,CAN,Toronto,43.746327,-79.407214
839,Business Insider,USA,New York,40.73906,-73.990911
840,The Echo Nest,USA,Somerville,42.396495,-71.12045
841,BeInSync,ISR,Tel Aviv,32.0554,34.7595
842,Phoenix Technologies,USA,Milpitas,37.414225,-121.92439
843,Zemanta,GBR,London,51.5141566,-0.0934254
844,Zemanta,USA,New York,40.7387945,-73.9939213
845,Zemanta,SVN,Ljubljana,46.0607926,14.4972218
846,Perfect Market,USA,Pasadena,34.146436,-118.153136
847,iovation,USA,Portland,45.52254,-122.675536
848,Bango,GBR,Cambridge,52.2155382,0.124024
849,Bango,USA,New York,40.7412488,-73.9912518
850,Glassdoor,USA,Sausalito,37.868002,-122.500111
851,Datacraft Solutions,USA,Durham,35.999586,-78.9065
852,Red Bend Software,USA,Waltham,42.389795,-71.239286
853,Realtime Worlds,GBR,Dundee,56.461428,-2.968111
854,Realtime Worlds,USA,Boulder,40.010492,-105.276843
855,Berkeley Design Automation,USA,Santa Clara,37.374659,-121.970209
856,itzbig,USA,Austin,30.387275,-97.759511
857,Marketo,USA,San Mateo,37.5583,-122.301385
858,Bonobos,USA,New York,40.7384997,-73.9954585
859,Edmodo,USA,San Mateo,41.857915,-88.321171
860,eYeka,FRA,Paris,48.856667,2.350987
861,AudioMicro,USA,Sherman Oaks,34.153588,-118.422495
862,Cellufun,USA,New York,40.73993,-73.9930489
863,Xoopit,USA,San Francisco,37.7617955,-122.4092704
864,eRepublik,ESP,Madrid,40.43094,-3.6952896
865,Reality Digital,USA,Berkeley,37.859443,-122.291817
866,Spongecell,USA,New York,37.773727,-122.401537
867,Q-Layer,BEL,Lochristi,51.070829,3.771122
868,Metaversum,DEU,Berlin,52.512249,13.419841
869,Placecast,USA,San Francisco,37.773688,-122.423468
870,Palm,USA,Sunnyvale,37.392362,-122.040051
871,Stylehive,USA,San Francisco,37.787646,-122.402759
872,BooRah,USA,Mountain View,37.390918,-122.080843
873,CarDomain Network,USA,Seattle,47.634741,-122.340435
874,Avisena,USA,Miami,25.782058,-80.296794
875,Undertone,USA,New York,40.7509033,-73.9779759
876,Undertone,USA,Chicago,41.8864688,-87.6322669
877,Undertone,USA,San Francisco,37.792949,-122.398099
878,Undertone,GBR,London,51.5118239,-0.132904
879,Undertone,ITA,Rome,41.8912349,12.4307821
880,Undertone,DEU,Hamburg,53.5443074,9.9475619
881,Egnyte,USA,Mountain View,37.429647,-122.100288
882,Jodange,USA,Yonkers,40.934803,-73.901839
883,Frengo,USA,San Mateo,37.553121,-122.301534
884,Austhink Software,AUS,"Melbourne, Victoria",-37.813603,144.96616
885,Zong,USA,Menlo Park,37.4429885,-122.1624131
886,Zong,CHE,Geneva,46.1893709,6.1311735
887,Cotendo,USA,Sunnyvale,37.504764,-122.259568
888,mBlox,USA,Sunnyvale,37.37604,-122.025257
889,GuardianEdge Technologies,USA,San Mateo,37.778613,-122.395289
890,Cellfish,USA,New York,40.761855,-73.983754
891,groSolar,USA,White River,43.662181,-72.352081
892,eSolar,USA,Pasadena,34.146436,-118.153136
893,Krugle,USA,Menlo Park,37.45604,-122.165399
894,Marin Software,USA,San Francisco,37.792083,-122.3946404
895,Huddle,GBR,London,51.4999065,-0.0814873
896,Huddle,USA,San Francisco,37.78236,-122.403256
897,Trampoline Systems,GBR,London,51.5212179,-0.0869736
898,SiBEAM,USA,Sunnyvale,37.390704,-122.03039
899,Velocix,USA,New York,40.758504,-73.980068
900,iRise,USA,El Segundo,33.9019812,-118.3812173
901,MADS,NLD,Amsterdam,52.3637746,4.8946071
902,Boxbe,USA,San Francisco,37.800209,-122.442592
903,Univa UD,USA,Lisle,41.808458,-88.073008
904,Moviestorm,GBR,Cambridge,52.197471,0.130588
905,RichRelevance,USA,San Francisco,37.7938969,-122.4000965
906,mySupermarket,USA,New York,53.478714,-2.244824
907,mySupermarket,GBR,London,51.513671,-0.159205
908,Shopflick,USA,Los Angeles,34.044939,-118.419067
909,PGP Corporation,USA,Menlo Park,37.481407,-122.169958
910,mediaFORGE,USA,Salt Lake City,40.634468,-111.804504
911,Comcast,USA,Philadelphia,39.9525762,-75.1652518
912,Angie's List,USA,Indianapolis,39.767289,-86.139793
913,SquareTrade,USA,San Francisco,37.789551,-122.40036
914,Mojiva,USA,New York,40.7185614,-73.998662
915,GitHub,USA,San Francisco,37.775196,-122.419204
916,Iminent,FRA,Paris,48.8522431,2.387422
917,Texas Instruments,USA,Dallas,32.9181382,-96.7529161
918,Kasenna,USA,Sunnyvale,37.407588,-122.019357
919,AdXpose,USA,Seattle,47.635354,-122.340459
920,VideoClix,CAN,Vancouver,49.283632,-123.104934
921,Visible World,USA,New York,40.75406,-73.999003
922,Strutta,CAN,Vancouver,49.2821075,-123.1078045
923,Memeo,USA,Santa Clara,33.585767,-117.731283
924,Iterasi,USA,Portland,45.523104,-122.670132
925,Salesconx,USA,New York,40.759243,-73.98459
926,Globant,ARG,Buenos Aires,-34.5967236,-58.3708904
927,Globant,USA,Hopkinton,42.2261823,-71.5174869
928,Globant,GBR,London,51.5205095,-0.0952197
929,Globant,USA,San Francisco,37.7819286,-122.4041764
930,Globant,BRA,Sao Paulo,-23.5606195,-46.6816579
931,Globant,COL,Bogota,4.7595921,-74.0632101
932,Globant,URY,Montevideo,-34.8836111,-56.1819444
933,Globant,ARG,La Plata,-34.6776448,-58.3840599
934,Globant,ARG,Tandil,-37.3281072,-59.1340915
935,Globant,ARG,Resistencia,-27.4533887,-58.9871056
936,Globant,ARG,Tucuman,-26.8007888,-65.3024825
937,Globant,ARG,Bahía Blanca,-38.7211371,-62.2690974
938,ImageShack,USA,Los Gatos,37.226709,-121.98147
939,RealMatch,USA,New York,39.047912,-77.19544
940,Collective Intellect,USA,Boulder,40.0186313,-105.2764361
941,PluggedIn,USA,Santa Monica,34.007967,-118.489681
942,Mirror42,NLD,Amsterdam,52.36702,4.896468
943,Apture,USA,San Francisco,37.566042,-122.322954
944,CellSpin,USA,San Jose,37.421731,-121.957018
945,InMobi,USA,San Francisco,37.4465496,-122.1709208
946,InMobi,SGP,Singapore,1.284082,103.851942
947,Daptiv,USA,Seattle,47.604279,-122.337437
948,MediaScrape,CAN,Montreal,45.545447,-73.639076
949,TeachStreet,USA,Seattle,47.6171788,-122.3370801
950,WeeWorld,USA,Concord,42.4588999,-71.3495213
951,WeeWorld,GBR,Glasgow,55.8631705,-4.2635168
952,Wayfair,USA,Boston,42.348691,-71.082523
953,Wayfair,DEU,Berlin,52.4981582,13.4478557
954,MUBI,USA,Palo Alto,37.44236,-122.161025
955,UserVoice,USA,San Francisco,36.9751032,-122.0253784
956,BuildDirect,CAN,Vancouver,49.283935,-123.11593
957,Health Plan One,USA,Shelton,41.262403,-73.135894
958,Scanbuy,USA,New York,40.7512062,-73.9815333
959,Modern Feed,USA,Los Angeles,34.085749,-118.343791
960,The Guild,USA,Madison,43.081862,-89.37049
961,PrepChamps,USA,,35.914702,-78.902617
962,Aardvark,USA,San Francisco,37.748676,-122.415813
963,SQLstream,USA,San Francisco,37.775058,-122.419966
964,MyWebGrocer,USA,Winooski,44.509265,-73.183959
965,Triggit,USA,San Francisco,37.771208,-122.418129
966,Serious Business,USA,San Francisco,37.7893215,-122.4013624
967,Retail Convergence,USA,Boston,42.35888,-71.05682
968,RateItAll,USA,San Francisco,37.755012,-122.418137
969,OPEN Sports Network,USA,Deerfield Beach,26.310509,-80.127087
970,TuneWiki,USA,Santa Monica,37.412577,-121.916861
971,Estately,USA,Seattle,47.273017,-120.882482
972,KnowledgeTree,USA,Raleigh,35.786975,-78.647003
973,Tealeaf,USA,San Francisco,37.791242,-122.397133
974,Spotify,LUX,Luxembourg,49.607295,6.121511
975,Adify,USA,San Bruno,37.629393,-122.424975
976,InvenSense,USA,San Jose,37.407445,-122.019405
977,Wigix,USA,,37.09024,-95.712891
978,Cortera,USA,,37.09024,-95.712891
979,Cortera,USA,Boca Raton,26.3586885,-80.0830984
980,Center'd,USA,Menlo Park,37.452992,-122.185098
981,Indochino,CAN,"Vancouver, BC",48.487589,-123.337608
982,Kabam,USA,San Francisco,37.3944561,-122.0785314
983,Pontiflex,USA,Brooklyn,40.702692,-73.989613
984,TraceWorks,DNK,Copenhagen K,55.678672,12.579241
985,BioWizard,USA,Wayne,40.043029,-75.377916
986,Turbine,USA,Westwood,42.214483,-71.185964
987,Turbine,USA,Redwood City,37.477652,-122.223384
988,Mind Candy,GBR,London,51.471958,-0.147646
989,Syncplicity,USA,Menlo Park,37.814202,-122.477959
990,TicketLeap,USA,Philadelphia,39.9512991,-75.179869
991,kajeet,USA,Bethesda,38.9806,-77.1008
992,New Relic,USA,San Francisco,37.269175,-119.306607
993,Gridstone Research,USA,San Mateo,37.54588,-122.321354
994,Velocify,USA,El Segundo,33.9192583,-118.3952969
995,Pixsta,GBR,London,51.51819,-0.208979
996,FusionOps,USA,Sunnyvale,37.3795251,-122.0106131
997,Tripwolf,AUT,Vienna,48.220357,16.355
998,PatientsLikeMe,USA,Cambridge,42.3674989,-71.0793952
999,Zinch,USA,San Francisco,40.234451,-111.658656
1000,Yoono,USA,San Francisco,37.787204,-122.397884
1001,GodTube,USA,Plano,33.075067,-96.823962
1002,Jinni,ISR,Tel Aviv,32.0554,34.7595
1003,Citizen Sports,USA,San Francisco,37.777513,-122.397044
1004,Quickoffice,USA,Plano,33.02373,-96.793614
1005,MarketLive,USA,Petaluma,38.2310498,-122.6309861
1006,OVGuide,USA,Los Angeles,34.052187,-118.243425
1007,XunLight,USA,Toledo,41.645278,-83.618593
1008,Talend,USA,Los Altos,37.371908,-122.111711
1009,SnapLogic,USA,San Mateo,37.558245,-122.302654
1010,Fave Media,USA,Chicago,41.924899,-87.640442
1011,Vurv Technology,USA,Jacksonville,30.238185,-81.543165
1012,EatLime,USA,San Francisco,37.7749295,-122.4194155
1013,sevenload,DEU,Cologne,50.945289,6.921546
1014,NewsCred,USA,New York,46.223157,6.124424
1015,NewsCred,BGD,Dhaka,23.709921,90.407143
1016,amazingtunes,GBR,Newcastle Upon Tyne,54.971346,-1.611141
1017,Rosum,USA,Mountain View,37.397302,-122.059562
1018,Andera,USA,Providence,41.8283364,-71.4133543
1019,Authentium,USA,Palm Beach Gardens,26.837923,-80.134733
1020,ClairMail,USA,San Rafael,38.057107,-122.513742
1021,Nvidia,USA,Santa Clara,37.370026,-121.965381
1022,Nvidia,FIN,Helsinki,60.168546,24.932475
1023,Nvidia,FRA,Levallois Perret Cedex,48.897549,2.283542
1024,Nvidia,DEU,WÃ¼rselen,50.804956,6.153656
1025,Nvidia,MYS,Singapore,1.328686,103.747574
1026,Confident Technologies,USA,Solana Beach,36.15057,-95.989442
1027,Appfolio,USA,Goleta,34.433463,-119.863565
1028,Blackberry,CAN,Waterloo,43.476528,-80.539594
1029,CitizenHawk,USA,Aliso Viejo,33.571604,-117.734795
1030,Dilithium Networks,USA,Petaluma,38.279431,-122.668452
1031,Passenger,USA,Los Angeles,34.029956,-118.308943
1032,IP Commerce,USA,Denver,39.74893,-104.99342
1033,TuneUp,USA,San Francisco,37.7654195,-122.4119381
1034,SimpleTuition,USA,Boston,42.297418,-71.214796
1035,Sparkroom,CAN,Toronto,43.6683,-79.385969
1036,Tyfone,USA,Portland,45.5105,-122.674995
1037,Infinia,USA,OGDEN,46.220919,-119.22322
1038,Rapleaf,USA,Chicago,37.7867392,-122.4013875
1039,Efficient Frontier,USA,Sunnyvale,37.4049731,-122.0323525
1040,Mozes,USA,Palo Alto,37.445667,-122.166911
1041,Smarkets,GBR,London,51.550757,-0.130772
1042,Wavemaker Software,USA,San Francisco,37.789518,-122.394265
1043,VirtualLogix,USA,Sunnyvale,37.409147,-122.015463
1044,Futurlink,ESP,Barcelona,41.396553,2.189241
1045,Stitcher,USA,San Francisco,37.775196,-122.419204
1046,Cognition Technologies,USA,Culver City,33.985399,-118.389452
1047,[x+1],USA,New York,40.7455068,-73.982624
1048,Raydiance,USA,Chevy Chase,38.96524,-77.083389
1049,OleOle,USA,Beverly Hills,34.067153,-118.409161
1050,TerraPass,USA,San Francisco,37.787445,-122.397847
1051,BusinessCard2,USA,Minneapolis,45.004089,-93.250179
1052,Sometrics,USA,El Segundo,34.048857,-118.251343
1053,SocialVibe,USA,Los Angeles,34.0815238,-118.3826743
1054,deviantART,USA,Hollywood,34.101578,-118.33334
1055,WrapMail,USA,Fort Lauderdale,26.119403,-80.143394
1056,mywaves,SAU,Sunnyvale,37.3886,-122.016779
1057,NextBio,USA,Santa Clara,37.316653,-122.05074
1058,Parascale,USA,Cupertino,37.316653,-122.05074
1059,Zoosk,USA,San Francisco,37.7726402,-122.4099154
1060,Aquantia,USA,Milpitas,37.4130233,-121.9175461
1061,Aprius,USA,Washington,47.6409655,-117.5357108
1062,Transpera,USA,San Francisco,37.785792,-122.405081
1063,GameFly,USA,Los Angeles,33.934558,-118.3962622
1064,Ztail,USA,Palo Alto,37.44931,-122.160011
1065,AirCell,USA,Itasca,41.989344,-88.004903
1066,Row44,USA,Westlake Village,34.143152,-118.80146
1067,JellyCloud,USA,Redwood City,37.485786,-122.206246
1068,Aster Data Systems,USA,San Carlos,37.5068854,-122.2475729
1069,Pixim,USA,Mountain View,37.420439,-122.07689
1070,Bizo,USA,San Francisco,37.7911186,-122.4011706
1071,Fliqz,USA,Emeryville,37.848641,-122.289498
1072,Roku,USA,Saratoga,37.279969,-122.002271
1073,Funambol,USA,Foster City,37.49654,-122.225128
1074,Yandex,CHE,Luzern,47.0419512,8.3140814
1075,Sonico,ARG,Buenos Aires,-34.611781,-58.417309
1076,StarNet Interactive,ISR,,31.046051,34.851612
1077,eBureau,USA,St. Cloud,45.560899,-94.159452
1078,Moblyng,USA,Redwood City,37.453665,-122.229069
1079,Sirtris Pharmaceuticals,USA,Cambridge,42.363567,-71.091189
1080,Knewton,USA,New York,40.7310476,-74.0078134
1081,AtHoc,USA,San Mateo,37.560747,-122.284001
1082,ScribbleLive,CAN,Toronto,43.64308,-79.406775
1083,Campus Explorer,USA,Santa Monica,34.031178,-118.463841
1084,Zecter,USA,Burlingame,37.384756,-122.087712
1085,Votigo,USA,Boulder,37.8919079,-122.1192743
1086,OtherInbox,USA,Austin,30.269004,-97.740395
1087,BrightDoor Systems,USA,Cary,35.828121,-78.789358
1088,Zinio,USA,San Francisco,37.7915,-122.40045
1089,NearbyNow,USA,Mountain View,37.393836,-122.099454
1090,Tapatap,USA,San Mateo,37.561589,-122.324571
1091,PurePlay,USA,San Francisco,37.775196,-122.419204
1092,Aruspex,USA,San Francisco,37.790346,-122.40185
1093,Oxynade,BEL,Ghent,51.050314,3.71105
1094,Apertio,GBR,Bristol,51.499708,-2.533334
1095,Cloudmark,USA,San Francisco,37.779507,-122.39071
1096,Axentra,CAN,Ottawa,45.427398,-75.689871
1097,GreenNote,USA,Mather,37.492685,-122.227765
1098,BelAir Networks,CAN,Kanata,45.348158,-75.923844
1099,Vaultus Mobile,USA,Boston,42.350359,-71.0506234
1100,Handmark,USA,Kansas City,39.103151,-94.581908
1101,TRUSTe,USA,San Francisco,37.7886685,-122.4005576
1102,Aptera,USA,Carlsbad,33.133524,-117.254593
1103,gate5,DEU,Berlin,52.52348,13.411494
1104,Xtract,FIN,Espoo,60.192614,25.029023
1105,eduFire,USA,Chandler,37.7764671,-122.3957917
1106,M:Metrics,USA,Seattle,47.620716,-122.347533
1107,Jambool,USA,San Francisco,37.782101,-122.389519
1108,B-hive Networks,USA,San Mateo,37.536402,-122.325129
1109,VMware,USA,Palo Alto,37.403315,-122.145981
1110,Cloudcity,GBR,St Albans,51.750141,-0.280535
1111,Sylantro,USA,Campbell,37.293687,-121.934573
1112,TeleFlip,USA,Santa Monica,34.01695,-118.451933
1113,Jigsaw,USA,San Mateo,37.552806,-122.291602
1114,NetProspex,USA,Waltham,42.375034,-71.251069
1115,Backblaze,USA,Palo Alto,37.44296,-122.151198
1116,Ozmo Devices,USA,Palo Alto,37.446152,-122.117722
1117,appssavvy,USA,New York,40.724604,-73.996876
1118,Navic Networks,USA,Waltham,42.375518,-71.272292
1119,eJamming,USA,Boca Raton,26.367481,-80.114723
1120,Agilis Systems,USA,St. Louis,38.681201,-90.471595
1121,Medallia,USA,Palo Alto,37.4520239,-122.1797053
1122,Inertia Beverage Group,USA,Napa,38.223032,-122.261642
1123,TuneCore,USA,Brooklyn,40.704382,-73.986572
1124,Internet Mall,CZE,Praha,49.817492,15.472962
1125,Cooliris,USA,Palo Alto,37.421447,-122.141604
1126,CCP Games,USA,Stone Mountain,33.817752,-84.120458
1127,Gamook,USA,Menlo Park,37.41924,-122.208414
1128,Epic Advertising,USA,New York,40.753403,-73.989189
1129,Vindicia,USA,Belmont,37.538418,-122.252115
1130,WSO2,USA,Palo Alto,37.390918,-122.080843
1131,WSO2,GBR,,50.8472228,-0.919424
1132,Crowd Science,USA,San Jose,37.419041,-122.087471
1133,Crowd Science,CAN,Toronto,43.712309,-79.399538
1134,Dizzywood,USA,,37.269175,-119.306607
1135,BumpTop,CAN,Toronto,43.648786,-79.3777473
1136,Limbo,USA,Burlingame,37.580304,-122.343679
1137,CohesiveFT,USA,Chicago,41.882401,-87.637816
1138,BrandYourself,USA,New York,42.275263,-71.24762
1139,Knowledge Adventure,USA,Torrance,33.8231,-118.328584
1140,ClickandBuy,DEU,Cologne,50.947699,6.94205
1141,EXFO,CAN,Quebec,46.8149807,-71.2722665
1142,StartForce,USA,San Francisco,37.796164,-122.420903
1143,Rally Software,USA,Boulder,40.010295,-105.242005
1144,Rally Software,ANT,Amsterdam,52.3380977,4.8688096
1145,Rally Software,GBR,Buckinghamshire,51.6666189,-0.614003
1146,Intelliworks,USA,Bethesda,39.116333,-77.181307
1147,SpaBoom,USA,Albuquerque,35.086388,-106.646185
1148,Yield Software,USA,San Mateo,37.558245,-122.302654
1149,ZPower,USA,Camarillo,34.197333,-119.009054
1150,SquareClock,FRA,Asnieres sur seine,48.9064804,2.2860418
1151,Blue Ridge Networks,USA,Chantilly,38.892684,-77.436196
1152,Pivot,USA,Cambridge,42.364367,-71.078978
1153,mindSHIFT Technologies,USA,Waltham,42.38532,-71.207055
1154,The Receivables Exchange,USA,New York,40.757651,-73.9752768
1155,Sense Networks,USA,New York City,40.724647,-73.999636
1156,vLex,ESP,Barcelona,41.392852,2.168021
1157,vLex,USA,San Mateo,37.55873,-122.27992
1158,ScreenScape Networks,CAN,Charlottetown,46.234315,-63.127845
1159,Infusionsoft,USA,Chandler,33.2871748,-111.8871813
1160,Tapulous,USA,Palo Alto,37.444332,-122.161018
1161,Practice Fusion,USA,San Francisco,37.7886717,-122.392725
1162,be2,DEU,Munich,51.578714,8.093765
1163,Tribe,USA,Los Gatos,37.2399312,-121.9609305
1164,Nimbit,USA,Framingham,42.272486,-71.424992
1165,HireVue,USA,South Jordan,40.554467,-111.9137871
1166,Codefast,USA,San Jose,37.316466,-121.873881
1167,SwapDrive,USA,Washington,38.897566,-77.030282
1168,Accertify,USA,Itasca,42.048203,-88.031569
1169,Arcadian Networks,USA,Elk River,45.3200381,-93.5874441
1170,HealthiNation,USA,New York,40.739341,-73.988357
1171,Firefly Energy,USA,Peoria,40.76652,-89.571813
1172,Bestofmedia Group,FRA,Suresnes,48.8704095,2.2246339
1173,Bestofmedia Group,USA,Culver City,34.0221299,-118.395743
1174,International Liars Poker Association,USA,St. Louis,38.632188,-90.214212
1175,Socialcast,USA,San Francisco,37.7819267,-122.3932389
1176,Hyperic,USA,Palo Alto,37.4027811,-122.1441615
1177,Zenoss,USA,Annapolis,38.97639,-76.503171
1178,Zenoss,USA,Austin,30.379593,-97.765313
1179,CrimeReports,USA,Salt Lake City,40.726342,-111.858835
1180,Stardoll,SWE,Stockholm,59.345553,18.037611
1181,Optaros,USA,Boston,42.356812,-71.058185
1182,NetSpend,USA,Austin,30.2667,-97.7428
1183,Intacct,USA,San Jose,37.332948,-121.89053
1184,Vivaty,USA,Menlo Park,37.48032,-122.178371
1185,Boxee,ISR,Tel Aviv,32.0554,34.7595
1186,Boxee,USA,New York,40.745064,-73.992637
1187,Aurora Biofuels,USA,,37.6266932,-122.1169032
1188,Aurora Biofuels,USA,Hayward,37.6688205,-122.0807964
1189,Acronis,USA,Burlington,42.48774,-71.223868
1190,Acronis,USA,Emeryville,37.840054,-122.29166
1191,Exinda,USA,Boston,40.617122,-111.858073
1192,Exinda,USA,Andover,42.675189,-71.1469
1193,Exinda,AUS,Abbotsford,-37.804233,144.998935
1194,Exinda,GBR,Watford,51.661293,-0.397004
1195,eEye,USA,Irvine,33.64214,-117.855539
1196,Bambuser,SWE,Stockholm,59.332788,18.064488
1197,Zoomorama,FRA,Paris,48.854845,2.40352
1198,Trusera,USA,Seattle,47.617122,-122.305994
1199,GET Holding NV,NLD,Zaandijk,52.475393,4.812833
1200,Channel Intelligence,USA,Celebration,28.321337,-81.552229
1201,Channel Intelligence,GBR,London,51.500152,-0.126236
1202,Razz,USA,San Francisco,37.766909,-122.406676
1203,InsideView,USA,San Francisco,37.764169,-122.402021
1204,Xcerion,SWE,Linkoping,58.408922,15.626481
1205,Lat49,CAN,"Vancouver, BC",49.275332,-123.120893
1206,Clickability,USA,San Francisco,37.7932747,-122.399929
1207,WideOrbit,USA,San Francisco,37.7895289,-122.3885899
1208,Jibe Mobile,USA,Mountain View,37.4186097,-122.0937686
1209,Ziplocal,CAN,Toronto,43.650105,-79.396805
1210,Ziplocal,CAN,Montreal,45.498179,-73.565316
1211,HIRO Media,ISR,Tel Aviv,32.0554,34.7595
1212,SpikeSource,USA,Mountain View,37.510805,-122.203744
1213,Blueprint Software Systems,CAN,Toronto,43.65101,-79.381254
1214,Idea Shower,USA,Minneapolis,44.977482,-93.264351
1215,CrestaTech,USA,Santa Clara,37.383368,-121.980186
1216,Guruji,IND,Bangalore,12.937677,77.56574
1217,Xerox,USA,Norwalk,41.256052,-82.616032
1218,BountyJobs,USA,New York,40.754211,-73.97917
1219,Keibi Technologies,USA,San Francisco,37.787646,-122.402759
1220,Samba Tech,BRA,Belo Horizonte,-19.815731,-43.954223
1221,Alereon,USA,Austin,30.375563,-97.78192
1222,VBS TV,USA,Brooklyn,40.720764,-73.957968
1223,Imagekind,USA,Raleigh,47.617732,-122.357317
1224,Aloqa,DEU,Munich,48.1281209,11.5677288
1225,Aloqa,USA,Palo Alto,37.43938,-122.158804
1226,FlyCast,USA,Lancaster,40.039353,-76.307448
1227,LicenseStream,USA,New York,40.7309047,-74.006311
1228,OkCupid,USA,New York,40.7368158,-73.9955426
1229,FusionOne,USA,San Jose,37.333439,-121.895286
1230,rPath,USA,Raleigh,35.79181,-78.74123
1231,MarkLogic,USA,San Carlos,37.506272,-122.246867
1232,Appian,USA,Reston,38.912827,-77.220028
1233,Appian,GBR,London,51.513122,-0.094384
1234,RightScale,USA,Santa Barbara,34.420316,-119.688412
1235,Photobucket,USA,Denver,47.601803,-122.332085
1236,My Damn Channel,USA,New York,40.754762,-73.988543
1237,My Damn Channel,USA,El Segundo,33.9019543,-118.3872018
1238,Jedox,DEU,Frieburg,47.997186,7.853767
1239,Cleartrip,IND,Mumbai,18.9978594,72.8367776
1240,Mendix,NLD,Rotterdam,51.9047086,4.4574464
1241,Mezmeriz,USA,Ithaca,42.485193,-76.458553
1242,Troux Technologies,USA,Austin,30.381525,-97.810484
1243,Troux Technologies,GBR,Slough,51.519369,-0.631817
1244,Troux Technologies,DEU,MÃ¼nchen,48.142778,11.505366
1245,Fortisphere,USA,Chantilly,38.87804,-77.436151
1246,Drimki,FRA,Paris,48.856667,2.350987
1247,Ounce Labs,USA,Waltham,42.393662,-71.255855
1248,Clupedia,USA,Santa Ana,33.73076,-117.885161
1249,Myngle,NLD,Amsterdam,52.354525,4.912106
1250,LivePerson,USA,New York,40.751969,-73.99031
1251,LivePerson,USA,Atlanta,33.8656817,-84.4709443
1252,LivePerson,GBR,Reading,51.4238637,-0.9876997
1253,Neocleus,USA,Jersey City,40.716438,-74.033872
1254,thePlatform,USA,Seattle,47.617838,-122.356027
1255,CashEdge,USA,New York,40.736796,-73.988339
1256,CashEdge,USA,Sunnyvale,37.406434,-122.014829
1257,Lehigh Technologies,USA,Tucker,26.215648,-81.80187
1258,adicate timeads,NOR,Fredrikstad,59.215127,10.929338
1259,TournEase,USA,Lakeland,28.02998,-82.045178
1260,Posterous,USA,San Francisco,37.775196,-122.419204
1261,Aylus Networks,USA,Westford,42.559391,-71.432373
1262,plista,DEU,Berlin,52.5283614,13.4124563
1263,LifePics,USA,Boulder,40.025479,-105.219298
1264,Mediastay,FRA,Levallois Perret,48.891494,2.292728
1265,Raytheon,USA,Waltham,42.4011047,-71.2747563
1266,Searchles,USA,Washington,38.905327,-77.038897
1267,Extend Media,USA,Newton,42.295137,-71.200686
1268,Extend Media,CAN,"Toronto, Ontario",43.6373101,-79.4254603
1269,Extend Media,FRA,Vence,43.7129305,7.1346567
1270,MediaBoost,USA,Bellaire,29.717673,-95.459308
1271,Open Places,USA,San Francisco,37.758352,-122.398379
1272,Genbook,USA,San Francisco,37.789902,-122.4007791
1273,MetaCarta,USA,Cambridge,42.36236,-71.099692
1274,TweetDeck,GBR,London,51.5001524,-0.1262362
1275,Flowgram,USA,San Francisco,37.7710177,-122.4025976
1276,Ecrio,USA,Cupertino,37.3228,-122.031282
1277,Achievers,USA,San Francisco,43.637296,-79.425455
1278,Neato Robotics,USA,Newark,37.414232,-122.0875443
1279,mmCHANNEL,ESP,Pozuelo de Alarcon,40.456204,-3.813122
1280,BitDefender,USA,Fort Lauderdale,26.170422,-80.150794
1281,YouMail,USA,Irvine,33.58273,-117.727468
1282,Segway,USA,Bedford,42.928152,-71.45672
1283,Reconnex,USA,Mountain View,37.388072,-122.055975
1284,Wahanda,GBR,London,41.792265,1.996567
1285,Medialets,USA,New York,40.756054,-73.986951
1286,Medialets,USA,San Francisco,37.775196,-122.419204
1287,Milestone Systems,USA,Beaverton,45.45548,-122.790021
1288,Bitly,USA,New York,40.74034,-74.00721
1289,Fluid Entertainment,USA,Mill Valley,37.906966,-122.545763
1290,Unisfair,USA,Menlo Park,37.480999,-122.173887
1291,Unisfair,USA,New York,40.7482,-73.988154
1292,Novint,USA,Albuquerque,35.184421,-106.673731
1293,Flat World Knowledge,USA,Irvington,41.091306,-73.923422
1294,SulfurCell,DEU,Berlin,52.432644,13.522974
1295,Ocarina Networks,USA,San Jose,37.371056,-121.920558
1296,Datapipe,USA,Jersey City,40.71644,-74.03392
1297,Involver,USA,San Francisco,37.788653,-122.401333
1298,Videoplaza,GBR,London,51.5212481,-0.1020894
1299,Videoplaza,SWE,Stockholm,59.3351833,18.0333601
1300,Videoplaza,DEU,Berlin,52.5372765,13.3787413
1301,Videoplaza,SGP,Singapore,1.2821008,103.8508327
1302,Videoplaza,ESP,Madrid,40.4596242,-3.6923285
1303,Spire,USA,Boston,42.350027,-71.049225
1304,AdScale,DEU,Munich,48.1654212,11.5893956
1305,DaWanda,DEU,Berlin,52.52647,13.3892214
1306,ON24,USA,San Francisco,37.7850326,-122.4004738
1307,ON24,USA,New York,40.719609,-74.000754
1308,Riot Games,USA,Culver City,34.0025911,-118.3942383
1309,Blue Lava Technologies,USA,Honolulu,21.309419,-157.86318
1310,Zendesk,USA,San Francisco,55.676294,12.568116
1311,Streetline,USA,San Francisco,37.782085,-122.409747
1312,Epocrates,USA,San Mateo,37.544987,-122.291394
1313,neoSaej,USA,Burlington,42.485691,-71.19862
1314,Truviso,USA,Foster City,37.561111,-122.270487
1315,muzu tv,IRL,Dublin,53.341987,-6.262682
1316,muzu tv,GBR,London,51.513678,-0.13063
1317,muzu tv,USA,New York,40.757716,-73.972321
1318,Nuroa,ESP,Barcelona,41.3916792,2.1775706
1319,Agitar,USA,Cranston,41.7401349,-71.4550207
1320,LiquidTalk,USA,Chicago,41.831001,-87.626918
1321,Dexterra,USA,Bothell,47.802184,-122.196307
1322,Dexterra,CAN,"Toronto, Ontario",43.645702,-79.382594
1323,Dexterra,DEU,Cologne,50.911182,6.96106
1324,Dexterra,USA,Redwood City,37.512253,-122.201099
1325,Dexterra,GBR,"Reading, Berkshire",51.420766,-0.995684
1326,Dexterra,AUS,Sydney,-33.872864,151.207543
1327,Myrio,USA,Bothell,47.765758,-122.184304
1328,Consensus Point,USA,Nashville,36.1628,-86.781
1329,Message Systems,USA,Columbia,39.169397,-76.811526
1330,BlogHer,USA,Belmont,37.491356,-122.228843
1331,trueAnthem,USA,San Francisco,37.8059887,-122.4099154
1332,SnagFilms,USA,Washington,38.906867,-77.042322
1333,Cherwell Software,USA,Colorado Springs,39.010667,-104.81628
1334,GenArts,USA,Cambridge,42.369007,-71.110276
1335,Lexy,USA,San Francisco,37.786906,-122.397672
1336,SingleHop,USA,Chicago,41.877867,-87.634781
1337,Vanu,USA,Cambridge,42.362993,-71.086596
1338,Hands-On Mobile,USA,San Francisco,37.775196,-122.419204
1339,Napera Networks,USA,Bellevue,47.578174,-122.212731
1340,QlikTech,USA,Radnor,40.037578,-75.366299
1341,SAVO,USA,Chicago,41.87675,-87.640458
1342,Coremetrics,USA,San Mateo,37.55873,-122.27992
1343,Coremetrics,FRA,Vincennes,48.843399,2.428526
1344,Coremetrics,AUS,Melbourne,-37.814541,144.9705
1345,Carbonetworks,USA,San Francisco,37.805289,-122.404448
1346,Minted,USA,San Francisco,37.797435,-122.403175
1347,Appirio,USA,San Francisco,37.5552776,-122.2997532
1348,OrderMotion,USA,Burlington,42.351189,-71.057343
1349,Kontagent,USA,San Francisco,37.7797255,-122.4020593
1350,Brocade Communications Systems,USA,San Jose,37.376066,-121.926678
1351,Brocade Communications Systems,CHE,Geneva,46.23187,6.110264
1352,Buysight,USA,Palo Alto,37.425359,-122.1389633
1353,Eye-Fi,USA,Mountain View,37.392428,-122.072479
1354,Qumu,USA,San Bruno,37.630551,-122.422113
1355,GreenRoad Technologies,USA,Redwood Shores,37.527315,-122.263434
1356,Juniper Networks,USA,Sunnyvale,37.409123,-122.025646
1357,Black Duck Software,USA,Waltham,42.398916,-71.253998
1358,Black Duck Software,USA,San Mateo,37.556152,-122.281484
1359,Black Duck Software,GBR,Manchester,53.524419,-2.258714
1360,Black Duck Software,NLD,Amsterdam,52.340609,4.870312
1361,CarbonFlow,USA,San Francsico,37.779097,-122.39365
1362,CarbonFlow,AUS,Sydney,-33.867139,151.207114
1363,CarbonFlow,GBR,London,51.500152,-0.126236
1364,Allvoices,USA,San Francisco,37.791068,-122.401942
1365,DATAllegro,USA,Aliso Viejo,33.581675,-117.726176
1366,Yatra online,IND,Gurgaon,28.4404308,77.0789194
1367,Transposagen Biopharmaceuticals,USA,Lexington,38.048906,-84.499838
1368,Huddler,USA,San Francisco,37.7893215,-122.4013624
1369,Enikos,AUS,Sydney,-33.8627,151.209705
1370,Prezi,HUN,Budapest,47.490346,19.059078
1371,iStreamPlanet,USA,Las Vegas,36.059658,-115.23671
1372,Livebookings,GBR,London,51.5112139,-0.1198244
1373,Voltaix,USA,N. Branch,40.58606,-74.664666
1374,Voltaix,USA,Branchburg,40.605291,-74.715385
1375,Accipiter Systems,USA,Wexford,40.6354281,-80.061222
1376,Moxsie,USA,Palo Alto,37.437328,-122.159928
1377,Admeld,USA,New York,40.755253,-73.992152
1378,Roamware,USA,San Jose,37.317799,-121.947497
1379,Roamware,BEL,Brussels,50.828686,4.36201
1380,Roamware,HKG,Wanchai,22.280014,114.179842
1381,Roamware,MYS,Singapore,1.282172,103.849805
1382,Roamware,IND,Bangalore,12.973873,77.651347
1383,Telnic,GBR,London,51.518107,-0.134078
1384,NEXTA Media,ITA,Roma,41.907696,12.496985
1385,NEXTA Media,ITA,Milano,45.464715,9.182122
1386,Anvato,USA,Mountain View,37.400689,-122.0572
1387,Zorap,USA,San Francisco,37.775196,-122.419204
1388,Zorap,USA,Falmouth,43.6910137,-70.2694636
1389,NeoMedia Technologies,USA,Boulder,33.917509,-84.356503
1390,NeoMedia Technologies,DEU,Wurselen,50.812765,6.163074
1391,Hunch,USA,New York,40.741179,-73.993182
1392,ngmoco,USA,San Francisco,37.7705096,-122.4015807
1393,Local Marketers,USA,Seattle,47.5989681,-122.3329036
1394,Network Foundation Technologies,USA,Century City,34.057646,-118.417382
1395,Covarity,CAN,Kitchener,43.4512353,-80.4892301
1396,LeisureLogix,USA,Tampa,28.032975,-82.64611
1397,AppNexus,USA,New York,40.7250495,-73.9970912
1398,Dataupia,USA,Cambridge,42.3988457,-71.1404961
1399,Conductor,USA,New York,40.746332,-73.982596
1400,Pricelock,USA,Redwood City,37.518539,-122.254275
1401,GetYourGuide,CHE,Zurich,47.3912899,8.5082891
1402,Vantage Media,USA,El Segundo,33.902696,-118.387511
1403,RadioFrame,USA,Redmond,47.685626,-122.145808
1404,RadioFrame,IRL,Dublin,53.335759,-6.250174
1405,OZ Communications,CAN,"Montreal, Quebec",45.4965703,-73.5687974
1406,Entone Technologies,USA,Cupertino,37.536402,-122.325129
1407,Sharethrough,USA,San Francisco,37.7976785,-122.4018163
1408,Terapeak,CAN,Victoria,48.494688,-123.407654
1409,Plastic Logic,DEU,Dresden,51.12601,13.734177
1410,Paymo,USA,San Francisco,37.798684,-122.40264
1411,Paymo,GBR,London,51.514165,-0.109017
1412,SkyGrid,USA,Sunnyvale,37.40754,-122.010958
1413,dynaTrace software,USA,Waltham,42.391389,-71.270987
1414,dynaTrace software,AUT,Linz,48.3295209,14.3194706
1415,SpiderOak,USA,Northbrook,42.142261,-87.862305
1416,MyFrontSteps,CAN,Saskatoon,52.143886,-106.6634565
1417,Veveo,USA,Andover,42.687142,-71.212156
1418,RealTravel,USA,Los Altos,37.395335,-122.102339
1419,Hyper9,USA,Austin,30.387353,-97.753163
1420,Koolanoo Group,CHN,Beijing,39.905556,116.395833
1421,Cazoodle,USA,Champaign,40.090814,-88.239866
1422,IntelePeer,USA,San Mateo,37.536394,-122.326141
1423,IntelePeer,USA,Denver,39.755363,-105.008551
1424,RoyaltyShare,USA,San Diego,32.893366,-117.200035
1425,MobileAware,USA,Boston,53.342648,-6.280957
1426,InstallFree,USA,Stamford,41.073034,-73.550452
1427,Purewire,USA,Atlanta,33.852384,-84.380568
1428,magnify360,USA,Los Angeles,33.946285,-118.38823
1429,Recommind,USA,San Francisco,37.796903,-122.404904
1430,Centrify,USA,Sunnyvale,37.390918,-122.080843
1431,Likewise Software,USA,Bellevue,47.582658,-122.135282
1432,Integrate,USA,Scottsdale,40.7481039,-74.0353787
1433,Koofers,USA,Blacksburg,37.2322135,-80.4164606
1434,Innotas,USA,San Francisco,37.787722,-122.3993979
1435,LockerDome,USA,St. Louis,38.6501668,-90.2598684
1436,LockerDome,USA,New York City,40.7272544,-74.0057152
1437,Kilopass,USA,Santa Clara,37.3802792,-121.9703344
1438,Varolii,USA,Seattle,47.604242,-122.334448
1439,NexPlanar,USA,Hillsboro,45.546481,-122.9021288
1440,sliceX,USA,San Jose,37.3706126,-121.9219538
1441,FreedomPay,USA,Radnor,39.9768778,-75.4162735
1442,Sequoia Communications,USA,San Diego,32.988247,-117.080769
1443,ZManda,USA,Sunnyvale,37.3725243,-122.035963
1444,ELDR Media,USA,Corte Madera,37.9260091,-122.5162892
1445,Synchronica,DEU,Berlin,52.494722,13.398514
1446,Synchronica,USA,Raleigh,35.868807,-78.615986
1447,Synchronica,USA,Campbell,37.275604,-121.952034
1448,Palo Alto Networks,USA,Santa Clara,37.410439,-122.016125
1449,Envysion,USA,Louisville,39.97764,-105.13114
1450,Onehub,USA,Seattle,47.580235,-122.145038
1451,Voxeo,GBR,Hertfordshire,51.8027645,-0.1871194
1452,Voxeo,DEU,Cologne,50.9095785,7.0555242
1453,BitWave,USA,Lowell,42.616152,-71.325869
1454,EnOcean,DEU,Oberhaching,48.031349,11.586705
1455,EnOcean,USA,Boston,42.349048,-71.082153
1456,NitroSecurity,USA,Portsmouth,43.093886,-70.784798
1457,NitroSecurity,USA,Conshohocken,40.075156,-75.28506
1458,Trilliant,USA,Redwood City,37.535876,-122.257331
1459,ShopWiki,USA,New York,40.740441,-73.993376
1460,Occipital,USA,Boulder,40.018145,-105.278109
1461,Foodzie,USA,San Francisco,40.0173513,-105.2773493
1462,UsingMiles,USA,Denver,39.749671,-104.9998449
1463,KoolSpan,USA,Bethesda,38.987594,-77.0974791
1464,Panjiva,USA,NYC,40.741276,-73.991561
1465,Webroot,USA,Broomfield,40.02644,-105.2247774
1466,Atigeo,USA,Bellevue,47.6174533,-122.2016685
1467,UBmatrix,USA,Redwood City,37.522281,-122.258139
1468,Lyft,USA,San Francisco,37.7899027,-122.4007846
1469,Shattered Reality Interactive,USA,San Francisco,37.783046,-122.394067
1470,Demandbase,USA,San Francisco,37.796843,-122.400346
1471,Jumptap,USA,Boston,42.368633,-71.075305
1472,Jumptap,USA,New York City,40.751478,-73.980305
1473,iCharts,USA,Sunnyvale,37.384239,-122.012475
1474,HammerKit,FIN,Helsinki,60.16441,24.910863
1475,MetaPack,GBR,London,51.52216,-0.111242
1476,Producteev,USA,New York,40.775309,-73.983656
1477,TradeCard,USA,New York,40.707729,-74.007801
1478,StudioNow,USA,Nashville,36.13996,-86.796377
1479,Burt,SWE,Gothenburg,59.337864,18.036587
1480,VideoSurf,USA,San Mateo,37.561877,-122.325248
1481,Yammer,USA,San Francisco,37.776246,-122.4179223
1482,GoodGuide,USA,San Francisco,37.7983181,-122.4000032
1483,Supponor,FIN,Ristiina,61.498858,27.269548
1484,PostPath,USA,Mountain View,37.390501,-122.081151
1485,Where I've Been,USA,Chicago,41.916619,-87.686634
1486,Swype,USA,Seattle,47.6495905,-122.3497956
1487,iWeb Technologies,CAN,"Montreal, QuÃ©bec",45.467876,-73.54266
1488,TimeTrade Systems,USA,Tewksbury,42.513762,-71.243267
1489,TRUECar,USA,Santa Monica,34.0152942,-118.4965479
1490,TRUECar,USA,Santa Monica,34.012985,-118.49567
1491,TRUECar,USA,Austin,30.3096936,-97.9390133
1492,TRUECar,USA,Santa Barbara,34.4405218,-119.7445783
1493,Foodista,USA,Seattle,47.6254784,-122.3564234
1494,Tweegee,ISR,Ramat Gan,32.037363,34.8003705
1495,Intela,USA,Boulder,40.058448,-105.278785
1496,Intela,GBR,London,51.5139758,-0.1230127
1497,Picateers,USA,San Mateo,37.5574,-122.301914
1498,SailPoint Technologies,USA,Austin,30.355703,-97.797117
1499,Big Stage,USA,South Pasadena,34.111471,-118.174878
1500,Mimosa Systems,USA,Santa Clara,37.379684,-121.97514
1501,Mimosa Systems,CAN,Ottawa,45.343475,-75.7186146
1502,Mimosa Systems,GBR,Reading,51.461674,-0.93391
1503,Mimosa Systems,FRA,Boulogne Billancourt,48.8386994,2.2376715
1504,Mimosa Systems,DEU,Aschheim-Dornach,48.1520662,11.6823188
1505,ConnectSolutions,USA,San Francisco,37.580093,-122.347745
1506,3scale,ESP,Barcelona,41.406335,2.192023
1507,Nomadesk,USA,Austin,51.001975,3.61682
1508,Spectrum Bridge,USA,Lake Mary,28.757202,-81.334464
1509,Pressmart,USA,Irvine,33.69361,-117.765492
1510,Pressmart,IND,Hyderabad,17.4391746,78.3785343
1511,Pressmart,GBR,Wiltshire,51.4987295,-1.5953939
1512,Lolapps,USA,San Francisco,37.7870923,-122.3999719
1513,Stylesight,USA,NEW YORK,40.730763,-74.000827
1514,Geodelic Systems,USA,Los Angeles,34.005914,-118.488129
1515,Inuvo,USA,Clearwater,27.913011,-82.702449
1516,Connectbeam,USA,Mountain View,37.401818,-122.050565
1517,Taglocity,CAN,Vancouver,49.2812342,-123.1043395
1518,Helpstream,USA,Mountain View,37.418262,-122.087859
1519,Penguin Computing,USA,San Francisco,37.783171,-122.392901
1520,Chegg,USA,Santa Clara,37.352313,-121.967982
1521,Xactly Corp,USA,San Jose,37.334738,-121.891516
1522,Xactly Corp,USA,Boston,42.355077,-71.056928
1523,Hangout Industries,USA,Boston,42.352835,-71.0609612
1524,Pixelpipe,USA,San Francisco,37.764395,-122.401024
1525,Finjan,USA,New York,37.37027,-121.924053
1526,Inadco,USA,Palo Alto,41.889832,-87.626718
1527,youcalc,DNK,Copenhagen,55.672869,12.558307
1528,Zume Life,USA,San Jose,37.368878,-121.917236
1529,RealTravel,USA,Los Altos,37.395335,-122.102339
1530,Hyper9,USA,Austin,30.387353,-97.753163
1531,Koolanoo Group,CHN,Beijing,39.905556,116.395833
1532,Cazoodle,USA,Champaign,40.090814,-88.239866
1533,IntelePeer,USA,San Mateo,37.536394,-122.326141
1534,IntelePeer,USA,Denver,39.755363,-105.008551
1535,RoyaltyShare,USA,San Diego,32.893366,-117.200035
1536,MobileAware,USA,Boston,53.342648,-6.280957
1537,InstallFree,USA,Stamford,41.073034,-73.550452
1538,Purewire,USA,Atlanta,33.852384,-84.380568
1539,magnify360,USA,Los Angeles,33.946285,-118.38823
1540,Recommind,USA,San Francisco,37.796903,-122.404904
1541,Centrify,USA,Sunnyvale,37.390918,-122.080843
1542,Likewise Software,USA,Bellevue,47.582658,-122.135282
1543,Integrate,USA,Scottsdale,40.7481039,-74.0353787
1544,Koofers,USA,Blacksburg,37.2322135,-80.4164606
1545,Innotas,USA,San Francisco,37.787722,-122.3993979
1546,LockerDome,USA,St. Louis,38.6501668,-90.2598684
1547,LockerDome,USA,New York City,40.7272544,-74.0057152
1548,Kilopass,USA,Santa Clara,37.3802792,-121.9703344
1549,Varolii,USA,Seattle,47.604242,-122.334448
1550,NexPlanar,USA,Hillsboro,45.546481,-122.9021288
1551,sliceX,USA,San Jose,37.3706126,-121.9219538
1552,FreedomPay,USA,Radnor,39.9768778,-75.4162735
1553,Sequoia Communications,USA,San Diego,32.988247,-117.080769
1554,ZManda,USA,Sunnyvale,37.3725243,-122.035963
1555,ELDR Media,USA,Corte Madera,37.9260091,-122.5162892
1556,Synchronica,DEU,Berlin,52.494722,13.398514
1557,Synchronica,USA,Raleigh,35.868807,-78.615986
1558,Synchronica,USA,Campbell,37.275604,-121.952034
1559,Palo Alto Networks,USA,Santa Clara,37.410439,-122.016125
1560,Envysion,USA,Louisville,39.97764,-105.13114
1561,Onehub,USA,Seattle,47.580235,-122.145038
1562,Voxeo,GBR,Hertfordshire,51.8027645,-0.1871194
1563,Voxeo,DEU,Cologne,50.9095785,7.0555242
1564,BitWave,USA,Lowell,42.616152,-71.325869
1565,EnOcean,DEU,Oberhaching,48.031349,11.586705
1566,EnOcean,USA,Boston,42.349048,-71.082153
1567,NitroSecurity,USA,Portsmouth,43.093886,-70.784798
1568,NitroSecurity,USA,Conshohocken,40.075156,-75.28506
1569,Trilliant,USA,Redwood City,37.535876,-122.257331
1570,ShopWiki,USA,New York,40.740441,-73.993376
1571,Occipital,USA,Boulder,40.018145,-105.278109
1572,Foodzie,USA,San Francisco,40.0173513,-105.2773493
1573,UsingMiles,USA,Denver,39.749671,-104.9998449
1574,KoolSpan,USA,Bethesda,38.987594,-77.0974791
1575,Panjiva,USA,NYC,40.741276,-73.991561
1576,Webroot,USA,Broomfield,40.02644,-105.2247774
1577,Atigeo,USA,Bellevue,47.6174533,-122.2016685
1578,UBmatrix,USA,Redwood City,37.522281,-122.258139
1579,Lyft,USA,San Francisco,37.7899027,-122.4007846
1580,Shattered Reality Interactive,USA,San Francisco,37.783046,-122.394067
1581,Demandbase,USA,San Francisco,37.796843,-122.400346
1582,Jumptap,USA,Boston,42.368633,-71.075305
1583,Jumptap,USA,New York City,40.751478,-73.980305
1584,iCharts,USA,Sunnyvale,37.384239,-122.012475
1585,HammerKit,FIN,Helsinki,60.16441,24.910863
1586,MetaPack,GBR,London,51.52216,-0.111242
1587,Producteev,USA,New York,40.775309,-73.983656
1588,TradeCard,USA,New York,40.707729,-74.007801
1589,StudioNow,USA,Nashville,36.13996,-86.796377
1590,Burt,SWE,Gothenburg,59.337864,18.036587
1591,VideoSurf,USA,San Mateo,37.561877,-122.325248
1592,Yammer,USA,San Francisco,37.776246,-122.4179223
1593,GoodGuide,USA,San Francisco,37.7983181,-122.4000032
1594,Supponor,FIN,Ristiina,61.498858,27.269548
1595,PostPath,USA,Mountain View,37.390501,-122.081151
1596,Where I've Been,USA,Chicago,41.916619,-87.686634
1597,Swype,USA,Seattle,47.6495905,-122.3497956
1598,iWeb Technologies,CAN,"Montreal, QuÃ©bec",45.467876,-73.54266
1599,TimeTrade Systems,USA,Tewksbury,42.513762,-71.243267
1600,TRUECar,USA,Santa Monica,34.0152942,-118.4965479
1601,TRUECar,USA,Santa Monica,34.012985,-118.49567
1602,TRUECar,USA,Austin,30.3096936,-97.9390133
1603,TRUECar,USA,Santa Barbara,34.4405218,-119.7445783
1604,Foodista,USA,Seattle,47.6254784,-122.3564234
1605,Tweegee,ISR,Ramat Gan,32.037363,34.8003705
1606,Intela,USA,Boulder,40.058448,-105.278785
1607,Intela,GBR,London,51.5139758,-0.1230127
1608,Picateers,USA,San Mateo,37.5574,-122.301914
1609,SailPoint Technologies,USA,Austin,30.355703,-97.797117
1610,Big Stage,USA,South Pasadena,34.111471,-118.174878
1611,Mimosa Systems,USA,Santa Clara,37.379684,-121.97514
1612,Mimosa Systems,CAN,Ottawa,45.343475,-75.7186146
1613,Mimosa Systems,GBR,Reading,51.461674,-0.93391
1614,Mimosa Systems,FRA,Boulogne Billancourt,48.8386994,2.2376715
1615,Mimosa Systems,DEU,Aschheim-Dornach,48.1520662,11.6823188
1616,ConnectSolutions,USA,San Francisco,37.580093,-122.347745
1617,3scale,ESP,Barcelona,41.406335,2.192023
1618,Nomadesk,USA,Austin,51.001975,3.61682
1619,Spectrum Bridge,USA,Lake Mary,28.757202,-81.334464
1620,Pressmart,USA,Irvine,33.69361,-117.765492
1621,Pressmart,IND,Hyderabad,17.4391746,78.3785343
1622,Pressmart,GBR,Wiltshire,51.4987295,-1.5953939
1623,Lolapps,USA,San Francisco,37.7870923,-122.3999719
1624,Stylesight,USA,NEW YORK,40.730763,-74.000827
1625,Geodelic Systems,USA,Los Angeles,34.005914,-118.488129
1626,Inuvo,USA,Clearwater,27.913011,-82.702449
1627,Connectbeam,USA,Mountain View,37.401818,-122.050565
1628,Taglocity,CAN,Vancouver,49.2812342,-123.1043395
1629,Helpstream,USA,Mountain View,37.418262,-122.087859
1630,Penguin Computing,USA,San Francisco,37.783171,-122.392901
1631,Chegg,USA,Santa Clara,37.352313,-121.967982
1632,Xactly Corp,USA,San Jose,37.334738,-121.891516
1633,Xactly Corp,USA,Boston,42.355077,-71.056928
1634,Hangout Industries,USA,Boston,42.352835,-71.0609612
1635,Pixelpipe,USA,San Francisco,37.764395,-122.401024
1636,Finjan,USA,New York,37.37027,-121.924053
1637,Inadco,USA,Palo Alto,41.889832,-87.626718
1638,youcalc,DNK,Copenhagen,55.672869,12.558307
1639,Zume Life,USA,San Jose,37.368878,-121.917236
1640,LiveHive Systems,CAN,Waterloo,43.474686,-80.521246
1641,The Society,USA,Lakewood,39.658017,-105.084475
1642,Buzzd,USA,New York,40.733928,-73.991334
1643,ConSentry Networks,USA,Milpitas,37.407311,-121.898605
1644,LogLogic,USA,San Jose,37.4155698,-121.9486567
1645,LogLogic,USA,New York,40.749577,-73.9916486
1646,Aruba Networks,USA,Sunnyvale,37.412876,-122.008583
1647,Cliqset,USA,Jacksonville,30.310978,-81.657707
1648,Metranome,CAN,Waterloo,43.494754,-80.530888
1649,Semantra,USA,Addison,32.969251,-96.823778
1650,Gowalla,USA,Austin,30.2729209,-97.7443863
1651,Ziva Software,IND,Bangalore,12.973784,77.64359
1652,PeopleJar,USA,Los Angeles,34.1030032,-118.4104684
1653,Brightstorm,USA,San Francisco,37.804619,-122.371203
1654,Unigo,USA,New York,40.7568493,-73.9793465
1655,Hollywood Interactive Group,USA,Los Angeles,34.052187,-118.243425
1656,Lantronix,USA,Irvine,33.66074,-117.739333
1657,RiseSmart,USA,San Jose,37.383526,-122.012808
1658,Vertica Systems,USA,Billerica,42.543932,-71.278698
1659,Exaprotect,USA,Mountain View,37.419347,-122.089639
1660,CityVoter,USA,Cambridge,42.358184,-71.106389
1661,Groupon,USA,Chicago,41.8965162,-87.643622
1662,Heatwave Interactive,USA,Austin,30.297775,-97.762921
1663,Microstaq,USA,Austin,30.212566,-97.748221
1664,OneSpot,USA,Austin,30.2686147,-97.7404872
1665,iTaggit,USA,Austin,30.268735,-97.745209
1666,CoreTrace,USA,Austin,30.392018,-97.848345
1667,PicApp,USA,San Francisco,37.79402,-122.4031242
1668,DreamBox Learning,USA,Bellevue,47.6130554,-122.1967108
1669,Lumenergi,USA,Newark,37.51821,-122.044025
1670,Cramster,USA,Pasadena,34.147047,-118.148896
1671,Right90,USA,Foster City,37.571318,-122.267962
1672,Finsphere,USA,Bellevue,47.614761,-122.198904
1673,Wiggio,USA,Boston,42.3584308,-71.0597732
1674,Smule,USA,San Francisco,37.779624,-122.391236
1675,Pionetics,USA,San Carlos,37.5155097,-122.2686216
1676,Solicore,USA,Lakeland,28.0788227,-81.9752196
1677,HydroPoint Data Systems,USA,Petaluma,38.2297645,-122.5995346
1678,OQO,USA,San Francisco,37.759117,-122.415869
1679,Total Immersion,FRA,Suresnes,48.872989,2.230086
1680,Total Immersion,USA,Los Angeles,34.062164,-118.358787
1681,Current Communications Group,USA,"Germantown,",39.193953,-77.266168
1682,Radionomy,BEL,Brussels,50.831147,4.33511
1683,MyShape,USA,Glendale,34.141876,-118.132377
1684,AOptix Technologies,USA,Campbell,37.279485,-121.94356
1685,EyeSpot,USA,Torrance,33.84406,-118.322959
1686,Kodiak Networks,USA,Plano,33.012646,-96.692498
1687,FamilyLink,USA,Provo,40.250096,-111.643179
1688,PlumChoice,USA,Billerica,42.542356,-71.279966
1689,One Season,USA,San Francisco,37.775196,-122.419204
1690,Avaak,USA,San Diego,32.897274,-117.201076
1691,Inspirational Stores,FRA,Paris,48.856667,2.350987
1692,Mindjet,USA,San Francisco,50.095312,9.049981
1693,SimplyBox,USA,Campbell,37.285154,-121.932882
1694,Reframe It,USA,San Francisco,37.782163,-122.400591
1695,Sailthru,USA,New York,40.738143,-74.008159
1696,eriQoo,USA,Fremont,37.4942858,-121.9814354
1697,Poptent,USA,Conshohocken,40.0018743,-75.2747196
1698,Kiva Systems,USA,North Reading,42.492256,-71.134549
1699,Nexenta Systems,USA,Santa Clara,37.444098,-122.161287
1700,kooaba,CHE,Z&#252;rich,47.389909,8.516049
1701,Apaja,FIN,Helsinki,60.171821,24.945167
1702,SolFocus,USA,San Jose,37.3987372,-122.0497918
1703,Vinfolio,USA,San Francisco,37.763293,-122.410752
1704,Entellium,MYS,Kuala Lumpur,3.15021,101.707703
1705,Entellium,USA,Seattle,47.620973,-122.347276
1706,Britely,USA,Palo Alto,37.458766,-122.172519
1707,Sentrigo,USA,Santa Clara,37.55911,-122.303493
1708,Sentrigo,USA,Woburn,42.508719,-71.144313
1709,ExactTarget,USA,Indianapolis,39.7672093,-86.1580785
1710,Vontoo,USA,Indianapolis,39.914281,-86.076478
1711,Viximo,USA,Cambridge,42.398424,-71.130297
1712,DubMeNow,USA,Viena,38.916336,-77.230488
1713,Siri,USA,San Jose,37.320052,-121.877636
1714,Cloudera,USA,Palo Alto,37.5783417,-122.3497546
1715,Vuclip,USA,Milpitas,37.406027,-121.918642
1716,Vuclip,IND,New Delhi,28.635308,77.22496
1717,Vuclip,IND,Mumbai,19.0759837,72.8776559
1718,ResearchGate,DEU,Berlin,52.5308516,13.3842605
1719,Booyah,USA,San Francisco,37.420728,-122.2103414
1720,AlphaClone,USA,San Francisco,37.79023,-122.403073
1721,MX Logic,USA,Englewood,39.540323,-104.857271
1722,Websense,USA,San Diego,32.890757,-117.211026
1723,Websense,USA,Los Gatos,37.2485689,-121.9665699
1724,Websense,USA,Dallas,32.836277,-96.806578
1725,FatTail,USA,Woodland Hills,34.167314,-118.590286
1726,Image Metrics,USA,Santa Monica,34.007303,-118.489492
1727,Apigee,USA,Palo Alto,37.369445,-121.967223
1728,SolarCity,USA,San Mateo,37.563039,-122.277639
1729,Biz360,USA,Redwood City,37.537587,-122.255539
1730,BlackStratus,USA,Edison,40.5212078,-74.4107711
1731,Formspring,USA,San Francisco,39.9052263,-86.0547016
1732,ReverbNation,USA,Durham,36.002893,-78.904075
1733,ReverbNation,USA,New York,40.718888,-74.001169
1734,For Your Imagination,USA,New York,40.744594,-73.989698
1735,AdECN,USA,Carpinteria,34.394343,-119.51231
1736,Wishabi,CAN,Toronto,43.644678,-79.567221
1737,SureSpeak,USA,Chicago,41.889183,-87.632519
1738,C4M,FRA,Marseille,43.30758,5.387345
1739,Syndiant,USA,Dallas,32.996571,-96.7562
1740,isocket,USA,Burlingame,37.55909,-122.321836
1741,Movidius,IRL,Dublin,53.3574412,-6.2567125
1742,Pumant,GBR,Birmingham,52.482932,-1.893621
1743,Pumant,ARG,Buenos Aires,-34.611781,-58.417309
1744,Nexaweb Technologies,USA,Burlington,42.483826,-71.194268
1745,Nexaweb Technologies,NLD,Amsterdam,52.390168,4.904251
1746,Games2Win,IND,"Tardeo,Mumbai",18.9742904,72.8127265
1747,semanticlabs,AUT,Vienna,48.202758,16.354637
1748,A10 Networks,USA,San Jose,37.391198,-121.93393
1749,SocialGO,GBR,London,51.5027669,-0.0925694
1750,BrightScope,USA,San Diego,32.873081,-117.2117395
1751,Deskom,FRA,Paris,48.880415,2.327278
1752,StatSheet,USA,Durham,35.7998482,-78.8722341
1753,Ozone Media Solutions,IND,Mumbai,19.017656,72.856178
1754,Ozone Media Solutions,IND,Bangalore,12.971606,77.594376
1755,Crescendo Networks,USA,Sunnyvale,37.451702,-122.182253
1756,Zoopla,GBR,London,51.5037471,-0.1010801
1757,Model Metrics,USA,Chicago,41.8961282,-87.6371628
1758,Vox Media,USA,Washington,38.898713,-77.022422
1759,Netviewer,DEU,Karlsruhe,40.874708,-74.050836
1760,Xignite,USA,San Mateo,37.560236,-122.286752
1761,RadarFind,USA,Morrisville,35.8455929,-78.8012482
1762,Awdio,FRA,Paris,48.887534,2.356288
1763,Newmerix,USA,Superior,39.944003,-105.16519
1764,DocVerse,USA,San Francisco,37.788115,-122.397141
1765,SOASTA,USA,Mountain View,37.418616,-122.087417
1766,Return Path,USA,New York,40.740207,-73.987002
1767,Yipit,USA,New York,40.744618,-73.987764
1768,Next Jump,USA,New York,40.7451545,-73.9869549
1769,Open-Xchange,USA,Tarrytown,41.0662835,-73.8625452
1770,Open-Xchange,DEU,Olpe,51.029415,7.850863
1771,Open-Xchange,DEU,Nuremberg,49.4605351,11.0823953
1772,Trovix,USA,Mountain View,37.420428,-122.090769
1773,Citizenside,FRA,Paris,48.8926988,2.3179601
1774,Centro,USA,Chicago,41.889853,-87.6355433
1775,Centro,USA,New York,40.7408753,-73.9920174
1776,Centro,USA,Dallas,32.7819239,-96.790514
1777,Centro,USA,Santa Monica,34.0312388,-118.4735062
1778,Clearwire,USA,Kirkland,30.6324797,-86.9843446
1779,Privaris,USA,Charlottesville,38.023023,-78.436144
1780,Xeround,USA,Bellevue,47.5827406,-122.1353561
1781,TRX Systems,USA,Greenbelt,38.9916581,-76.879257
1782,kidthing,USA,Los Angeles,34.045845,-118.237811
1783,kidthing,USA,Mason,39.360128,-84.308653
1784,GetBack,USA,Los Angeles,34.0342337,-118.4536137
1785,Verismo Networks,USA,Mountain View,37.3874345,-122.051793
1786,StudyBlue,USA,Madison,43.068006,-89.39256
1787,CopaCast,USA,Santa Clara,37.40688,-121.980353
1788,InnoCentive,USA,Waltham,42.3988781,-71.2537056
1789,InnoCentive,GBR,London,51.5183541,-0.1581968
1790,DeepDyve,USA,Sunnyvale,37.377787,-122.029217
1791,Planet Metrics,USA,San Bruno,37.628328,-122.420814
1792,Populis,ITA,Rome,41.8663418,12.4972454
1793,Sapient,USA,New York,40.707872,-74.004731
1794,Sapient,USA,Atlanta,33.8540338,-84.3584803
1795,Sapient,USA,Chicago,41.881065,-87.62903
1796,Sapient,USA,Birmingham,42.5469062,-83.2144938
1797,Sapient,USA,Miami,25.790926,-80.1343277
1798,Sapient,USA,San Francisco,37.79088,-122.392521
1799,Sapient,USA,Arlington,38.8911989,-77.0837482
1800,One True Media,USA,Redwood City,37.485824,-122.212095
1801,Machinima,USA,West Hollywood,34.0906409,-118.3740745
1802,As It Is,USA,Buffalo,42.917329,-78.867993
1803,Trustpilot,DNK,Copenhagen V,55.6739617,12.5605372
1804,NanoMas Technologies,USA,Vestal,42.093751,-75.959718
1805,PeerApp,USA,Newton,42.3127142,-71.2252014
1806,Memento,USA,Concord,42.441678,-71.424317
1807,Geomagic,USA,Durham,35.8962338,-78.8733184
1808,SynapSense,USA,Folsom,38.6456907,-121.1268303
1809,Infoaxe,USA,Sunnyvale,37.386774,-121.987661
1810,PatientKeeper,USA,Waltham,42.357119,-71.1858605
1811,Eyeview,USA,New York,42.4898278,-71.1993106
1812,Wild Brain,USA,Los Angeles,34.064286,-118.372638
1813,Cymbet,USA,Elk River,45.3039175,-93.6081536
1814,Nantero,USA,Woburn,42.500324,-71.130792
1815,SkyPilot Networks,USA,Santa Clara,37.381876,-121.95993
1816,Clearleap,USA,Duluth,34.070164,-84.058708
1817,ShipServ,GBR,London,51.4629038,-0.263377
1818,ShipServ,DNK,Copenhagen,55.6829314,12.5753004
1819,Kynetx,USA,Lehi,40.4273613,-111.8967224
1820,Datacastle,USA,Seattle,47.651315,-122.3498959
1821,Rollstream,USA,McLean,38.872668,-77.367981
1822,Imagine Communications,USA,San Diego,32.9388917,-117.2398594
1823,Apptera,USA,Palo Alto,37.4224243,-122.0988161
1824,ebridge,USA,Encino,34.157073,-118.484928
1825,Twilio,USA,San Francisco,37.7898499,-122.4006831
1826,iChange,USA,Pasadena,34.144926,-118.149767
1827,iChange,USA,Fullerton,33.877719,-117.924538
1828,Amadesa,USA,Evanston,42.055849,-87.694664
1829,Movirtu,GBR,London,51.5499708,-0.1815999
1830,Movirtu,IND,Noida,28.5821195,77.3266991
1831,MediaMath,USA,New York,40.756799,-73.9763479
1832,Clear Standards,USA,Sterling,39.024958,-77.389687
1833,Zuberance,USA,San Carlos,37.506475,-122.259932
1834,ThingMagic,USA,Cambridge,42.362856,-71.083762
1835,Nuxeo,FRA,Paris,48.8656319,2.392119
1836,Nuxeo,USA,Cambridge,42.3904729,-71.1423056
1837,AutoVirt,USA,Nashua,42.7370219,-71.4872976
1838,WiChorus,USA,San Jose,37.409096,-121.943191
1839,LogMeIn,USA,Woburn,42.486535,-71.115413
1840,LogMeIn,NLD,Amsterdam,52.3710089,4.9277653
1841,ZeroTurnaround,USA,Tartu,58.3820542,26.731054
1842,Momail,SWE,Stockholm,59.3359806,18.075506
1843,HyperWeek,CHE,Geneva,46.2121463,6.1503245
1844,Synthesio,USA,New York,40.7431836,-73.9935011
1845,LoopNet,USA,San Francisco,37.7759421,-122.3931139
1846,Virtual Bridges,USA,Austin,30.27995,-97.807274
1847,Verix,USA,Mountain View,37.4187022,-122.0874129
1848,Bit9,USA,Waltham,42.388133,-71.26322
1849,Revelation,USA,Portland,45.504407,-122.655545
1850,Canpages,CAN,British Columbia,49.2599284,-122.9153695
1851,CrownPeak,USA,Los Angeles,34.0240159,-118.3767176
1852,Refinery29,USA,New York,40.7277189,-73.9508211
1853,OwnerIQ,USA,Boston,42.3472851,-71.0499948
1854,OwnerIQ,USA,Mill Creek,47.852479,-122.218976
1855,People Capital,USA,New York,40.756054,-73.986951
1856,expressor software,USA,Burlington,42.485102,-71.211568
1857,mFoundry,USA,Larkspur,37.862592,-122.493561
1858,SmartEquip,USA,Norwalk,41.143608,-73.427439
1859,SmartEquip,USA,Agoura Hills,34.148198,-118.762487
1860,Adjug,GBR,London,51.5441671,-0.1506897
1861,Azuro,USA,Santa Clara,37.406217,-121.976473
1862,REMOTV,USA,New Haven,41.3215202,-72.9294232
1863,BridgeCo,CHE,"Duebendorf ,  Zurich",47.3994267,8.6049507
1864,AppLabs,IND,Hyderabad,44.6672372,4.7694829
1865,Sojern,USA,San Francisco,41.238038,-96.183033
1866,FeedHenry,USA,Burlington,42.4851017,-71.2089211
1867,Ridemakerz,USA,Saint Louis,38.691084,-90.354532
1868,Tableau Software,USA,Seattle,47.6504518,-122.3545086
1869,Apprenda,USA,Clifton Park,42.856515,-73.782775
1870,3X Systems,USA,Columbus,39.997754,-83.041781
1871,cFares,USA,Redwood City,37.5383063,-122.2523918
1872,StillSecure,USA,Superior,39.956329,-105.164002
1873,iPerceptions,USA,New York,40.7619759,-73.9725773
1874,LucidMedia,USA,Reston,38.9455881,-77.3430173
1875,LucidMedia,USA,New York,40.751336,-73.980739
1876,OpSource,USA,Santa Clara,37.406217,-121.976473
1877,Soma Networks,USA,San Francisco,37.7710402,-122.4026325
1878,YieldBuild,USA,San Francisco,37.7877967,-122.3989376
1879,Oslo Software,FRA,,48.98448,2.2754396
1880,Exit41,USA,Andover,42.6555302,-71.1455618
1881,PrestaShop,FRA,Levallois-Perret,48.8687217,2.3593849
1882,Viigo,CAN,Toronto,43.6490004,-79.3723339
1883,Ekahau,USA,Reston,37.2808523,-122.0031531
1884,Appcelerator,USA,Mountain View,37.3909185,-122.0808426
1885,Quantivo,USA,Emeryville,37.5455355,-122.3208802
1886,Silver Tail Systems,USA,Menlo Park,37.4280877,-122.143368
1887,Modelinia,USA,New York,40.739867,-73.990024
1888,SheZoom,USA,New York,40.7538639,-73.9785086
1889,Broadchoice,USA,San Mateo,37.553743,-122.300246
1890,Jolicloud,FRA,Paris,48.8566667,2.3509871
1891,Altierre,USA,San Jose,37.3968262,-121.8957166
1892,Aftercad Software,CAN,Vancouver,49.2540299,-123.1152075
1893,Drync,USA,Boston,42.376862,-71.14462
1894,op5,SWE,Kista,59.4064174,17.9348818
1895,Agilence,USA,Camden,39.9443552,-75.1257381
1896,Quantance,USA,San Mateo,37.536402,-122.325129
1897,Quantance,USA,Beaverton,45.530364,-122.841627
1898,Fonality,USA,Los Angeles,33.9874429,-118.3846632
1899,Allegiance,USA,South Jordan,40.554923,-111.9032625
1900,Coveroo,USA,San Francisco,37.770067,-122.407603
1901,Clikthrough,USA,San Francisco,37.7965781,-122.4022856
1902,SecondMarket,USA,New York,40.705439,-74.012822
1903,SenSage,USA,San Francisco,37.785655,-122.398393
1904,SolarWinds,USA,Austin,30.245535,-97.805621
1905,ReachForce,USA,Austin,30.389042,-97.756264
1906,Wealthfront,USA,Palo Alto,37.4459832,-122.1490582
1907,BlueKai,USA,New York,40.760955,-73.968441
1908,Clear2Pay,BEL,Mechelen,51.0551923,4.4609658
1909,Manthan Systems,IND,Bangalore,12.9708947,77.5976747
1910,Manthan Systems,USA,Schaumburg,42.062816,-88.034017
1911,Jaspersoft,USA,San Francisco,37.765388,-122.403111
1912,EcoVadis,FRA,PARIS,48.8545738,2.3216223
1913,RideCharge,USA,Alexandria,38.814329,-77.038605
1914,Alien Technology,USA,Morgan Hill,37.141879,-121.655715
1915,Asetek,USA,San Jose,37.320796,-121.828041
1916,StockTwits,USA,San Diego,32.7161896,-117.168697
1917,Busuu,ESP,Madrid,40.4225487,-3.6830316
1918,Busuu,GBR,London,51.5480857,0.6553168
1919,Green Apple Media,IRL,Dublin,53.3438298,-6.2689465
1920,Rudder,USA,Houston,29.739322,-95.444747
1921,FlightStats,USA,Portland,45.519154,-122.675428
1922,Proclivity Systems,USA,New York,40.738954,-73.992
1923,Envivio,USA,San Francisco,37.665469,-122.38222
1924,CouponCabin,USA,Whiting,42.052004,-88.144397
1925,mPay Gateway,USA,Minneapolis,44.98983,-93.2743
1926,Bright View Technologies,USA,Morrisville,35.848054,-78.829934
1927,Vantos,USA,Seattle,47.6018054,-122.3342382
1928,WhiteHat Security,USA,Santa Clara,37.40685,-121.98132
1929,Hanger Network In-Home Media,USA,New York,40.769375,-73.982635
1930,JazzD Markets,USA,Ephrata,40.1759417,-76.1667807
1931,Plusmo,USA,Santa Clara,37.400367,-121.985711
1932,FireEye,USA,Milpitas,37.4102801,-121.9210492
1933,EoPlex Technologies,USA,Redwood City,37.4852445,-122.182454
1934,Altor Networks,USA,Redwood City,37.530327,-122.257222
1935,mBeat Media,USA,Reston,38.94794,-77.347961
1936,VectorMAX,USA,2759 WYNSUM AVENUE,40.7172211,-74.0406491
1937,ClickSquared,USA,Boston,42.3913892,-71.2709869
1938,NTRglobal,USA,Dallas,32.933939,-96.827985
1939,mydeco,GBR,London,51.518101,-0.468617
1940,RGB Networks,USA,Sunnyvale,37.4123706,-122.0216271
1941,Elemental Technologies,USA,Portland,45.519179,-122.677001
1942,Stratavia,USA,Denver,39.7462728,-104.9911572
1943,Anystream,USA,Dulles,39.035298,-77.430125
1944,Anystream,USA,Waltham,42.400416,-71.255286
1945,Aconex,AUS,Melbourne,-37.8161164,144.9715423
1946,Aconex,IND,Bangalore,12.9648638,77.6049218
1947,Aconex,GBR,London,51.5117478,-0.1200848
1948,Aconex,ARE,Dubai,25.271139,55.307485
1949,Conviva,USA,San Mateo,37.552806,-122.2916021
1950,SageQuest,USA,Solon,41.396813,-81.456144
1951,SeeSaw Networks,USA,San Francisco,37.791564,-122.399981
1952,GlassBox,CAN,"Mississauga, ON",43.5351549,-79.6735074
1953,IMedExchange,USA,Seattle,47.6136485,-122.3371174
1954,Provade,USA,San Mateo,37.560155,-122.285588
1955,Vangard Voice Systems,USA,Irvine,33.6298904,-117.7269415
1956,BeliefNetworks,USA,Charleston,32.783932,-79.999591
1957,BeliefNetworks,USA,New York,40.746944,-73.983926
1958,Robotgalaxy,USA,New York,40.737216,-73.990947
1959,Klout,USA,San Francisco,34.0497638,-118.2474287
1960,Proofpoint,USA,Sunnyvale,37.400751,-122.031591
1961,Histogenics,USA,Waltham,42.4001965,-71.2751097
1962,Highwinds,USA,Winter Park,28.597741,-81.3593329
1963,Quanterix,USA,Cambridge,42.3663257,-71.0917952
1964,Conject,DEU,Munich,48.122962,11.5485907
1965,IMT (Innovative Micro Technology),USA,Santa Barbara,34.4356217,-119.8462682
1966,LucidPort Technology,USA,Mountain View,37.386257,-122.066801
1967,Smart Destinations,USA,Boston,42.363496,-71.0613671
1968,PixelFish,USA,Hawthorne,33.84406,-118.322959
1969,JAZD Markets,USA,Andover,42.6555302,-71.1455618
1970,Virident Systems,USA,Milpitas,37.421692,-121.894156
1971,Sonopia,USA,Menlo Park,37.477944,-122.151234
1972,Silver Spring Networks,USA,Redwood City,37.4858629,-122.2067269
1973,3Leaf,USA,Santa Clara,37.381034,-121.971487
1974,Mocana,USA,San Francisco,37.793783,-122.401001
1975,Honeywell,USA,Morristown,40.795862,-74.455515
1976,Sonim Technologies,USA,San Mateo,37.553121,-122.301534
1977,Liquid Engines,USA,"Santa, Clara",37.406217,-121.976473
1978,Sennari,USA,Los Angeles,33.9782287,-118.4303427
1979,Sennari,USA,Los Angeles,33.9782287,-118.4303427
1980,Magix,USA,Reno,39.5148219,-119.7774302
1981,WageWorks,USA,San Mateo,37.458501,-122.432846
1982,InTouch Technologies,USA,Santa Barbara,34.4334453,-119.861747
1983,Conformia Software,USA,Sunnyvale,37.377972,-122.033361
1984,"ServusXchange, LLC",USA,Pompano Beach,26.2341552,-80.1540226
1985,Hammerhead Systems,USA,Mountain View,37.40006,-122.049689
1986,Neopolitan Networks,USA,Palo Alto,37.426316,-122.141082
1987,Packet Design,USA,Santa Clara,37.3821368,-121.970505
1988,Kaazing,USA,Mountain View,37.3941256,-122.0797269
1989,Viva Vision,USA,San Diego,32.903231,-117.188987
1990,Viva Vision,USA,Santa Monica,34.020165,-118.49641
1991,Better Place,USA,Palo Alto,37.3949615,-122.1425097
1992,NanoOpto,USA,Somerset,40.4502734,-74.5299854
1993,Tachyon Networks,USA,San Diego,32.88791,-117.176096
1994,Bluelock,USA,Indianapolis,39.8705647,-86.2374314
1995,Juneau Biosciences,USA,Salt Lake City,40.718033,-111.81104
1996,WildBlue,USA,Englewood,39.6478,-104.9875
1997,LiveVox,USA,San Francisco,37.794643,-122.401144
1998,AVA Solar,USA,Loveland,40.4182087,-105.0002597
1999,Packet Island,USA,Cupertino,37.323991,-122.012882
2000,WizeHive,USA,Conshohocken,40.0716358,-75.3018405
2001,Jasper Wireless,USA,Mountain View,37.394392,-122.04221
2002,Iken Solutions,ARG,Buenos Aires,-34.4942649,-58.5511077
2003,VoloMedia,USA,Sunnyvale,37.382376,-122.037607
2004,Dragonfly,USA,New York,40.756054,-73.986951
2005,Fuego Nation,USA,San Francisco,37.775196,-122.419204
2006,Crossbeam Systems,USA,Boxborough,42.496515,-71.480233
2007,Clarabridge,USA,Reston,38.946532,-77.340436
2008,Clarabridge,USA,San Francisco,37.791402,-122.402844
2009,Clarabridge,GBR,London,51.4918451,-0.2617681
2010,Clarus Systems,USA,Redwood City,37.5380187,-122.2533836
2011,Zenda Technologies,USA,Roswell,34.015986,-84.388934
2012,ReCellular,USA,Ann Arbor,42.306097,-83.714222
2013,Tetraphase Pharmaceuticals,USA,Watertown,42.3630235,-71.158939
2014,Kickfire,USA,Santa Clara,37.381876,-121.95993
2015,Expand Networks,USA,Roseland,40.829813,-74.320006
2016,Spring Mobile Solutions,USA,Seattle,47.6154389,-122.3479567
2017,Spring Mobile Solutions,BRA,SÃ£o Paulo,-23.5965303,-46.6864531
2018,Netadmin,SWE,LinkÃ¶ping,58.3946484,15.56605
2019,AdYouNet,USA,Palo Alto,37.431941,-122.103076
2020,Silverpop,USA,Atlanta,33.882526,-84.4655151
2021,ONStor,USA,Campbell,37.2690782,-121.9559995
2022,RingCube Technologies,USA,Mountain View,37.3915589,-122.0702643
2023,Meru Networks,USA,Sunnyvale,37.400867,-122.033281
2024,RJMetrics,USA,Philadelphia,39.9443552,-75.1257381
2025,Transera Communications,USA,Sunnyvale,37.3521697,-122.0622892
2026,Rohati Systems,USA,Sunnyvale,37.4071848,-122.0194922
2027,Digital Union,USA,Toluca Lake,34.117739,-118.367859
2028,Verient,USA,San Jose,37.3033387,-121.979634
2029,Ravenflow,USA,Emeryville,37.838146,-122.299445
2030,Videonline Communications,USA,Redwood City,37.495996,-122.223273
2031,Achievo(R) Corporation,USA,San Ramon,37.7662,-121.95812
2032,Cortina Systems,USA,Sunnyvale,37.38153,-122.037823
2033,Aquest Systems,USA,Sunnyvale,37.390956,-122.032795
2034,CrowdFlower,USA,San Francisco,37.7652755,-122.4204782
2035,Mu Dynamics,USA,Sunnyvale,37.390233,-122.033741
2036,Multigig,USA,Scotts Valley,35.966068,-115.118671
2037,BA Systems,USA,Sunnyvale,37.3868616,-121.9917771
2038,Sensory Networks,USA,Mountain View,37.430025,-122.09998
2039,Sensory Networks,AUS,Chippendale,-33.874864,151.219149
2040,ChipVision Design,DEU,Oldenburg,53.1485524,8.2004011
2041,ECI Telecom,USA,Ft. Lauderdale,26.1875706,-80.1912988
2042,Veraz Networks,USA,Ft. Lauderdale,26.1875706,-80.1912988
2043,TriCipher,USA,Los Gatos,37.238916,-121.973718
2044,Aperto Networks,USA,Milpitas,37.416183,-121.890252
2045,ID Analytics,USA,San Diego,32.7154,-117.1565
2046,Achronix Semiconductor,USA,San Jose,37.328686,-121.89426
2047,UPEK,USA,Emeryville,37.841433,-122.294712
2048,Actelis Networks,USA,Fremont,37.517078,-121.9920281
2049,Veracode,USA,Burlington,42.4837924,-71.1943142
2050,Intellon Corporation,USA,Ocala,29.1866439,-82.2046985
2051,Double Fusion,USA,San Francisco,37.7887135,-122.3927145
2052,Aicent,USA,San Jose,37.384211,-121.924797
2053,Mantara,USA,New York,40.726517,-74.032177
2054,5th Finger,USA,San Francisco,37.7900992,-122.4021988
2055,Arteris,USA,Sunnyvale,37.3670126,-121.9183082
2056,SourceLabs,USA,Seattle,47.5990443,-122.3342758
2057,LeadPoint,USA,Los Angeles,34.054212,-118.464454
2058,LeadPoint,GBR,London,51.5177117,-0.1410218
2059,Pano Logic,USA,Menlo Park,37.477037,-122.15164
2060,eGistics,USA,Dallas,32.986953,-96.801837
2061,NextG Networks,USA,Milpitas,37.3968078,-121.9113633
2062,SmartTurn,USA,San Francisco,37.789801,-122.395327
2063,Airbiquity,USA,Seattle,47.6042933,-122.3374506
2064,Initiate Systems,USA,Chicago,41.882301,-87.634311
2065,Siperian,USA,Foster City,37.569181,-122.276512
2066,Vertical Acuity,USA,Atlanta,33.8656817,-84.4709443
2067,Symplified,USA,Boulder,40.0179964,-105.2800225
2068,Tendril,USA,Boulder,40.026422,-105.228284
2069,SpongeFish,USA,San Francisco,37.7800788,-122.3943096
2070,SundaySky,ISR,Tel Aviv,32.1115098,34.8388443
2071,Digital Performance,USA,Newport Beach,33.63776,-117.855989
2072,Adaptive Planning,USA,Mountain View,37.4192309,-122.0887097
2073,PSS Systems,USA,Mountain View,37.4216866,-122.0984543
2074,Xumii,USA,San Mateo,37.563585,-122.324621
2075,Xumii,AUS,North Sydney,-33.924567,151.038064
2076,Fidelis Security Systems,USA,Bethesda,38.9855173,-77.088308
2077,MediaXstream,USA,Summit,40.7183693,-74.3575421
2078,Azalea Networks,USA,Milpitas,37.423135,-121.894792
2079,ScaleMP,USA,Cupertino,37.3229727,-122.0385792
2080,Nangate,USA,Sunnyvale,37.4043966,-122.0213965
2081,Nangate,IND,New Delhi,28.53536,77.2419522
2082,Silicon Clocks,USA,Fremont,37.554214,-121.977451
2083,NorthStar Systems International,USA,San Francisco,37.789551,-122.40036
2084,NorthStar Systems International,USA,New York,40.707645,-74.010816
2085,DisplayLink,USA,Palo Alto,37.4253795,-122.1456727
2086,ExaGrid Systems,USA,Westborough,42.2838134,-71.5700473
2087,Spare Backup,USA,Palm Desert,33.7289407,-116.380302
2088,Wazoo Sports,USA,London,37.1286,-84.0834
2089,VeriSilicon Holdings,USA,Santa Clara,37.399208,-121.97895
2090,ParAccel,USA,Campbell,37.3166526,-122.05074
2091,Optimal Technologies,USA,Raleigh,35.808736,-78.623191
2092,F-Origin,USA,Pleasanton,37.666359,-121.884589
2093,Rapport,USA,Herndon,38.9209,-77.3953
2094,WebLayers,USA,Cambridge,42.377535,-71.149057
2095,Optichron,USA,Fremont,37.5078425,-121.9554213
2096,Pictela,USA,New York,40.756054,-73.986951
2097,Micron Technology,USA,Boise,43.5926807,-116.2048973
2098,Siimpel Corporation,USA,Arcadia,34.1086325,-118.0215818
2099,Roundbox,USA,Florham Park,40.79034,-74.385196
2100,Roundbox,USA,San Francisco,37.7864636,-122.3978187
2101,Roundbox,FRA,Bordeaux Cedex,44.8435586,-0.5732556
2102,Vocalocity,USA,Atlanta,33.7812614,-84.3675617
2103,Quick TV,GBR,Newcastle Upon Tyne,54.971065,-1.6194034
2104,Quick TV,GBR,London,51.5115309,-0.1392765
2105,Kleer,USA,Cupertino,37.3230162,-122.0212868
2106,Certess,USA,Campbell,37.295516,-121.960102
2107,Focus,USA,San Francisco,37.793949,-122.398062
2108,Car Advisory Network,USA,Palo Alto,37.445335,-122.15833
2109,LogRhythm,USA,Boulder,40.0322598,-105.2271513
2110,Breach Security,USA,Carlsbad,33.12417,-117.275236
2111,Validus DC Systems,USA,Brookfield,41.459037,-73.394835
2112,Zeugma Systems,CAN,"Richmond, BC",49.1739359,-123.071751
2113,Ruckus Wireless,USA,Sunnyvale,37.3913,-122.037538
2114,Extreme Enterprises,USA,St Petersburg,27.770221,-82.735899
2115,BrightTALK,GBR,London,51.5157682,-0.0970749
2116,BrightTALK,USA,San Francisco,37.791128,-122.398126
2117,BrightTALK,USA,New York,40.7398335,-73.9931582
2118,VisualOn,USA,Santa Clara,37.270518,-121.955879
2119,QSecure,USA,Los Altos,37.3962827,-122.105531
2120,AmberPoint,USA,Oakland,37.810716,-122.263905
2121,Asoka,USA,Santa Clara,37.3694441,-121.9662996
2122,Heyzap,USA,San Francisco,37.7905538,-122.4041485
2123,Samplify Systems,USA,Santa Clara,37.326897,-121.968263
2124,BroadLight,USA,Santa Clara,37.404044,-121.978956
2125,Dakim,USA,Santa Monica,34.0212808,-118.4653508
2126,[x+1],USA,New York,40.7455068,-73.982624
2127,SparkBase,USA,Cleveland,41.513652,-81.666101
2128,Meez,USA,San Francisco,37.785271,-122.397582
2129,Pulse Entertainment,USA,San Francisco,37.796396,-122.404869
2130,Paymetric,USA,Alpharetta,34.0512574,-84.2783459
2131,Agito Networks,USA,Santa Clara,37.381034,-121.971487
2132,6th Sense Analytics,USA,Morrisville,35.864045,-78.820816
2133,KlickSports,USA,Los Angeles,34.0431973,-118.445584
2134,PEX Card,USA,New York,40.752539,-73.987871
2135,Unkasoft Advergaming,ESP,Madrid,40.4474363,-3.6714915
2136,Unkasoft Advergaming,ESP,Villamayor,41.0016627,-5.6937933
2137,Geelbe,COL,Bogotá,4.5980556,-74.0758333
2138,Donnorwood Media,USA,San Francisco,37.785271,-122.397582
2139,QuickPlay Media,GBR,London,51.491028,-0.281845
2140,Intalio,USA,Palo Alto,37.4434186,-122.1607586
2141,CloudShield Technologies,USA,Sunnyvale,37.409618,-122.017792
2142,Actiance,USA,Belmont,37.524422,-122.265869
2143,SensorTran,USA,Austin,30.208939,-97.749879
2144,LesConcierges,USA,San Francisco,37.789518,-122.394265
2145,Open Kernel Labs,USA,Chicago,41.878984,-87.637
2146,Skout,USA,San Francisco,37.7800539,-122.3912492
2147,OnePIN,USA,Westborough,42.2814765,-71.5697033
2148,Xangati,USA,San Jose,37.32136,-122.014616
2149,YouGov,USA,Palo Alto,37.445111,-122.160779
2150,Parade Technologies,USA,San Jose,37.384206,-121.992805
2151,Silicon Genesis,USA,San Jose,37.3938424,-121.9318273
2152,DemandTec,USA,San Carlos,37.498842,-122.239815
2153,DemandTec,GBR,London,51.5069206,-0.1249337
2154,ITM Software,USA,Santa Clara,37.3731161,-121.9659387
2155,Red Condor,USA,Rohnert Park,38.3214803,-122.671198
2156,Symwave,USA,Laguna Niguel,33.553278,-117.6779
2157,Symwave,USA,San Diego,32.895532,-117.213662
2158,Symwave,CHN,Shenzhen,30.9825398,112.2015665
2159,Eka Systems,USA,Germantown,39.1878563,-77.2610228
2160,Airband Communications Holdings,USA,Dallas,32.948733,-96.827495
2161,Signiant,USA,Burlington,42.48366,-71.221878
2162,RockeTalk,IND,Puthanathani,32.895605,-117.188893
2163,CyberArts,USA,San Francisco,37.737609,-122.435399
2164,CyberArts,USA,Berkeley,37.8983665,-122.2795667
2165,SkyData Systems,USA,San Mateo,37.55873,-122.27992
2166,ZinkoTek,USA,San Rafael,38.0148706,-122.5411756
2167,Crossing Automation,USA,Mountain View,37.431091,-122.099263
2168,Untangle,USA,Sunnyvale,37.5374322,-122.3262074
2169,Greentech Media,USA,Cambridge,42.3604755,-71.0954159
2170,Ubicom,USA,San Jose,37.414105,-121.940895
2171,UpSpring,USA,Austin,30.396276,-97.732769
2172,Corefino,USA,Sunnyvale,37.384206,-121.992805
2173,Navitell,BEL,Lummen,50.9881848,5.1928924
2174,Alverix,USA,San Jose,37.385776,-121.926113
2175,Enkata Technologies,USA,Redwood City,37.54763,-122.307887
2176,Arcot Systems,USA,Sunnyvale,37.3898635,-122.0310612
2177,Naseeb Networks,PAK,Lahore,37.3015115,-121.9303616
2178,Aristos Logic,USA,Foothill Ranch,37.42105,-121.893859
2179,Qualvu,USA,Lakewood,39.661171,-105.352174
2180,Attivio,USA,Newton,42.352313,-71.20695
2181,Speedshape,USA,Bingham Farms,42.548008,-83.214753
2182,DuneNetworks,USA,Sunnyvale,37.386774,-121.987661
2183,FirstRain,USA,San Mateo,37.5583159,-122.2862187
2184,FirstRain,USA,New York,40.7521126,-73.9786947
2185,HiWired,USA,Needham,42.2960173,-71.2128734
2186,Granicus,USA,San Francisco,37.787445,-122.397847
2187,Chelsio Communications,USA,Sunnyvale,37.3936563,-122.0279022
2188,Chelsio Communications,JPN,Tokyo,35.669185,139.7345479
2189,Verified Identity Pass,USA,Palm Coast,29.598713,-81.222298
2190,New England Cable News,USA,Newton,42.2940916,-71.1977771
2191,NetStreams,USA,Austin,30.424305,-97.709981
2192,C3L3B Digital,USA,Calabasas,34.1549426,-118.6545471
2193,PowerVision,USA,Belmont,37.5210726,-122.2672469
2194,Power Analog Microelectronics,USA,Santa Clara,37.3767076,-121.997483
2195,Tymphany,USA,San Rafael,38.0085435,-122.5447216
2196,Neuralitic Systems,CAN,"MontrÃ©al, Qc",45.5044288,-73.5570651
2197,MediaPhy,USA,San Jose,37.41668,-121.949456
2198,NoiseFree,USA,Sunnyvale,37.3868616,-121.9917771
2199,Shocking Technologies,USA,San Jose,37.261986,-121.784279
2200,Nexway,FRA,Nanterre cedex,48.8980441,2.2200007
2201,Nexway,FRA,NÃ®mes cedex,43.837967,4.3631044
2202,Nexway,BEL,Brussels,50.7968479,4.3358459
2203,Nexway,ESP,Madrid,40.4142986,-3.7033074
2204,Nexway,SGP,Singapore,1.307505,103.8295
2205,Mobius Microsystems,USA,Sunnyvale,37.377787,-122.029217
2206,Good Technology,USA,Sunnyvale,37.518539,-122.254275
2207,Good Technology,USA,Chicago,41.8812179,-87.637522
2208,Good Technology,USA,New York,40.7511339,-73.978807
2209,Good Technology,USA,Seattle,47.6246175,-122.35931
2210,Appscio,USA,Freedom,36.9397206,-121.7768449
2211,GestureTek,USA,Sunnyvale,37.384206,-121.992805
2212,ConXtech,USA,Hayward,37.641754,-122.121824
2213,TuVox,USA,Cupertino,37.3322445,-122.006515
2214,Backchannelmedia,USA,Boston,42.3514855,-71.0572879
2215,Quorum Systems,USA,Carlsbad,33.170083,-117.30088
2216,Spreadtrum Communications,USA,San Diego,32.895267,-117.191342
2217,Intelliden,USA,Menlo Park,37.4587657,-122.1725191
2218,FastScaleTechnology,USA,Santa Clara,37.370056,-121.973157
2219,ReflexPhotonics,USA,Mountain View,37.401951,-122.053791
2220,Nanoradio,SWE,Kista,59.4074153,17.9514708
2221,Storwize,USA,Marlborough,37.237937,-121.974591
2222,Devicescape,USA,San Bruno,37.628518,-122.424607
2223,Glu Mobile,USA,San Francisco,37.7911371,-122.3973539
2224,Comixology,USA,New York,40.740512,-73.987794
2225,SynapticMash,USA,Seattle,47.6098932,-122.3379255
2226,Woven Systems,USA,Santa Clara,37.3821368,-121.970505
2227,Apprion,USA,Mountain View,37.417485,-122.075789
2228,Copan Systems,USA,Longmont,40.138979,-105.124465
2229,Nexsan,USA,Thousand Oaks,34.185043,-118.878852
2230,Extreme Reach,USA,Needham,42.3043135,-71.2175836
2231,iPrint,USA,Redwood City,37.489184,-122.217166
2232,Synaptics,USA,San Jose,37.352313,-121.967982
2233,Telsima,USA,Sunnyvale,37.4092917,-122.014027
2234,Twistbox Entertainment,USA,Sherman Oaks,34.149692,-118.443422
2235,Vantrix,CAN,"Montreal, Quebec",45.4949481,-73.5740025
2236,TradeBeam,USA,San Mateo,37.552806,-122.2916021
2237,My Team Zone,USA,Lutz,28.099348,-82.461323
2238,NEXAGE,USA,Boston,37.4777028,-121.9250553
2239,Element Labs,USA,Santa Clara,37.380364,-121.9823779
2240,MessageCast,USA,Palo Alto,37.42583,-122.123092
2241,Echopass Corporation,USA,Pleasanton,37.661002,-121.897829
2242,Quantum Secure,USA,San Jose,37.367838,-121.915594
2243,Neocase Software,USA,San Francisco,37.785655,-122.398393
2244,Neocase Software,FRA,Levallois Perret Cedex,48.898648,2.2912796
2245,Atrenta,USA,San Jose,37.371088,-121.925355
2246,Magnum Semiconductor,USA,Milpitas,37.422677,-121.8934565
2247,M-Factor,USA,San Mateo,37.555962,-122.288006
2248,TRAFFIQ,USA,New York,40.7429533,-73.9844611
2249,Serus,USA,Sunnyvale,37.39853,-122.036018
2250,SpaceClaim,USA,Concord,42.462373,-71.387308
2251,Change Healthcare,USA,Brentwood,36.158887,-86.782056
2252,Vocera Communications,USA,San Jose,37.3190224,-121.911101
2253,OpVista,USA,Milpitas,37.4384108,-121.9240273
2254,MiNOWireless,USA,Santa Clara,37.404044,-121.978956
2255,Gamervision,USA,Doylestown,40.3321202,-75.1184485
2256,Mazu Networks,USA,Cambridge,42.395219,-71.145326
2257,Traiana,USA,New York,40.752844,-73.978324
2258,Staccato Communications,USA,San Diego,32.899333,-117.194815
2259,burrp!,IND,Mumbai,19.017656,72.856178
2260,Luminary Micro,USA,Austin,30.306591,-97.826727
2261,LucidWorks,USA,Redwood City,37.553121,-122.301534
2262,Talari Networks,USA,San Jose,37.317735,-121.949417
2263,Talari Networks,USA,Morrisville,35.8535092,-78.8267112
2264,Marble Security,USA,Sunnyvale,37.395335,-122.102339
2265,Carrier IQ,USA,Mountain View,37.3955775,-122.0833286
2266,Rivermine Software,USA,Fairfax,38.872668,-77.367981
2267,Teracent,USA,San Mateo,37.561877,-122.325248
2268,Hidden City Games,USA,Seattle,47.6026054,-122.2848651
2269,KODA,USA,San Francisco,37.788796,-122.40971
2270,KODA,USA,New Orleans,29.9739941,-90.0822015
2271,VidSys,USA,Marlborough,42.338955,-71.595339
2272,VidSys,USA,Vienna,38.9160555,-77.230947
2273,Modulus Video,USA,Libertyville,42.312117,-88.00364
2274,Interface21,USA,San Mateo,37.548482,-122.320534
2275,Sequoia Media Group,USA,Draper,40.5360344,-111.8971489
2276,Xelerated,USA,Santa Clara,59.3352318,18.0571206
2277,Cyan,USA,Petaluma,38.2743225,-122.6670066
2278,Audiolife,USA,Van Nuys,34.213925,-118.487236
2279,Neoconix,USA,Sunnyvale,37.3938849,-122.0333152
2280,Visage Mobile,USA,San Francisco,37.795141,-122.401194
2281,Ginger Software,USA,Lexington,42.4352222,-71.2344601
2282,TechForward,USA,Los Angeles,34.146503,-118.613385
2283,Travel Distribution Systems,AUS,Melbourne,-37.819691,145.205688
2284,OnRequest Images,USA,Seattle,47.6075374,-122.3403478
2285,WordStream,USA,Boston,42.354257,-71.056605
2286,Celeno,USA,Belmont,42.3805557,-71.1746277
2287,U4EA,USA,Acton,42.5254909,-71.4295021
2288,Conformity,USA,Austin,30.35504,-97.801083
2289,VirtuOz,USA,Emeryville,37.782714,-122.39358
2290,VirtuOz,FRA,Paris,48.8790183,2.3379063
2291,Freedom2,USA,Cherry Hill,39.919676,-74.97147
2292,Legend Silicon,USA,Fremont,37.490367,-121.931936
2293,RealD,USA,Beverly Hills,34.067554,-118.395658
2294,Interactive Fitness,USA,Sunnyvale,37.381636,-121.993848
2295,Mobifusion,USA,,37.552104,-121.9780378
2296,Shutl,GBR,London,51.5196135,-0.1020265
2297,CipherMax,USA,San Jose,37.3969138,-121.8939054
2298,Medio,USA,Seattle,47.611827,-122.331308
2299,GainSpan,USA,San Jose,37.409064,-121.943149
2300,Socialize,USA,San Francisco,38.88521,-76.998641
2301,Sittercity,USA,Chicago,41.8879192,-87.6354206
2302,TheMarkets,USA,New York,40.762674,-73.9821315
2303,Etology,USA,Foster City,37.561111,-122.270487
2304,Avnera,USA,Beaverton,45.528908,-122.846665
2305,Gecko Audio,USA,Palo Alto,37.437328,-122.159928
2306,Manifest Digital,USA,Chicago,41.8964988,-87.6436218
2307,The Talk Market,USA,New York,40.756054,-73.986951
2308,Luminescent,USA,Palo Alto,37.4483426,-122.1191487
2309,Masabi,GBR,London,51.503753,-0.0965536
2310,Amimon,USA,Santa Clara,37.388529,-121.967199
2311,Casabi,USA,Campbell,37.293687,-121.934573
2312,Casabi,FRA,Paris,48.8722501,2.3283343
2313,ZeroG Wireless,USA,Sunnyvale,37.3797808,-122.0140777
2314,Alerts,USA,Bellevue,47.6115873,-122.1961785
2315,Space-Time Insight,USA,San Mateo,37.555773,-122.27977
2316,CommonFloor,IND,"Bangalore, Karnataka",12.9593805,77.6378619
2317,RNA Networks,USA,Portland,45.5236631,-122.6713661
2318,TextDigger,USA,San Jose,37.336055,-121.890059
2319,Verve Mobile,USA,Encinitas,33.03898,-117.293385
2320,WANdisco,USA,San Ramon,37.769205,-121.966395
2321,WANdisco,GBR,Sheffield,53.3800107,-1.4629301
2322,Must See India,IND,Bangalore,12.9084701,77.600339
2323,South49 Solutions,USA,Sterling,39.028376,-77.412075
2324,Babble,USA,New York,37.443,-122.159291
2325,Delphix,USA,Menlo Park,37.4239496,-122.1011815
2326,TopCoder,USA,Glastonbury,41.722414,-72.618958
2327,Strangeloop Networks,CAN,"Vancouver, British Columbia",49.2847336,-123.1215927
2328,Zapproved,USA,Portland,45.5251,-122.8097
2329,Axeda,USA,Foxboro,42.023421,-71.241522
2330,Questra,USA,Redwood City,37.5384185,-122.252115
2331,Selatra,IRL,Cork,51.8717115,-8.5010032
2332,Above Security,CAN,Boisbriand,45.6099327,-73.8553
2333,Plastic Jungle,USA,San Mateo,37.400465,-122.073003
2334,7 Billion People,USA,Austin,30.408322,-97.748077
2335,Outright,USA,Mountain View,37.287285,-121.942932
2336,whistleBox,USA,Brooklyn,40.7197125,-73.9607545
2337,Perceptis,USA,Phoenix,33.357125,-111.974507
2338,Sendio,USA,Newport Beach,33.6902466,-117.8659521
2339,Fortumo,EST,Tartu,58.3754107,26.7212208
2340,Fortumo,USA,San Francisco,59.42145,24.8021233
2341,Eightfold Logic,USA,San Francisco,37.7870841,-122.4010675
2342,AlertEnterprise,USA,Fremont,37.4923675,-121.9533099
2343,MyWealth,USA,New York,40.7038257,-74.0083282
2344,FetchDog,USA,Portland,43.6617644,-70.2474116
2345,Mashup Arts,CAN,Halifax,43.648786,-79.3777473
2346,Applimation,USA,Chicago,41.880225,-87.640379
2347,Dasient,USA,Palo Alto,37.44931,-122.160011
2348,Conformiq,USA,Saratoga,37.2808523,-122.0031531
2349,Tinychat,USA,Glen Cove,42.3756409,-72.5196907
2350,Bizanga,USA,San Mateo,37.537542,-122.327609
2351,Comunitae,ESP,Madrid,40.4905109,-3.7033403
2352,HItviews,USA,New York City,40.733201,-73.991535
2353,HItviews,USA,"Beverly Hills,",34.0644639,-118.3730432
2354,Concur Technologies,USA,Redmond,51.5200277,-0.651155
2355,Everyday Health,USA,North Adams,42.7004377,-73.1136591
2356,Everyday Health,USA,Washington,38.906867,-77.042322
2357,Everyday Health,USA,North Hollywood,34.16666,-118.374853
2358,Everyday Health,IND,Mumbai,19.1286862,72.8677942
2359,Punch Entertainment,USA,Palo Alto,37.4233698,-122.0986859
2360,Portero,USA,New York,40.74727,-73.9800645
2361,inContact,USA,Midvale,40.6110797,-111.853717
2362,YOUnite,USA,Mountain View,37.388077,-122.08316
2363,Skytap,USA,Seattle,47.544341,-122.334732
2364,Luminate,USA,Mountain View,37.3998333,-122.0465447
2365,Superfish,USA,Palo Alto,37.414271,-122.134666
2366,Geewa,CZE,Prague 8,50.0938491,14.4505336
2367,PaperG,USA,San Francisco,37.7905948,-122.406111
2368,Major League Gaming,USA,New York,40.752672,-73.97593
2369,CogniFit,USA,New York,47.6023367,-122.2850112
2370,Pocket Communications Northeast,USA,Bloomfield,41.853615,-72.70375
2371,Anygma,BEL,Antwerpen,51.2057495,4.3904302
2372,Anygma,USA,Agoura,34.1078241,-118.7526699
2373,Intercasting,USA,San Diego,32.718834,-117.163841
2374,L4 Mobile,USA,Seattle,47.676762,-122.2049192
2375,Pliant Technology,USA,Milpitas,37.413319,-121.9160606
2376,Enclarity,USA,Aliso Viejo,33.5842816,-117.7306817
2377,Rivulet Communications,USA,Herndon,38.9549825,-77.3924756
2378,Mendeley,GBR,London,51.5224267,-0.1046546
2379,AppNeta,USA,SOUTH BOSTON,42.318138,-71.24756
2380,AirPatrol Corporation,CAN,Burnaby,49.2549899,-122.9170962
2381,LoopFuse,USA,Atlanta,33.909439,-84.44041
2382,Imaginova,USA,New York,40.7454971,-73.9826042
2383,AppZero,USA,Andover,42.6751888,-71.1469003
2384,Skoodat,USA,Chattanooga,34.9707103,-85.3509296
2385,Course Hero,USA,Redwood City,37.511228,-122.200622
2386,M3X Media,USA,West Palm Beach,26.72868,-80.099946
2387,Stantum,FRA,Bordeaux,44.8591741,-0.5656712
2388,Crispy Gamer,USA,New York,40.750597,-73.985273
2389,Kashless,USA,Seattle,47.6257402,-122.3581623
2390,Avere Systems,USA,Pittsburgh,40.532969,-80.010645
2391,IS Decisions,FRA,BIDART,43.4477272,-1.5555799
2392,ClickEquations,USA,Conshohocken,40.0751561,-75.2850602
2393,Lombardi Software,USA,Austin,30.401175,-97.741635
2394,Conveneer,SWE,Lund,55.714683,13.2170029
2395,MyLikes,USA,San Francisco,37.777995,-122.408914
2396,UnboundID,USA,Austin,30.498112,-97.777273
2397,Optify,USA,Seattle,47.603364,-122.333359
2398,Viridity Software,USA,Burlington,42.4871509,-71.1986329
2399,Dyn,USA,Manchester,42.9959408,-71.4634803
2400,Codesion,AUS,"Robina,  QLD",-28.0718703,153.3746053
2401,Cognitive Match,GBR,London,51.5119418,-0.0936688
2402,Cognitive Match,USA,New York,40.7454098,-73.9822211
2403,Cognitive Match,USA,Palo Alto,37.380653,-122.1156934
2404,Cognitive Match,USA,Omaha,41.2601663,-96.0791435
2405,Unity Technologies,USA,San Francisco,55.6924605,12.530107
2406,Simulmedia,USA,New York,40.727216,-73.994797
2407,IGLOO Software,CAN,Kitchener,43.4496954,-80.487328
2408,Evostor,USA,Campbell,37.232902,-121.964385
2409,Jama Software,USA,Portland,45.5309644,-122.68038
2410,InPhase Technologies,USA,Longmont,40.138525,-105.126533
2411,Conmio,FIN,Helsinki,60.1679244,24.9372937
2412,Gridstore,USA,Mountain View,37.4189073,-122.0884286
2413,iPharro Media,DEU,Darmstadt,49.8740096,8.6605881
2414,iPharro Media,USA,New York,40.7438356,-73.9890149
2415,CircuLite,USA,Teaneck,40.8932469,-74.0116536
2416,Relypsa,USA,Redwood City,37.5024749,-122.220408
2417,Rebit,USA,Longmont,40.146898,-105.1350397
2418,Llesiant,USA,Austin,30.385769,-97.768503
2419,Tribridge,USA,Tampa,27.9447371,-82.5265497
2420,ePartners,USA,Irving,32.889576,-96.9668747
2421,ePartners,USA,Alpharetta,34.0480213,-84.3110112
2422,ePartners,USA,Austin,30.306468,-97.827862
2423,ePartners,USA,Westford,42.560347,-71.435656
2424,ePartners,USA,Schaumburg,42.0349479,-88.035427
2425,ePartners,USA,Houston,29.726747,-95.556235
2426,ePartners,USA,Irvine,33.654235,-117.747692
2427,ePartners,USA,Franklin,35.947578,-86.809647
2428,ePartners,USA,Gilbert,33.333807,-111.807513
2429,ePartners,USA,San Diego,32.877656,-117.210595
2430,ePartners,USA,Crawfordville,30.1799941,-84.370242
2431,ePartners,USA,Tampa,27.951383,-82.535172
2432,ePartners,USA,Tulsa,36.149265,-95.993184
2433,ePartners,USA,Reston,38.955832,-77.364711
2434,ePartners,GBR,London,51.5123703,-0.0865272
2435,ePartners,AUS,North Ryde,-33.777049,151.125165
2436,Atraverda,GBR,"Abertillery, Gwent,",23.066066,-82.2927796
2437,BioVex,GBR,Oxon,51.671711,-1.289082
2438,BioVex,USA,Woburn,42.508964,-71.13287
2439,Cmed,USA,,40.688122,-74.393548
2440,Heartscape,USA,Columbia,39.2328783,-76.8204666
2441,Sangart,USA,San Diego,32.89929,-117.1948
2442,33Across,USA,New York,40.75406,-73.999003
2443,Cornerstone OnDemand,USA,Santa Monica,34.028182,-118.472577
2444,PerfectServe,USA,Knoxville,35.9468964,-84.0132568
2445,Portico Learning Solutions,USA,Baton Rouge,30.3527529,-91.0269309
2446,Kiala,BEL,,50.8256038,4.3652584
2447,picoChip,USA,California,37.3709977,-121.9235529
2448,Powervation,USA,San JOSE,37.442601,-122.162159
2449,Abacus e-Media,GBR,London,51.5088058,-0.1335871
2450,Sift,GBR,Bristol,51.451168,-2.5869272
2451,RadioScape,GBR,London,51.5249464,-0.1442311
2452,Stentys,FRA,Paris,48.8707984,2.3359741
2453,Stentys,USA,,40.323339,-74.642505
2454,Surfkitchen,GBR,Reading,51.4245551,-0.9862367
2455,GlobeRanger,USA,Richardson,32.959908,-96.70737
2456,OneChip Photonics,CAN,Ottawa,45.3432016,-75.9211486
2457,Networks in Motion,USA,Aliso Viejo,33.5593924,-117.7293854
2458,Magnetic,USA,New York,40.758343,-73.990152
2459,Magnetic,USA,Santa Monica,34.0188992,-118.4924125
2460,Magnetic,USA,Chicago,41.890178,-87.634115
2461,AnySource Media,USA,Malvern,40.054547,-75.515376
2462,SpaBooker,USA,New York,40.738567,-73.987199
2463,House Party,USA,Irvington,41.0409527,-73.8731834
2464,FiberZone Networks,USA,Bethesda,38.982194,-77.09352
2465,Verisim,GBR,Edinburgh,55.934152,-3.3090825
2466,Zeus,USA,Santa Clara,37.406217,-121.976473
2467,Zeus,ITA,00134 Roma,41.7914948,12.5335067
2468,Zinwave,GBR,Cambridge,52.1367844,0.0732335
2469,Zinwave,USA,Woodland Hills,34.185596,-118.596228
2470,SuperSecret,USA,San Francisco,37.7775896,-122.3956019
2471,Avenue Right,USA,Fargo,46.9037602,-96.8098798
2472,Infobright,CAN,"Toronto, Ontario",43.6490631,-79.3749698
2473,Infobright,USA,Chicago,42.377467,-71.401307
2474,SCVNGR,USA,Boston,42.3406534,-71.0680027
2475,Calient Technologies,USA,Goleta,37.387642,-121.93006
2476,Transfer To,SGP,Singapore,1.3006925,103.8575356
2477,Transfer To,USA,Palo Alto,40.705255,-74.010983
2478,Owlient,FRA,Paris,48.8308091,2.3032201
2479,ividence,FRA,Paris,48.8682244,2.3347594
2480,Identec Solutions,AUT,Lustenau,47.4205083,9.6714503
2481,Axcient,USA,Mountain View,37.3973018,-122.0595623
2482,Kapitall,USA,New York,40.720391,-73.9983139
2483,GameChanger Media,USA,New York,40.7078343,-74.0136605
2484,Snipi,USA,Philadelphia,39.9502045,-75.1618758
2485,Z2Live,USA,Seattle,47.6103008,-122.3399782
2486,ZillionTV,USA,Sunnyvale,37.3738725,-121.9973546
2487,ZillionTV,USA,Santa Monica,34.016838,-118.500603
2488,Dayforce,CAN,Toronto,43.7465688,-79.4072765
2489,Dayforce,USA,Atlanta,33.887619,-84.710865
2490,Livescribe,SWE,Stockholm,59.3179118,18.0339733
2491,Preview Networks,DNK,Copenhagen,55.6659813,12.5800751
2492,Ranker,USA,Los Angeles,34.1012181,-118.325739
2493,Tongal,USA,Santa Monica,34.007112,-118.489748
2494,Nimsoft,USA,Redwood City,37.524851,-122.257185
2495,Musicmetric,GBR,London,51.5253765,-0.0856982
2496,oneforty,USA,Cambridge,42.364014,-71.101375
2497,HealthEngine,AUS,Perth,-31.97822,115.89084
2498,ControlCircle,GBR,London,51.5003204,-0.0178689
2499,betaworks,USA,New York,40.74034,-74.00721
2500,qcue,USA,Austin,30.396989,-97.735768
2501,Openbravo,ESP,Barcelona,41.3935324,2.1660785
2502,tracx,USA,New York,32.0554,34.7595
2503,GlassHouse Technologies,USA,Framingham,42.296056,-71.491047
2504,MetricStream,USA,Palo Alto,37.446535,-122.118794
2505,Sepaton,USA,Marlborough,42.334732,-71.592595
2506,KnewCo,USA,Gaithersberg,39.1207909,-77.186506
2507,Chartbeat,USA,New York,40.73343,-73.990967
2508,Lilliputian Systems,USA,Wilmington,42.5960633,-71.1509692
2509,Newser,USA,Chicago,41.879535,-87.624333
2510,HootSuite,CAN,Vancouver,49.2851733,-123.0952381
2511,HyTrust,USA,Mountain View,37.393836,-122.099454
2512,MedAptus,USA,Boston,42.3538857,-71.0561903
2513,Suniva,USA,Norcross,33.954713,-84.2213281
2514,Adapx,USA,Seattle,47.603873,-122.3339579
2515,Aspects Software,GBR,,55.957569,-3.186156
2516,ExtraHop Networks,USA,Seattle,47.6209107,-122.361239
2517,Brandsclub,BRA,Sao Paulo,-23.5489433,-46.6388182
2518,Smallaa,USA,San Jose,37.39458,-121.928393
2519,Piedmont Pharmaceuticals,USA,Greensboro,36.072863,-79.869229
2520,Basho Technologies,USA,Cambridge,42.365867,-71.092285
2521,Aerovance,USA,,37.8715926,-122.272747
2522,Orthocon,USA,New Brunswick,40.456124,-74.462469
2523,CoTweet,USA,San Francisco,37.7405936,-122.3764714
2524,Fusion-io,USA,Salt Lake City,40.756352,-111.871802
2525,Fusion-io,USA,Alviso,37.4194816,-121.9747667
2526,NuView Systems,USA,Andover,42.53182,-71.134358
2527,Imprivata,USA,Lexington,42.47218,-71.262508
2528,Alert Logic,USA,Houston,29.747497,-95.471515
2529,Phurnace Software,USA,Austin,30.271393,-97.748623
2530,Bomgar,USA,Ridgeland,32.416174,-90.1633006
2531,Bomgar,USA,Duluth,34.057519,-84.17173
2532,Bomgar,FRA,Paris,48.8752305,2.2983373
2533,Bomgar,USA,San Francisco,37.791128,-122.398126
2534,Bomgar,USA,Reston,38.9594124,-77.3563279
2535,Hostway,USA,Chicago,41.8831954,-87.638807
2536,Hostway,GBR,London,51.4992488,-0.0147395
2537,Hostway,DEU,Hannover,52.3284617,9.7839587
2538,OPX Biotechnologies,USA,Boulder,40.02375,-105.226353
2539,Traversa Therapeutics,USA,La Jolla,32.843245,-117.279345
2540,Cerapedics,USA,Westminster,39.8957185,-105.0932779
2541,Ambrx,USA,La Jolla,32.903177,-117.241409
2542,Eiger BioPharmaceuticals,USA,San Carlos,37.5071591,-122.2605222
2543,SolarEdge,USA,Fremont,37.4757796,-121.9382415
2544,WEEZEVENT,FRA,Paris,48.8952712,2.4476331
2545,iZumi Bio,USA,South San Francisco,37.661523,-122.398667
2546,Gear6,USA,Mountain View,37.389615,-122.050179
2547,Tuenti Technologies,ESP,Madrid,40.4158236,-3.696277
2548,Solera Networks,USA,South Jordan,40.3310529,-111.7276347
2549,StoredIQ,USA,Austin,30.213531,-97.815012
2550,Environmental Operations,USA,St. Louis,38.6093764,-90.1959689
2551,DataSphere,USA,Bellevue,47.5826585,-122.1352822
2552,Samasource,USA,San Francisco,37.778991,-122.401803
2553,Tribal Nova,CAN,Montreal,45.5194549,-73.5849023
2554,Alios BioPharma,USA,South San Francisco,37.6664003,-122.451448
2555,Symphogen,DNK,Lyngby,55.783256,12.515066
2556,Melinta,USA,New Haven,41.305179,-72.93117
2557,Borrego Solar Systems,USA,El Cajon,32.8193566,-116.981232
2558,Arcxis Biotechnologies,USA,Pleasanton,37.6589038,-121.9011968
2559,Fisher Coachworks,USA,Oak Park,42.487472,-83.197087
2560,Reflex Systems,USA,Atlanta,33.7489954,-84.3879824
2561,Schoolnet,USA,San Antonio,29.5825211,-98.5379804
2562,Stretch,USA,Sunnyvale,37.411009,-122.006265
2563,Pelikan Technologies,USA,Palo Alto,37.4298665,-122.108852
2564,Crux Biomedical,USA,Menlo Park,37.478519,-122.140715
2565,Trellia Networks,CAN,Montreal,45.4961978,-73.6763827
2566,BlueStripe Software,USA,Morrisville,35.8630913,-78.8245693
2567,SurveyMonkey,USA,Portland,45.522105,-122.676129
2568,SurveyMonkey,USA,Palo Alto,37.453952,-122.185141
2569,Smash Technologies,USA,"Pittsburgh,",40.4290508,-79.9707345
2570,BiPar Sciences,USA,Brisbane,37.674378,-122.387699
2571,MyEdu,USA,Austin,30.288159,-97.750154
2572,FTRANS,USA,"Atlanta,",33.7761977,-84.385257
2573,Novaled,DEU,Dresden,51.0504088,13.7372621
2574,Factery,USA,Menlo Park,37.4484914,-122.1802812
2575,Ikanos,USA,Fremont,37.4734314,-121.9417078
2576,Infochimps,USA,Austin,30.2734822,-97.7588828
2577,Ipanema Technologies,FRA,Fontenay Aux Roses,48.7947724,2.2750813
2578,Ipanema Technologies,USA,Waltham,42.3917693,-71.2576246
2579,Milo,USA,Palo Alto,37.444531,-122.163352
2580,Busca Corp,USA,La Jolla,32.841791,-117.274602
2581,Busca Corp,MEX,"Tijuana, B.C.",32.5217442,-117.0274947
2582,Busca Corp,MEX,Mexico City,19.4164309,-99.1651395
2583,IMshopping,USA,Santa Clara,37.399208,-121.97895
2584,Metreos Corporation,USA,Austin,30.2350399,-97.8001299
2585,Active Endpoints,USA,Waltham,42.389781,-71.239247
2586,Birst,USA,San Francisco,37.789471,-122.404113
2587,Kidlandia,USA,SAN FRANCISCO,37.8017938,-122.4043215
2588,Symform,USA,Seattle,47.6452085,-122.3477735
2589,SeeWhy,USA,Boston,42.675142,-71.1472132
2590,Gist,USA,Seattle,47.6008183,-122.334117
2591,Solyndra,USA,Fremont,37.4757209,-121.9317123
2592,Invenergy,USA,Chicago,41.8819098,-87.6367792
2593,Synosia Therapeutics,CHE,Basel,47.5525264,7.5930992
2594,Elevance Renewable Sciences,USA,Woodridge,41.6750038,-88.0642145
2595,Recyclebank,USA,New York,40.7310476,-74.0078134
2596,BrainCells,USA,San Diego,32.893712,-117.237211
2597,TherOx,USA,Irvine,33.686141,-117.842958
2598,textPlus,USA,Marina del Rey,33.984469,-118.43679
2599,CPM Braxis,BRA,SÃ£o Paulo,-23.5910421,-46.6872018
2600,CPM Braxis,USA,New York,40.756799,-73.9763479
2601,CPM Braxis,USA,Aventura,25.95606,-80.146329
2602,EPAM Systems,USA,Newtown,40.2252558,-74.9035582
2603,EPAM Systems,GBR,London,51.5154835,-0.0881016
2604,BridgeLux,USA,Sunnyvale,37.371138,-121.998365
2605,drchrono,USA,Mountain View,37.4202074,-122.0933053
2606,Netbiscuits,DEU,Kaiserslautern,49.4559965,7.8068522
2607,Netbiscuits,GBR,London,51.513248,-0.1547377
2608,Netbiscuits,USA,San Francisco,37.7550372,-122.4264417
2609,Acer,TWN,Taipei,25.0557219,121.656061
2610,Fuhu,USA,El Segundo,33.92997,-118.39683
2611,NetRetail Holding,CZE,Amsterdam,52.3435239,4.866857
2612,Idhasoft,USA,Norcross,33.9660312,-84.2233569
2613,Fulcrum Microsystems,USA,Calabasas,34.1411985,-118.7040908
2614,ExteNet Systems,USA,Lisle,41.8089007,-88.1132884
2615,Bullhorn,USA,Boston,42.35198,-71.047739
2616,CoreOptics,DEU,Nuremberg,49.4855019,11.1234719
2617,CoreOptics,DEU,Gerlingen,48.8019712,9.0728671
2618,CoreOptics,USA,San Jose,37.395931,-121.927357
2619,Panasas,USA,Fremont,37.5505578,-122.0637143
2620,Panasas,USA,Pittsburgh,40.4478454,-80.0205815
2621,CubeTree,USA,Redwood City,37.487259,-122.232217
2622,Servo Software,USA,San Mateo,37.552262,-122.292146
2623,ColdLight Solutions,USA,Wayne,40.075096,-75.42402
2624,SproutBox,USA,Bloomington,39.164287,-86.526904
2625,EverSpin Technologies,USA,Chandler,33.3253347,-111.8591619
2626,Fotomoto,USA,San Francisco,37.7795014,-122.3948712
2627,SkyFuel,USA,Arvada,39.862942,-105.206509
2628,InnerWireless,USA,Richardson,32.97112,-96.705125
2629,Nanotron Technologies,DEU,Berlin,52.5242594,13.3278512
2630,DiVitas Networks,USA,Mountain View,37.377019,-122.11528
2631,RedBrick Health,USA,Minneapolis,44.9733258,-93.2714719
2632,AeroSat Corporation,USA,Amherst,42.812335,-71.588469
2633,VFM Leonardo,CAN,Toronto,43.6478154,-79.393037
2634,eMeter,USA,San Mateo,37.560781,-122.284114
2635,Eglue Business Technologies,USA,Hoboken,40.736222,-74.02977
2636,Eglue Business Technologies,GBR,London,51.5115309,-0.1392765
2637,Corvil,USA,New York,40.7547187,-73.9711073
2638,Corvil,GBR,London,51.5175331,-0.0828519
2639,AeroScout,USA,Redwood City,37.5353434,-122.2558368
2640,VKernel Corporation,USA,Boston,42.3497366,-71.0491901
2641,Shareaholic,USA,Boston,42.3647559,-71.1032591
2642,Uplogix,USA,Austin,30.3752527,-97.7815663
2643,Envio Networks,USA,Andover,42.686954,-71.209952
2644,Dixon Technologies,IND,Noida,28.5864922,77.3075616
2645,Mobidia Technology,CAN,Richmond,49.1859246,-123.1072471
2646,AllClear ID,USA,Austin,30.2708829,-97.7418001
2647,Helpful Technologies,USA,Ft. Lauderdale,26.2032036,-80.1510951
2648,Glympse,USA,Seattle,47.6220245,-122.3350847
2649,MergeOptics,DEU,Berlin,52.5836506,13.2855038
2650,Bradford Networks,USA,Concord,43.214611,-71.49001
2651,Sand 9,USA,Cambridge,42.3488891,-71.1068046
2652,Unitrends Software,USA,Columbia,34.10057,-80.963732
2653,QD Vision,USA,Watertown,42.3678629,-71.1998364
2654,Silentsoft,CHE,Morges,46.5112294,6.4996426
2655,SensorLogic,USA,Addison,32.958634,-96.823641
2656,Razorsight,USA,Reston,38.872668,-77.367981
2657,Playdom,USA,Palo Alto,37.393536,-122.076747
2658,First Coverage,CAN,"Toronto, ON",43.6878093,-79.3958388
2659,First Coverage,USA,Boston,42.356931,-71.053991
2660,Bigfoot Networks,USA,Redwood City,37.536402,-122.325129
2661,Bigfoot Networks,USA,Austin,30.42845,-97.748816
2662,Firm58,USA,Chicago,41.879641,-87.6425816
2663,Firm58,USA,New York,40.766734,-73.988265
2664,TxVia,USA,New York,40.753881,-73.978852
2665,Minyanville,USA,New York,40.755635,-73.971509
2666,Multiwave Photonics,PRT,Maia,41.2571688,-8.6445243
2667,Canopy Financial,USA,San Francisco,37.791388,-122.392148
2668,BillMyParents,USA,San Diego,32.901317,-117.200492
2669,Tellme,USA,Mountain View,37.396062,-122.084505
2670,Tigo Energy,USA,Los Gatos,37.2612396,-121.9594672
2671,Zetta,USA,Sunnyvale,37.414407,-122.016499
2672,Senscient,USA,League City,29.5399005,-95.064003
2673,Elanti Systems,USA,Somerset,40.535316,-74.521435
2674,InSite Wireless,USA,Alexandria,38.807106,-77.041818
2675,Wi-Chi,USA,Tualatin,45.3774456,-122.7569561
2676,AppAssure Software,USA,Reston,38.953083,-77.335587
2677,Redfern Integrated Optics,USA,Santa Clara,37.380364,-121.9823779
2678,DoubleVerify,USA,New York,40.6454932,-73.9451011
2679,Rhapso,FRA,Palaiseau,48.7191043,2.2639015
2680,Millennial Media,USA,Baltimore,39.281734,-76.581864
2681,Illumitex,USA,Austin,30.239294,-97.838813
2682,Ariane Systems,FRA,,46.4922287,4.0001982
2683,iMove,USA,Portland,45.533544,-122.688602
2684,Marketcetera,USA,San Francisco,37.788864,-122.4008487
2685,Veeva,USA,Pleasanton,37.69249,-121.900722
2686,Simparel,USA,New York,40.750823,-73.985833
2687,Asteres,USA,San Diego,32.88791,-117.176096
2688,Lightning Gaming,USA,Boothwyn,39.8728373,-75.4784988
2689,Aria Networks,GBR,Chippenham,51.4515283,-2.1334555
2690,Virgin Play,ESP,Madrid,40.4273082,-3.6895115
2691,TopChalks,USA,Santa Clara,37.398476,-121.978821
2692,TopChalks,IND,Haryana,28.524582,77.0441855
2693,Audinate,AUS,Ultimo,-33.8810954,151.1968839
2694,Audinate,USA,Portland,45.531379,-122.710253
2695,MMIC Solutions,USA,Austin,30.396989,-97.735768
2696,Garlik,GBR,Richmond,51.462108,-0.295441
2697,Garlik,USA,New York,40.7615818,-73.970624
2698,Sutus,CAN,"Burnaby, BC",49.2641522,-123.0162888
2699,RainStor,USA,San Francisco,51.865488,-2.235187
2700,OfferWire,USA,Vero Beach,27.6476577,-80.3821092
2701,OfferWire,USA,Atlanta,34.046788,-84.300914
2702,Saavn,USA,New York,40.743877,-73.98618
2703,iMPath Networks,CAN,Halifax,44.639034,-63.594669
2704,Playboox,USA,San Francisco,37.7870283,-122.4000192
2705,BT Imaging,AUS,Surry Hills,-33.947414,150.967905
2706,Social Solutions,USA,Baltimore,39.281734,-76.581864
2707,Ondax,USA,Monrovia,34.13915,-118.014846
2708,SkillSurvey,USA,Wayne,40.07918,-75.418689
2709,Fixmo Carrier Services,USA,Issaquah,47.3307422,-122.5833189
2710,Gatekeeper System,USA,Irvine,33.651497,-117.714978
2711,Security Innovation,USA,Wilmington,42.5872713,-71.1556329
2712,Upland Software,USA,Cambridge,42.3656123,-71.0922022
2713,PlantSense,USA,San Francisco,37.7697623,-122.4183929
2714,Syntensia,SWE,Stockholm,59.6121259,17.8947672
2715,My-Hammer,DEU,Berlin,52.5092312,13.3883606
2716,EBR Systems,USA,Sunnyvale,37.390233,-122.033741
2717,Uniteam Communication,FRA,Paris,48.8422783,2.3104829
2718,Lattice Engines,USA,San Mateo,37.553743,-122.300246
2719,Rue89,FRA,,48.8711089,2.3935987
2720,Ameibo,SWE,,65.6010989,22.1830432
2721,Selero,USA,Denver,39.7441981,-104.9884723
2722,Concert Pharmaceuticals,USA,Lexington,42.4236783,-71.2459523
2723,Winbox Technologies,DEU,Furtwangen,48.0505136,8.2054054
2724,Topsy Labs,USA,San Francisco,37.775196,-122.419204
2725,CISSOID,BEL,Mont Saint Guibert,50.6568495,4.6243242
2726,Location,USA,Woonsocket,42.007496,-71.5022314
2727,Bubbles and Beyond,DEU,Leipzig,51.3296737,12.3274318
2728,Five Prime Therapeutics,USA,San Francisco,37.7676285,-122.393799
2729,Tolera Therapeutics,USA,Kalamazoo,42.2927344,-85.5796432
2730,Oxatis,FRA,Marseille,43.3295005,5.3601408
2731,Beam Express,CHE,Lausanne,46.5177782,6.5625638
2732,Warwick Warp,GBR,Coventry,52.3867537,-1.558831
2733,Pole Star,USA,Palo Alto,43.5649138,1.3846826
2734,Vaultive,USA,New York,40.707954,-74.011114
2735,Digium,USA,Huntsville,34.7165112,-86.6917016
2736,Universal Robotics,USA,Nashville,36.1198745,-86.6913222
2737,baimos technologies,DEU,Munich,48.2676378,11.6639395
2738,The Resumator,USA,Pittsburgh,40.438423,-80.001933
2739,CorrectNet,USA,Hauppauge,40.808322,-73.254767
2740,Autoquake,GBR,London,51.543337,-0.172364
2741,Noomeo,FRA,Labège,47.5974286,1.3168395
2742,Pixelligent,USA,College Park,38.992699,-76.93873
2743,2 Minutes,FRA,Paris,48.8502056,2.3698033
2744,Zipcar,USA,NW Atlanta,33.7862629,-84.3877936
2745,gloStream,USA,Bloomfield Hills,42.5424744,-83.2851103
2746,Sofa Labs,USA,San Mateo,37.5646055,-122.3229235
2747,ZettaCore,USA,Englewood,39.5604863,-104.8656251
2748,ZettaCore,USA,Los Altos,37.395335,-122.102339
2749,Ultracell,USA,Livermore,37.6974864,-121.8138788
2750,Ultracell,USA,Vandalia,39.912944,-84.220287
2751,PlexPress,FIN,00790 Helsinki,60.2268115,25.014409
2752,PlexPress,USA,Los Altos,37.349392,-122.087208
2753,X1 Technologies,USA,Pasadena,34.146436,-118.153136
2754,OutSmart Power Systems,USA,Natick,42.2968126,-71.3876282
2755,Fliptop,USA,San Francisco,37.775206,-122.419209
2756,InteliCloud,USA,Newport Beach,33.658546,-117.86595
2757,Hopper,CAN,Montreal,45.5124334,-73.5550157
2758,Hara,USA,San Mateo,37.48413,-122.169472
2759,Gridline Communications,USA,Frisco,35.0728607,-106.6344861
2760,Competitive Power Ventures,USA,Silver Spring,38.9945752,-77.0307225
2761,Soliant Energy,USA,Monrovia,34.144014,-118.001268
2762,SunEdison,USA,Beltsville,39.0610803,-76.8863954
2763,ShopSavvy,USA,San Francsico,37.7770719,-122.3966273
2764,Fulcrum Bioenergy,USA,Pleasanton,37.692934,-121.904945
2765,Electric Cloud,USA,Sunnyvale,37.3903639,-122.0325963
2766,Sunrun,USA,San Francisco,37.7871306,-122.4041075
2767,Emergent Ventures India,IND,"Gurgaon, Haryana",28.436131,77.014704
2768,MedServe,USA,Bellaire,29.709928,-95.45866
2769,Rapid Action Packaging,GBR,London,51.4698433,-0.2611303
2770,Kythera Biopharmaceuticals,USA,Calabasas,34.143507,-118.763605
2771,BeeTV,ITA,Milan,45.4636889,9.1881408
2772,Kwaga,FRA,Paris,48.8318497,2.3389864
2773,GameGround,USA,New York,40.756054,-73.986951
2774,ClickFuel,USA,Burlington,42.3406534,-71.0680027
2775,Quark Pharmaceuticals,USA,Fremont,37.5511524,-122.060501
2776,Blip,USA,Santa Monica,34.0272246,-118.4682333
2777,Tang Wind Energy,USA,Dallas,32.749238,-96.840091
2778,ECO2 Plastics,USA,,37.7278201,-120.9220468
2779,DynaPump,USA,The Woodlands,30.161661,-95.471256
2780,Zero Motorcycles,USA,Scotts Valley,33.526748,-117.177144
2781,Enerpulse,USA,Albuquerque,35.055164,-106.617561
2782,ReliOn,USA,Spokane,47.6858186,-117.1920026
2783,Stromedix,USA,Cambridge,42.369496,-71.07676
2784,Esperion Therapeutics,USA,Plymouth,42.3853985,-83.5069834
2785,Inimex Pharmaceuticals,CAN,"Burnaby, B.C.",49.2589767,-122.9150026
2786,Gravity,USA,Santa Monica,34.007967,-118.489681
2787,American Biomass,USA,Goffstown,42.994063,-71.520878
2788,H2scan,USA,Valencia,34.4421433,-118.5987647
2789,WiTricity,USA,Watertown,42.36867,-71.150248
2790,Arisdyne Systems,USA,Cleveland,41.424425,-81.822531
2791,Brand Affinity Technologies,USA,Irvine,33.671428,-117.791423
2792,CAPNIA,USA,Palo Alto,37.4503251,-122.1164954
2793,Aldagen,USA,Durham,35.9134904,-78.8979393
2794,EnzymeRx,USA,Paramus,40.9234048,-74.0838388
2795,GenVault,USA,Carlsbad,33.123303,-117.271875
2796,Stemline Therapeutics,USA,New York,40.7775647,-73.9459335
2797,Cocodot,USA,Los Angeles,34.104692,-118.375698
2798,ECORE International,USA,Lancaster,40.054099,-76.289191
2799,Range Fuels,USA,Broomfield,39.915572,-105.122053
2800,Renewable Energy Group,USA,Ames,42.0231313,-93.57495
2801,Adaptive Ozone Solutions,USA,Lenexa,38.984079,-94.715428
2802,SLR Consulting,USA,Bothell,47.7975302,-122.2052314
2803,Wakonda Technologies,USA,Woburn,42.5102913,-71.1474063
2804,Allied Resource Corporation,USA,Wayne,40.0716406,-75.4198731
2805,ACT Biotech,USA,San Francisco,37.7871306,-122.4041075
2806,Actimis Pharmaceuticals,USA,San Diego,32.902232,-117.236374
2807,Apieron,USA,Menlo Park,37.482654,-122.172713
2808,Innovative Biosensors,USA,Rockville,39.110655,-77.154466
2809,TRIRIGA,USA,Las Vegas,36.0686005,-115.162279
2810,TRIRIGA,USA,Pleasanton,37.6817236,-121.9031911
2811,ThermaSource,USA,Santa Rosa,38.482853,-122.740198
2812,EdeniQ,USA,Visalia,36.35198,-119.368461
2813,EdeniQ,USA,Omaha,41.195017,-96.0942872
2814,Althea Systems,IND,Bangalore,12.9349604,77.6136847
2815,Sprig Toys,USA,Fort Collins,40.5908212,-105.0809963
2816,Glycos Biotechnologies,USA,Houston,29.768442,-95.401093
2817,CoaLogix,USA,Charlotte,35.295706,-80.995054
2818,Prenova,USA,Atlanta,33.982967,-84.346041
2819,Miragen Therapeutics,USA,Boulder,40.068752,-105.208027
2820,Anaphore,USA,La Jolla,32.89892,-117.242961
2821,Astute Medical,USA,San Diego,32.894045,-117.234724
2822,EyeCyte,USA,La Jolla,32.893589,-117.241633
2823,Novasentis,USA,State College,40.830662,-77.844388
2824,Pasteuria Bioscience,USA,Alachua,29.7848982,-82.4801871
2825,SolarOne Solutions,USA,Framingham,42.276902,-71.413567
2826,Icera,USA,,30.270339,-97.745212
2827,Icera,USA,Richardson,32.974194,-96.714066
2828,Solar Power Partners,USA,Mill Valley,37.8794841,-122.5150765
2829,Stellaris,USA,North Billerica,42.56282,-71.304385
2830,AJ Tech,FRA,GUERANDE,47.3253193,-2.381592
2831,Hyperion Power Generation,USA,Santa Fe,35.6848786,-105.9451978
2832,Hyperion Power Generation,USA,Los Alamos,35.8799641,-106.3026527
2833,Senergen Devices,USA,Fremont,37.4930499,-121.9557248
2834,Solar Junction,USA,San Jose,37.383175,-121.915418
2835,GenKyoTex,CHE,Geneva,46.1685443,6.1036257
2836,Transcend Medical,USA,Menlo Park,37.4817249,-122.1711165
2837,Wasatch Wind,USA,Heber City,40.4960244,-111.4199963
2838,Oncodesign,FRA,Dijon Cedex,47.3161718,5.0754071
2839,Externautics,ITA,Siena,43.3368952,11.3075198
2840,isango!,GBR,London,51.519816,-0.1361616
2841,Novariant,USA,Fremont,37.49202,-121.952239
2842,Novariant,USA,Tucson,32.253511,-111.005271
2843,Novariant,CHL,Santiago,-29.9596413,-71.2559557
2844,Novariant,USA,Broomfield,39.925372,-105.104752
2845,uControl,USA,Austin,30.3542873,-97.7976572
2846,NextPage,USA,Draper,40.4971351,-111.8906575
2847,RxVantage,USA,Culver City,34.030479,-118.3814329
2848,Hexaformer,SWE,,59.4995085,17.9263734
2849,P21,DEU,Munich,48.0418471,11.6644864
2850,Paratek,USA,Nashua,42.822925,-71.502996
2851,Recurrent Energy,USA,San Francisco,37.805289,-122.404448
2852,Apex Construction,USA,Phoenix,33.453968,-112.100881
2853,Netsize,FRA,Meudon  (Paris),48.8943115,2.288319
2854,Netsize,AUS,West Chatswood,-33.867139,151.207114
2855,Netsize,HUN,Budapest,47.4984056,19.0407578
2856,Netsize,ITA,Rome,41.8954656,12.4823243
2857,Netsize,NLD,Amsterdam,52.3738007,4.8909347
2858,Netsize,ESP,Alcobendas,40.4167413,-3.7032498
2859,Netsize,SWE,Älvsjö,59.3327881,18.0644881
2860,Netsize,GBR,London,51.5001524,-0.1262362
2861,Biofisica,USA,Duluth,34.062588,-84.16923
2862,NellOne Therapeutics,USA,Knoxville,35.9155236,-84.1451163
2863,CoalTek,USA,Tucker,33.84819,-84.193858
2864,eIQnetworks,USA,Acton,42.5244457,-71.4325786
2865,InterMed Discovery,DEU,,51.4983521,6.8126313
2866,Innovative Spinal Technologies,USA,Plano,33.0382884,-96.8300836
2867,Innovative Spinal Technologies,USA,"Mansfield, MA",42.030266,-71.2392
2868,Singulex,USA,Alameda,37.723803,-122.240937
2869,Tribold,GBR,London,51.5209358,-0.1424094
2870,MD-IT,USA,Boulder,40.020421,-105.236011
2871,Nautilus Solar Energy,USA,Summit,40.702334,-74.400246
2872,Water Health International,USA,Irvine,33.6333479,-117.7327363
2873,Tragara,USA,San Diego,32.915856,-117.228663
2874,Limerick BioPharma,USA,South San Francisco,37.658713,-122.399382
2875,Terra-Gen Power,USA,New York,40.7562295,-73.9788753
2876,Motion Computing,USA,Austin,30.182285,-97.806787
2877,VistaGen Therapeutics,USA,South San Francisco,37.6656476,-122.3843489
2878,KaloBios Pharmaceuticals,USA,South San Francisco,37.6534817,-122.3956474
2879,Prosensa,NLD,,52.1680188,4.4658637
2880,Prosensa,NLD,Leiden,52.158494,4.496199
2881,Cornerstone Pharmaceuticals,USA,Cranbury,40.329677,-74.495653
2882,Sagent Pharmaceuticals,USA,Schaumburg,42.061187,-88.0794478
2883,Estech,USA,"San Ramon,",37.769081,-121.960029
2884,Estech,NLD,Lage Zwaluwe,51.6936418,4.7005425
2885,Logicworks,USA,New York,40.7254129,-74.0045549
2886,GT Solar,USA,Merrimack,42.830989,-71.489876
2887,GT Solar,USA,Missoula,46.8719508,-113.9934266
2888,GT Solar,CHN,Shanghai,35.8640194,120.0113341
2889,Entra Pharmaceuticals,USA,Boston,42.3488891,-71.1068046
2890,CalciMedica,USA,La Jolla,32.843245,-117.279345
2891,Location Based Technologies,USA,Anaheim,33.860147,-117.809039
2892,Lightwave Power,USA,Cambridge,42.392628,-71.151216
2893,BioStable,USA,"Austin,",30.327779,-97.669955
2894,Aileron Therapeutics,USA,,42.101977,-72.637994
2895,Aileron Therapeutics,USA,Cambridge,42.3736158,-71.1097335
2896,Healionics,USA,Redmond,47.684556,-122.143748
2897,Diagnoplex,CHE,Lausanne,46.5567716,6.6833176
2898,ipadio,GBR,London,51.8205815,0.0118608
2899,Opsona,IRL,Dublin 8,53.3401356,-6.2962414
2900,MediQuest Therapeutics,USA,Bothell,47.795302,-122.205813
2901,VaxInnate,USA,Cranbury,40.3321605,-74.5014238
2902,NanoString Technologies,USA,Seattle,47.6234781,-122.3343544
2903,Solazyme,USA,South San Francisco,37.661543,-122.390464
2904,Anacomp,USA,San Diego,32.994888,-117.082032
2905,Certify Data Systems,USA,San Jose,37.317847,-121.948469
2906,General Dynamics,USA,Falls Church,38.8712205,-77.217416
2907,Perficient,USA,Austin,30.28113,-97.824782
2908,Metrolight,ISR,Netanya,32.3462,34.8615
2909,Metrolight,USA,Franklin,35.947578,-86.809647
2910,TVU Networks,USA,Mountain View,37.416349,-122.085021
2911,Anadys,USA,San Diego,32.901186,-117.238544
2912,NetLogic Microsystems,USA,Mountain View,37.420408,-122.088466
2913,Vyatta,USA,Belmont,37.524422,-122.265869
2914,LifeBond,ISR,Caesarea,32.519016,34.904544
2915,Applied Genetics Technologies Corporation,USA,Alachua,29.7847641,-82.4768036
2916,Silicor Materials,USA,San Jose,37.394118,-122.035378
2917,ViOptix,USA,Fremont,37.4835082,-121.9279627
2918,Strix Systems,USA,Newbury Park,34.189631,-118.928969
2919,Infinite Power Solutions,USA,Littleton,39.5688576,-105.1236849
2920,Azure Power,IND,New Delhi,28.7164018,77.1765029
2921,Solix Biofuels,USA,Fort Collins,40.5932386,-105.0766501
2922,Stormfisher Biogas,CAN,Toronto,43.6538625,-79.3670135
2923,Ykone,FRA,Paris,48.8566667,2.3509871
2924,ElectraTherm,USA,Carson City,39.1880124,-119.7480697
2925,IdeaPaint,USA,Cambridge,42.3694815,-71.0771871
2926,EnerTech Environmental,USA,Atlanta,33.7726102,-84.3507414
2927,Moviepilot,DEU,Berlin,52.4947266,13.398504
2928,Moviepilot,USA,Los Angeles,34.0522342,-118.2436849
2929,Arena Pharmaceuticals,USA,San Diego,32.889321,-117.184408
2930,Versartis,USA,Redwood City,37.523194,-122.259179
2931,Cempra,USA,Chapel Hill,35.911347,-78.976038
2932,Anulex,USA,Minnetonka,44.9025336,-93.4432438
2933,Cervilenz,USA,Chagrin Falls,41.4225841,-81.3857728
2934,Clovis Oncology,USA,Boulder,40.026,-105.259041
2935,Optimum Energy,USA,Seattle,47.598657,-122.334614
2936,Optimum Energy,USA,San Diego,32.8386414,-117.098216
2937,Optimum Energy,USA,New York,40.7518919,-73.9875922
2938,Autonomic Technologies,USA,San Francisco,37.775196,-122.419204
2939,Proteon Therapeutics,USA,Waltham,42.3913892,-71.2709869
2940,Virdia,USA,Redwood City,37.523311,-122.259154
2941,Tokai Pharmaceuticals,USA,Cambridge,42.362856,-71.083762
2942,NovImmune,CHE,Geneva,46.2038099,6.1399589
2943,Elixir Pharmaceuticals,USA,Cambridge,42.362035,-71.113289
2944,Control Medical Technology,USA,Park City,40.743503,-111.5468301
2945,EnerNOC,USA,Boston,42.355246,-71.056915
2946,Polatis,USA,Andover,42.686954,-71.209952
2947,Turbine Air Systems,USA,Houston,29.6982817,-95.3500171
2948,Forterra Systems,USA,San Mateo,37.561576,-122.284173
2949,Greenline Industries,USA,Larkspur,37.9471709,-122.5071031
2950,Trevena,USA,King of Prussia,40.100058,-75.413354
2951,POINT Biomedical,USA,San Carlos,37.5062006,-122.2506373
2952,Solexant,USA,San Jose,37.3825306,-121.9198306
2953,Miles Electric Vehicles,USA,Santa Monica,34.028701,-118.486966
2954,EnerG2,USA,Seattle,47.6042663,-122.3328401
2955,Avantium Technologies,NLD,Amsterdam,52.3965603,4.8516964
2956,Promosome,USA,New York,42.2774845,-74.304914
2957,Chemclin,CHN,Beijing,40.081069,116.2475611
2958,Cardiac Concepts,USA,Minnetonka,44.89789,-93.439465
2959,Cohera Medical,USA,Pittsburgh,40.4490174,-80.0024183
2960,OwnEnergy,USA,Brooklyn,40.7028474,-73.9906813
2961,MaxWest Environmental Systems,USA,Sanford,28.8028612,-81.269453
2962,FastSoft,USA,Pasadena,34.142973,-118.140553
2963,Osprey Pharmaceuticals USA,USA,San Francisco,37.775196,-122.419204
2964,NGM Biopharmaceuticals,USA,South San Francisco,37.656246,-122.399735
2965,LigoCyte Pharmaceuticals,USA,Bozeman,45.6686485,-111.0662396
2966,Ostara,CAN,Vancouver,49.2883553,-123.1233545
2967,Anacor Pharmaceutical,USA,Palo Alto,37.431409,-122.10649
2968,FORMA Therapeutics,USA,Cambridge,42.3595196,-71.1156913
2969,UTOPY,USA,San Francisco,37.767575,-122.411157
2970,Alimera Sciences,USA,Alpharetta,34.093625,-84.242809
2971,Vivendy Therapeutics,CHE,Basel,47.5474514,7.5950107
2972,ReShape Medical,USA,San Clemente,33.4491774,-117.5917143
2973,Sutro Biopharma,USA,South San Francisco,37.647198,-122.394584
2974,Divergence,USA,St. Louis,38.6721461,-90.3949118
2975,Buzzient,USA,Boston,42.362856,-71.083762
2976,Genizon BioSciences,CAN,Quebec,45.4858119,-73.7152901
2977,Connectiva Systems,USA,New York,40.755531,-73.980861
2978,SolarReserve,USA,Santa Monica,34.028173,-118.471235
2979,Garnet Biotherapeutics,USA,Malvern,40.065531,-75.53122
2980,diaDexus,USA,South San Francisco,37.6625446,-122.3888507
2981,CT Atlantic,CHE,Schlieren,47.3993054,8.4600149
2982,Eco Products,USA,Boulder,40.019624,-105.240649
2983,NKT Therapeutics,USA,Newton,42.3097378,-71.214605
2984,Seahorse Bioscience,USA,North Billerica,42.56282,-71.304385
2985,Primaeva Medical,USA,Pleasanton,37.686513,-121.895516
2986,SynapCell,FRA,Grenoble,45.1734252,5.7401962
2987,Anagnostics,AUT,St. Valentin,48.3188574,14.3080734
2988,Natrix Separations,CAN,Ontario,43.3934803,-79.7695631
2989,Axikin Pharmaceuticals,USA,San Diego,32.902232,-117.236374
2990,Iconic Therapeutics,USA,Atlanta,33.756855,-84.387899
2991,Proxeon,DNK,Odense C,55.4058282,10.3882064
2992,Agrisoma Biosciences,CAN,North Vancouver,49.3181212,-123.1017318
2993,Kylin Therapeutics,USA,West Lafayette,40.4653401,-86.9316959
2994,Layar,NLD,Amsterdam,52.3657578,4.8928722
2995,Hepregen,USA,Medford,42.415719,-71.126711
2996,MIOX,USA,Albuquerque,35.199874,-106.582494
2997,Albireo,SWE,Gothenburg,57.6857201,11.955296
2998,Proteostasis Therapeutics,USA,Cambridge,42.3595196,-71.1156913
2999,Taligen Therapeutics,USA,Cambridge,42.3634664,-71.0786638
3000,Makani Power,USA,Alameda,37.7831775,-122.3086191
3001,SpePharm,NLD,,52.38586,4.8425506
3002,Silex Microsystems,SWE,JÃ¤rfÃ¤lla,59.4181143,17.8298019
3003,Linkage Biosciences,USA,South San Francisco,37.7863728,-122.438545
3004,YCD Multimedia,USA,New York,40.745454,-73.991674
3005,YCD Multimedia,GBR,Glasgow,55.8530195,-4.2689907
3006,INRIX,USA,Kirkland,47.6434969,-122.2033998
3007,NAVX,FRA,Levallois-Perret,48.8988968,2.287772
3008,NAVX,ROM,Bucharest,44.4479237,26.097879
3009,Living Proof,USA,Cambridge,42.3661884,-71.0802975
3010,CambridgeSoft,USA,Cambridge,42.3949086,-71.1462914
3011,Environmental Operating Solutions,USA,Bourne,41.7333505,-70.5893753
3012,Global Fitness Media,USA,Los Angeles,34.054318,-118.462876
3013,Microstim,DEU,LÃ¼beck,53.8353585,10.6976787
3014,Siluria Technologies,USA,San Francisco,37.4484914,-122.1802812
3015,MicroVision,USA,Redmond,47.6614954,-122.0943198
3016,Airgain,USA,Carlsbad,33.129172,-117.286973
3017,Airgain,RUS,St. Petersburg,59.939039,30.315785
3018,Luca Technologies,USA,Golden,39.720088,-105.192312
3019,Luca Technologies,USA,Gillette,44.2264,-105.604
3020,Biolex Therapeutics,USA,Pittsboro,35.7259177,-79.1791771
3021,Microfabrica,USA,Van Nuys,34.205101,-118.475297
3022,BPL Global,USA,Sewickley,40.612461,-80.098299
3023,Glaukos,USA,Laguna Hills,33.574055,-117.6749073
3024,Bigpoint,DEU,Hamburg,53.5973055,9.9762519
3025,XCOR Aerospace,USA,Mojave,35.0528,-118.1731
3026,Medicalis,CAN,Ontario,43.4743472,-80.4776122
3027,PINC Solutions,USA,Alameda,37.726339,-122.243783
3028,Accellos,USA,Colorado Springs,38.833716,-104.826256
3029,RF nano,USA,Newport Beach,33.663276,-117.859189
3030,ZoomSystems,USA,San Francisco,37.781689,-122.391061
3031,Catalyst Biosciences,USA,South San Francisco,37.645401,-122.394464
3032,Mint.com,USA,Mountain View,37.392392,-122.078727
3033,PhotoThera,USA,Carlsbad,33.13324,-117.275027
3034,Core Dynamics,USA,Orangeburg,41.032802,-73.972888
3035,ticketea,ESP,Madrid,40.4455155,-3.7061764
3036,Exent,USA,New York,40.7523796,-74.005568
3037,Exent,USA,San Francisco,37.787646,-122.402759
3038,VendAsta,CAN,Saskatoon,52.143886,-106.6634565
3039,GoodBelly,USA,Boulder,40.0153,-105.2702
3040,ESBATech,CHE,,47.3993302,8.4582269
3041,Chronix Biomedical,USA,San Jose,37.320052,-121.877636
3042,Intermolecular,USA,San Jose,37.3949016,-121.9293948
3043,Pontis,ISR,Ra’anana,32.1980455,34.8824253
3044,Pontis,ARG,Capital Federal,-34.5631882,-58.4541925
3045,Lumavita,CHE,Switzerland,47.548934,7.6025604
3046,Extricom,USA,New York,40.72641,-73.984716
3047,Exalt Communications,USA,Campbell,37.2628816,-121.9602134
3048,Audience,USA,Mountain View,37.397602,-122.047546
3049,Visiogen,USA,Irvine,33.646018,-117.711994
3050,Palyon Medical,USA,New York,40.756054,-73.986951
3051,Lycera,USA,Ann Arbor,42.277416,-83.733276
3052,iScience Interventional,USA,Menlo Park,37.4805104,-122.1807356
3053,Molecular Templates,USA,Austin,30.268735,-97.745209
3054,Marinus Pharmaceuticals,USA,Branford,41.29606,-72.770691
3055,CycloMedia Technology,NLD,Waardenburg,52.2994539,4.5896596
3056,NeoPhotonics,USA,San Jose,37.3961981,-121.9301666
3057,20:20 Mobile,ARE,"Crewe, Cheshire",53.0842802,-2.423658
3058,CrowdGather,USA,Woodland Hills,34.168955,-118.575293
3059,Intradigm Corporation,USA,Palo Alto,37.435768,-122.110835
3060,OpTier,USA,New York,40.754937,-73.985647
3061,Scout Labs,USA,San Francisco,37.775196,-122.419204
3062,Alnara Pharmaceuticals,USA,Cambridge,42.3624253,-71.116031
3063,CoolIT Systems,CAN,"Calgary, Alberta",51.087738,-113.991642
3064,Ybrant Digital,IND,Hyderabad,17.4171161,78.4119492
3065,SunGard,USA,Wayne,40.075096,-75.42402
3066,Azingo,USA,Sunnyvale,37.382162,-122.036301
3067,MedeAnalytics,USA,Emeryville,37.8402108,-122.2912173
3068,Waste Remedies,USA,St. Louis,38.65539,-90.296192
3069,Omni-ID,USA,Foster City,37.561111,-122.270487
3070,Zymeworks,CAN,"Vancouver,BC",49.2644563,-123.1356715
3071,Athenix,USA,Research Triangle Park,35.8893657,-78.880602
3072,Deerpath Energy,USA,Marblehead,42.508619,-70.84422
3073,HaloSource,USA,Bothell,47.799279,-122.210048
3074,Si2 Microsystems,USA,San Jose,37.234708,-121.779272
3075,Nuventix,USA,Austin,30.239229,-97.834211
3076,Schoolwires,USA,State College,40.7872915,-77.8268382
3077,Hycrete,USA,Carlstadt,40.82366,-74.055948
3078,Pearl Therapeutics,USA,Redwood City,37.502169,-122.217727
3079,Teliris,USA,New York,42.9029654,-78.883572
3080,Nektar Therapeutics,USA,San Carlos,37.519102,-122.264348
3081,Aveksa,USA,Waltham,42.3988661,-71.253781
3082,Aveksa,IND,Bangalore,12.9346716,77.6317612
3083,Mobiles Republic,FRA,Bordeaux Cedex,44.8743952,-0.5754294
3084,Preferred Systems Solutions,USA,McLean,38.923453,-77.227525
3085,SpectraLinear,IND,,37.383777,-121.963705
3086,SpectraLinear,USA,Austin,30.267153,-97.7430608
3087,Layer 7 Technologies,USA,Washington,38.897976,-77.028561
3088,Layer 7 Technologies,CAN,Vancouver,49.2864769,-123.1220081
3089,Layer 7 Technologies,GBR,Surrey,51.2357089,-0.5813902
3090,Digi International,USA,Minnetonka,44.898635,-93.415905
3091,MedManage Systems,USA,Bothell,47.7781074,-122.1889186
3092,Physicians Interactive,USA,Reading,42.2938519,-87.9973255
3093,Antenna Software,USA,Jersey City,40.720883,-74.081365
3094,Cyber-Rain,USA,,34.186206,-118.50391
3095,Aspen Aerogels,USA,Northborough,42.347872,-71.63034
3096,Alter-G,USA,Fremont,37.4667988,-121.9240065
3097,TARIS Biomedical,USA,Lexington,42.4236783,-71.2459523
3098,XDx,USA,Brisbane,37.691226,-122.4040269
3099,CE Info Systems,IND,New Delhi,28.5360568,77.2078207
3100,Edgeware,SWE,STOCKHOLM,59.3326694,18.0523253
3101,Edgeware,USA,San Jose,37.3403284,-121.8864433
3102,Delphi,USA,,42.603532,-83.16134
3103,WiNetworks,USA,New York,40.770437,-73.990426
3104,Altobeam,CHN,Beijing,55.902143,-3.208711
3105,EpiCrystals,FIN,Tampere,61.446133,23.860719
3106,Jasper Design Automation,USA,Mountain View,37.393536,-122.076747
3107,Pipeline Micro,USA,Honolulu,21.292181,-157.850924
3108,EcoSMART Technologies,USA,Alpharetta,34.0374308,-84.2952754
3109,CoMentis,USA,South San Francisco,37.646457,-122.394008
3110,FireScope,USA,Huntington Beach,33.664705,-118.012553
3111,FireScope,USA,Carrollton,33.0353,-96.9274
3112,FireScope,AUS,Sydney,-33.867139,151.207114
3113,FireScope,GBR,London,51.5001524,-0.1262362
3114,Acumentrics,USA,Westwood,42.225617,-71.179801
3115,Advanced Manufacturing Control Systems,IRL,Co. Limerick,52.5155,-8.44692
3116,Innovation Fuels,USA,New Haven,41.2887451,-72.903102
3117,ERTH Technologies,USA,Longmont,40.093828,-105.187208
3118,Principle Power,USA,Seattle,47.5992095,-122.3343564
3119,Gevo,USA,Englewood,39.558982,-104.856898
3120,Sunovia,USA,Sarasota,27.4281996,-82.5362596
3121,ExploraMed,USA,Mountain View,37.400945,-122.111318
3122,Nuon Therapeutics,USA,San Mateo,37.536402,-122.325129
3123,Mainstream energy,USA,San Luis Obispo,35.2441852,-120.6425269
3124,Woodland Biofuels,CAN,Ontario,43.6455935,-79.6944325
3125,Clean Mobile,DEU,,48.0554409,11.6075086
3126,Breathe Technologies,USA,Irvine,33.664567,-117.747521
3127,Inspire Medical Systems,USA,Maple Grove,45.069344,-93.4034162
3128,Spiracur,USA,Redwood City,37.4298335,-122.004179
3129,Bioscale,USA,LEXINGTON,42.3609606,-71.1017618
3130,Onset Technology,USA,Waltham,42.39526,-71.256368
3131,Formatta,USA,Fairfax,38.872668,-77.367981
3132,Maxymiser,USA,New York,55.9485591,-3.2151393
3133,Genasys,ESP,Madrid,40.4161835,-3.6988729
3134,VISEO,FRA,PARIS,48.8712793,2.307045
3135,Flirtomatic,GBR,London,51.5272363,-0.0956262
3136,Colibria,NOR,Lysaker,59.9115246,10.6389654
3137,Keldelice,FRA,Paris,48.8762858,2.3484231
3138,VytronUS,USA,Sunnyvale,37.394258,-122.032776
3139,Struq,GBR,London,51.5152023,-0.1366861
3140,Struq,USA,,40.7766412,-73.9521468
3141,High Gear Media,USA,Menlo Park,37.445335,-122.15833
3142,SoloPower,USA,San Jose,37.253463,-121.782906
3143,Coskata,USA,Warrenville,41.8035954,-88.159371
3144,Metallkraft AS,NOR,Kristiansand,58.155769,7.9543206
3145,Solairedirect,FRA,Paris,48.8745951,2.3210737
3146,Qteros,USA,Marlborough,42.3253727,-71.5854884
3147,NeoSystems,USA,Vienna,38.9128266,-77.2200164
3148,ChallengePost,USA,New York,40.7408042,-74.00717
3149,Mashable,USA,New York,40.7401544,-73.9867417
3150,R2 Semiconductor,USA,Sunnyvale,37.4104762,-122.0185959
3151,Unique Solutions,CAN,,44.7097082,-63.5866685
3152,FishNet Security,USA,Alpharetta,34.063151,-84.290567
3153,FishNet Security,USA,Newport Beach,33.666407,-117.859182
3154,DeciZium,USA,San Jose,37.337756,-121.89435
3155,Compliance 360,USA,Alpharetta,34.045551,-84.311385
3156,Ciclon Semiconductor Device Corporation,USA,Bethlehem,40.6015759,-75.3611135
3157,AlterPoint,USA,Austin,30.354768,-97.798152
3158,Sana Security,USA,San Mateo,37.54763,-122.307887
3159,Mirage Networks,USA,Chicago,41.881978,-87.630125
3160,Force10 Networks,USA,San Jose,37.418636,-121.944828
3161,TeachScape,USA,San Francisco,37.7869047,-122.4043924
3162,PopCap Games,USA,Seattle,47.6161693,-122.3451897
3163,ISIS sentronics,DEU,,48.265012,13.0305666
3164,StyleCaster,USA,New York City,40.7450497,-73.9900984
3165,UAB FIMA,LTU,Vilnius,54.7075951,25.3046071
3166,Decalog,FRA,,44.940367,4.8665775
3167,Content Syndicate: Words on Demand,ARE,Dubai,25.1910055,55.2373803
3168,Athic Solutions,FRA,Puteaux,48.8830111,2.2382555
3169,Northern Power Systems,USA,Barre,44.170982,-72.486152
3170,GreenVolts,USA,Fremont,37.790153,-122.398669
3171,AltaRock Energy,USA,Seattle,47.6859295,-122.3373282
3172,AltaRock Energy,USA,Seattle,47.620973,-122.347276
3173,SoftLayer,USA,Dallas,33.017317,-96.837682
3174,Purple Labs,CHE,DÃ¼bendorf,47.4004994,8.6029472
3175,Semprius,USA,Durham,35.8948471,-78.8923523
3176,One97 Communications,IND,Noida,28.5888843,77.3223915
3177,One97 Communications,IND,Chennai,13.0364759,80.2292154
3178,Quench,USA,King of Prussia,39.767016,-86.156255
3179,Grain Management,USA,Sarasota,27.3372319,-82.5309605
3180,MBA Polymers,USA,Richmond,37.93039,-122.374927
3181,aCon,DNK,Soenderborg,54.9201429,9.8114974
3182,OSG Records Management,RUS,Moscow,30.617845,-87.910036
3183,Teambox,ESP,Barcelona,41.4063346,2.1920231
3184,Bling Nation,USA,Palo Alto,37.446411,-122.16054
3185,Access Intelligence,USA,Rockville,39.1133736,-77.1834024
3186,Roc2Loc,USA,San Francisco,37.782475,-122.407764
3187,Adventi,GBR,Bellshill,55.8258935,-4.0397147
3188,Testplant,GBR,London,51.517356,-0.1037742
3189,Testplant,USA,Boulder,40.0230047,-105.2532841
3190,OATSystems,USA,Waltham,42.3853422,-71.2070168
3191,HiperScan,DEU,Dresden,51.1260927,13.7850316
3192,Ultra Electronics,GBR,,51.5416173,-0.3631758
3193,BzzAgent,USA,Boston,42.341899,-71.065924
3194,PacketVideo,USA,San Diego,32.718834,-117.163841
3195,Trapeze Networks,USA,Pleasanton,37.6865226,-121.8908739
3196,SKURA,CAN,Oakville,43.5041715,-79.6711308
3197,Avenda Systems,USA,Santa Clara,37.381034,-121.971487
3198,Homesnap,USA,Washington,38.960381,-77.084811
3199,BuyVIP,ESP,Madrid,40.4167413,-3.7032498
3200,Adomo,USA,Cupertino,37.323345,-122.029954
3201,CPower,USA,New York,40.756054,-73.986951
3202,GreenBytes,USA,Providence,41.829229,-71.421059
3203,Culture Jam,USA,Los Angeles,34.0137151,-118.4660597
3204,Nordic Windpower,USA,Berkeley,37.863464,-122.3153453
3205,Anchor Bay Technologies,USA,Campbell,37.2496346,-121.9665932
3206,Kineto Wireless,USA,Milpitas,37.405474,-121.918248
3207,SandForce,USA,Milpitas,37.2807831,-122.0032261
3208,Sierra Monolithics,USA,Redondo Beach,33.8391756,-118.3895144
3209,Sierra Monolithics,USA,Sunnyvale,37.384206,-121.992805
3210,Sierra Monolithics,USA,Irvine,33.649475,-117.849172
3211,Venturi Wireless,USA,Sunnyvale,37.4099985,-122.0018725
3212,GoTV Networks,USA,Sherman Oaks,34.15084,-118.448703
3213,Veeco Instruments,USA,Plainview,40.791699,-73.467612
3214,Clavis Technology,USA,Cambridge,42.3626626,-71.084153
3215,FinAnalytica,USA,New York,40.751293,-73.978887
3216,Presidium Learning,USA,Reston,38.947942,-77.331536
3217,Equiendo,IRL,Nangor Road,53.3370743,-6.2518914
3218,poLight,NOR,Horten,59.417084,10.4832128
3219,Crocus Technology,USA,Sunnyvale,37.386774,-121.987661
3220,Canevaflor,FRA,,45.1939977,1.4494329
3221,Mesuro,GBR,Pencoed,51.521087,-3.49837
3222,afterBOT,USA,Norcross,33.9391998,-84.1503956
3223,Continuity Engine,USA,New Haven,41.3279176,-73.2435522
3224,Incuity Software,USA,Mission Viejo,33.6640874,-117.6325191
3225,Nexterra,CAN,Vancouver,49.282159,-123.1176496
3226,Neodyne Biosciences,USA,Menlo Park,37.483483,-122.17666
3227,NovaSys,USA,Little Rock,34.7465,-92.2894
3228,DebtFolio,USA,Hartford,41.765553,-72.673015
3229,Everyday Solutions,USA,Concord,42.4623551,-71.3797358
3230,NanoBio,USA,Ann Arbor,42.3079711,-83.6927623
3231,InfoLogix,USA,Hatboro,40.1923295,-75.1069232
3232,smartFOCUS,GBR,Bristol,51.4525116,-2.5909744
3233,Ponte Solutions,USA,Mountain View,37.400945,-122.111318
3234,PaymentOne,USA,San Jose,37.248043,-121.776935
3235,Arkeia Software,USA,Carlsbad,33.132567,-117.292746
3236,Jelli,USA,San Mateo,37.55909,-122.321836
3237,Vigilos,USA,Seattle,47.6113314,-122.3430581
3238,ANTs Software,USA,Dunwoody,37.590056,-122.347654
3239,OptiMedica,USA,Santa Clara,37.3777985,-121.9744545
3240,Aqwise,ISR,Herzliya,32.162413,34.844675
3241,Tiny Speck,CAN,Vancouver,49.2824551,-123.109217
3242,NanoInk,USA,Skokie,42.041574,-87.749253
3243,Advanced Power Projects,USA,Fremont,37.5252461,-121.9178417
3244,Luminus Devices,USA,Billerica,42.528635,-71.278022
3245,Chestnut Medical,USA,Menlo Park,37.4819462,-122.1717587
3246,Nellix,USA,Palo Alto,37.4499718,-122.1161779
3247,Cameron Health,USA,San Clemente,33.44801,-117.607717
3248,Cantimer,USA,Menlo Park,37.484616,-122.181753
3249,Celestial Semiconductor,USA,San Jose,37.386417,-121.92917
3250,Purfresh,USA,Menlo Park,37.477008,-122.151599
3251,InSound Medical,USA,Newark,37.512038,-121.998513
3252,Getyoo,BEL,Brussels,50.83997,4.3464721
